{"type":"FeatureCollection","features":[{"type":"Feature","id":1,"geometry":{"type":"Polygon","coordinates":[[[41.989648614792799,34.351246846063148],[41.98685125127075,34.35487098493924],[41.982733056062415,34.352399321716526],[41.985458454177909,34.348806353231382],[41.989648614792799,34.351246846063148]]]},"properties":{"OBJECTID":1,"الاستعمال":"مقبرة","المؤسسة":"مقبرة","SHAPE_Length":1887.9679348293585,"SHAPE_Area":222441.38308259624}},{"type":"Feature","id":2,"geometry":{"type":"Polygon","coordinates":[[[41.985574293765438,34.348653630606506],[41.994286084138395,34.337166249765254],[41.998940027625252,34.339228111483074],[41.98976590104435,34.351094964019339],[41.985574293765438,34.348653630606506]]]},"properties":{"OBJECTID":2,"الاستعمال":"مقبرة","المؤسسة":"مقبرة","SHAPE_Length":4028.0757683126931,"SHAPE_Area":733429.49066606478}}]}