{"type":"FeatureCollection","features":[{"type":"Feature","id":1,"geometry":{"type":"Polygon","coordinates":[[[41.975164764601026,34.3592178604002],[41.974839632363626,34.359644337169691],[41.974398840509132,34.359413221794902],[41.974723973181177,34.358986746140808],[41.975164764601026,34.3592178604002]]]},"properties":{"OBJECTID":1,"Name":"تجاري","اسم_المؤسس":"سوق","Shape_Length":207.99983524219277,"Shape_Area":2687.9956983650472,"رقم_القطعة":"9383"}},{"type":"Feature","id":2,"geometry":{"type":"Polygon","coordinates":[[[41.981456059503216,34.362699641686284],[41.981552399983428,34.362797367389334],[41.981554816419369,34.362800252425536],[41.981556664409958,34.362803414526674],[41.981557895532205,34.362806775550744],[41.981558481933831,34.362810255051457],[41.981558408635244,34.362813767761793],[41.981557678065329,34.362817228891601],[41.981556307857367,34.362820553280123],[41.981554329922695,34.362823659925446],[41.981476372829334,34.362925927790606],[41.980998810401054,34.362675580428267],[41.981423947822762,34.362117865383873],[41.981878548596917,34.362356174946555],[41.981881961722252,34.36235829202657],[41.981884933118117,34.362360826404689],[41.981887389893856,34.362363714957894],[41.981889271903746,34.362366886139938],[41.981890531842723,34.362370262683079],[41.981891140644635,34.362373760565156],[41.981891081189552,34.36237729547274],[41.981890355746351,34.362380778112652],[41.9818889830659,34.362384124198222],[41.981886994995222,34.362387250926247],[41.9818539137773,34.362430647395371],[41.981851378766613,34.362433462055563],[41.981848346137042,34.362435914770714],[41.981844889898767,34.362437946948539],[41.98184109415552,34.362439508764652],[41.981837053200458,34.362440561864254],[41.981832862891665,34.362441081375401],[41.981828626018505,34.362441053975154],[41.981824446967309,34.362440480723997],[41.981676668159807,34.3624102355217],[41.981456059503216,34.362699641686284]]]},"properties":{"OBJECTID":2,"Name":"تجاري","اسم_المؤسس":" ","Shape_Length":270.03697686200945,"Shape_Area":3160.3619846771903,"رقم_القطعة":"5720"}},{"type":"Feature","id":3,"geometry":{"type":"Polygon","coordinates":[[[41.967964427356371,34.363720561255171],[41.967732152491422,34.364025175835863],[41.966630148875538,34.363447069235797],[41.966862425336551,34.363142455726262],[41.967964427356371,34.363720561255171]]]},"properties":{"OBJECTID":3,"Name":"تجاري","اسم_المؤسس":" ","Shape_Length":320.03153108150696,"Shape_Area":4800.6300152798121,"رقم_القطعة":null}},{"type":"Feature","id":5,"geometry":{"type":"Polygon","coordinates":[[[41.983477229170603,34.363935221652902],[41.983428143418692,34.364038488206369],[41.983212231637772,34.364081736267082],[41.983203147412418,34.364082892605452],[41.983193956684161,34.364082762550879],[41.983184924799978,34.364081349545998],[41.983176309728329,34.364078694170516],[41.983168356532964,34.364074871571923],[41.983161295232748,34.36406999241904],[41.983155326427472,34.364064196041468],[41.983150622319961,34.364057648601886],[41.98314731563201,34.364050537056634],[41.98314550270284,34.364043064573174],[41.983145234609069,34.364035445338303],[41.983146519113227,34.364027898200902],[41.983149319290291,34.364020638592876],[41.983153555571988,34.364013874873763],[41.983555959872319,34.363485965490874],[41.983558512771779,34.363483135036219],[41.983561567807079,34.363480670915891],[41.983565051032308,34.363478633524288],[41.983568875085773,34.363477072766436],[41.983572946760262,34.363476026971867],[41.983577165916977,34.363475522921128],[41.983581427529863,34.363475572190396],[41.983585628297632,34.363476173694224],[41.983589663353683,34.363477312864553],[41.983593432750425,34.36347896059106],[41.984219189119216,34.36380697063921],[41.984226456476037,34.36381152921475],[41.984232701884331,34.363817032146429],[41.984237751287274,34.363823322332628],[41.984241461515907,34.36383022479157],[41.984243727795494,34.363837543773911],[41.984244487419261,34.3638450743913],[41.984243718726219,34.36385260444392],[41.984241442442944,34.363859921599001],[41.984237723025359,34.363866820569186],[41.984232666614524,34.363873106767919],[41.984226413690038,34.363878603699931],[41.984219140283955,34.36388315653722],[41.984211051624285,34.363886636781082],[41.98420237581054,34.363888947824847],[41.983917951878709,34.363943365955265],[41.983819628639587,34.363869710906911],[41.983477229170603,34.363935221652902]]]},"properties":{"OBJECTID":5,"Name":"تجاري","اسم_المؤسس":" ","Shape_Length":269.1230060429931,"Shape_Area":3001.1378431082258,"رقم_القطعة":null}},{"type":"Feature","id":6,"geometry":{"type":"Polygon","coordinates":[[[41.966733352886628,34.365335016219248],[41.966489456005405,34.365654859319797],[41.965387436752458,34.365076741436809],[41.965631336483227,34.364756900379142],[41.966733352886628,34.365335016219248]]]},"properties":{"OBJECTID":6,"Name":"تجاري","اسم_المؤسس":" ","Shape_Length":324.03152656586315,"Shape_Area":5040.6558690339134,"رقم_القطعة":null}},{"type":"Feature","id":7,"geometry":{"type":"Polygon","coordinates":[[[41.983742433382616,34.366741059566927],[41.983492057489343,34.3670695156124],[41.982176725948307,34.366380056709154],[41.982427104252906,34.366051603192368],[41.983742433382616,34.366741059566927]]]},"properties":{"OBJECTID":7,"Name":"تجاري","اسم_المؤسس":" ","Shape_Length":372.68004132099031,"Shape_Area":6176.326152328269,"رقم_القطعة":null}},{"type":"Feature","id":8,"geometry":{"type":"Polygon","coordinates":[[[41.983817953189146,34.366780644905631],[41.984117862401462,34.366933290551749],[41.984131708444309,34.366941701585453],[41.984143784367248,34.366951815273147],[41.984153789927809,34.366963380242574],[41.984161473532339,34.36697610697744],[41.984166644598588,34.366989679233548],[41.984169173619591,34.367003755840074],[41.984168998233486,34.367017988579242],[41.984166122041707,34.367032019510894],[41.984160617484434,34.367045500732971],[41.984152621496449,34.367058094487525],[41.983852005107273,34.367454253009321],[41.983669860270446,34.367466811492172],[41.983411624607406,34.367331454475028],[41.983817953189146,34.366780644905631]]]},"properties":{"OBJECTID":8,"Name":"تجاري","اسم_المؤسس":" ","Shape_Length":216.73385699462222,"Shape_Area":2932.1026301099869,"رقم_القطعة":null}},{"type":"Feature","id":9,"geometry":{"type":"Polygon","coordinates":[[[41.980320741253642,34.367502767885135],[41.980276416214721,34.367560911655303],[41.97939585942482,34.367725473189751],[41.97939468452546,34.367721152595429],[41.979421304386953,34.367708682280799],[41.979445549122573,34.367693237543236],[41.979466940423123,34.367675124793038],[41.979485055050255,34.367654701379585],[41.979806417928245,34.367233160074761],[41.980320741253642,34.367502767885135]]]},"properties":{"OBJECTID":9,"Name":"تجاري","اسم_المؤسس":" ","Shape_Length":213.8045252455623,"Shape_Area":2003.7895457532447,"رقم_القطعة":null}},{"type":"Feature","id":10,"geometry":{"type":"Polygon","coordinates":[[[41.982522278412567,34.367618961018451],[41.982753860876528,34.367311964038741],[41.983548064857629,34.367719617144878],[41.983563131829989,34.367729134205817],[41.983575975918619,34.367740675939139],[41.98358620967138,34.367753892143405],[41.983593518786321,34.367768380354498],[41.983597684408785,34.367783701526662],[41.983598576934646,34.367799389197515],[41.983596171886845,34.367814968029755],[41.983590540460455,34.367829963055868],[41.983581854570282,34.367843919385486],[41.983396651671981,34.368077273974187],[41.982522278412567,34.367618961018451]]]},"properties":{"OBJECTID":10,"Name":"تجاري","اسم_المؤسس":" ","Shape_Length":268.04645903089539,"Shape_Area":3864.9873970113722,"رقم_القطعة":null}},{"type":"Feature","id":11,"geometry":{"type":"Polygon","coordinates":[[[41.979525377182959,34.37001463136712],[41.979463131405481,34.370096279045974],[41.979260209918081,34.369989910063602],[41.979322455829674,34.369908262480735],[41.979525377182959,34.37001463136712]]]},"properties":{"OBJECTID":11,"Name":"تجاري","اسم_المؤسس":" ","Shape_Length":65.628599722869396,"Shape_Area":236.85875972515964,"رقم_القطعة":null}},{"type":"Feature","id":12,"geometry":{"type":"Polygon","coordinates":[[[41.981837999492036,34.370110157312403],[41.981313258620069,34.370794440543904],[41.980446031548944,34.370339869165434],[41.980968575217645,34.369654435206975],[41.981837999492036,34.370110157312403]]]},"properties":{"OBJECTID":12,"Name":"تجاري","اسم_المؤسس":" ","Shape_Length":369.08039773789494,"Shape_Area":8508.6034215578511,"رقم_القطعة":null}},{"type":"Feature","id":13,"geometry":{"type":"Polygon","coordinates":[[[41.980283956503712,34.370945230680299],[41.980047525850836,34.37125535486939],[41.979422132951122,34.370927538586052],[41.979658564087863,34.370617415547038],[41.980283956503712,34.370945230680299]]]},"properties":{"OBJECTID":13,"Name":"تجاري","اسم_المؤسس":" ","Shape_Length":217.62173432446534,"Shape_Area":2772.6750265553669,"رقم_القطعة":null}},{"type":"Feature","id":14,"geometry":{"type":"Polygon","coordinates":[[[41.980807572356824,34.371453697003552],[41.980507123549998,34.371496260332265],[41.980248742295529,34.371360826519776],[41.980790648631881,34.370650003216468],[41.981242425864124,34.370886808668487],[41.980851671941949,34.371396358050603],[41.980807572356824,34.371453697003552]]]},"properties":{"OBJECTID":14,"Name":"تجاري","اسم_المؤسس":" ","Shape_Length":273.269660928853,"Shape_Area":4383.8633133463145,"رقم_القطعة":null}},{"type":"Feature","id":18,"geometry":{"type":"Polygon","coordinates":[[[41.990374083013712,34.368039417042475],[41.990217464904362,34.367955130582246],[41.990309761537347,34.367822130800384],[41.990271411339499,34.36780318662192],[41.990516519676873,34.367471988775627],[41.990668160098821,34.367546385778205],[41.99058955738316,34.367654010335812],[41.990663463781623,34.367693784010086],[41.990637774947999,34.367726605358037],[41.99068718038918,34.367753193251467],[41.990640403815824,34.367812959948282],[41.990668562053372,34.367828113234658],[41.990588242021964,34.367930737422625],[41.990497403702051,34.367881851888647],[41.990374083013712,34.368039417042475]]]},"properties":{"OBJECTID":18,"Name":"تجاري","اسم_المؤسس":"سوق الثالث","Shape_Length":184.89502968762255,"Shape_Area":1387.7742309765788,"رقم_القطعة":null}},{"type":"Feature","id":19,"geometry":{"type":"Polygon","coordinates":[[[41.992664419921553,34.367353575343955],[41.992646721263583,34.367287486887363],[41.992578141136839,34.367299343625824],[41.992480859550028,34.366936082189049],[41.99271943487588,34.366892242303635],[41.992838944121054,34.366965336190646],[41.99306604888573,34.366926071467475],[41.993150819148553,34.367269482647316],[41.992664419921553,34.367353575343955]]]},"properties":{"OBJECTID":19,"Name":"تجاري","اسم_المؤسس":"سوق الرابع","Shape_Length":197.40211632052109,"Shape_Area":2265.6909728868823,"رقم_القطعة":null}},{"type":"Feature","id":20,"geometry":{"type":"Polygon","coordinates":[[[41.986678260708374,34.373021418878167],[41.98655455706367,34.373201866207815],[41.986535132384965,34.373246168004762],[41.986472455239308,34.373257852049207],[41.986436782994829,34.373265471077005],[41.986345381396831,34.373284992890483],[41.98618708356647,34.373318802929361],[41.986062301451078,34.373250766541524],[41.986061712799703,34.373250445599218],[41.986057132362603,34.37323298665877],[41.985946205478413,34.372810110448135],[41.986584892972303,34.372691047731209],[41.986678260708374,34.373021418878167]]]},"properties":{"OBJECTID":20,"Name":"تجاري","اسم_المؤسس":"الجمعية الاستهلاكية","Shape_Length":223.02788525871046,"Shape_Area":3351.6503946626881,"رقم_القطعة":null}},{"type":"Feature","id":21,"geometry":{"type":"Polygon","coordinates":[[[41.986787502400581,34.373195346392187],[41.986779304101468,34.373152066305856],[41.987002186384927,34.373119765155757],[41.987011473878006,34.37316879201849],[41.987104615483211,34.373155293559968],[41.987110871344747,34.373193679652495],[41.987186278532278,34.37318169602036],[41.987237113237107,34.373373145117597],[41.987142153888328,34.373385606420726],[41.987182850958568,34.373567161650854],[41.986996525860292,34.373593127572626],[41.986965067764693,34.37345331709141],[41.986917676929501,34.373462080636259],[41.986904788395407,34.373409152178702],[41.986881828586462,34.37341315631857],[41.986849511371929,34.373418793386456],[41.986787502400581,34.373195346392187]]]},"properties":{"OBJECTID":21,"Name":"تجاري","اسم_المؤسس":"سوق","Shape_Length":176.64012183875354,"Shape_Area":1386.7783665748307,"رقم_القطعة":null}},{"type":"Feature","id":22,"geometry":{"type":"Polygon","coordinates":[[[41.982948776292837,34.376634370087061],[41.98298096074916,34.376592659098392],[41.983019590198381,34.376613149062848],[41.983024056591766,34.376615518924524],[41.983280884001367,34.376749124539529],[41.983239318541088,34.376802994382281],[41.983298547174641,34.376834411305722],[41.983206090132796,34.376954239020812],[41.983179214676618,34.376989070029602],[41.983105523124031,34.376949981722881],[41.98297989471569,34.377112798211101],[41.982817452671149,34.377026633679343],[41.982914196672944,34.376901251854399],[41.982877052928721,34.376881549487535],[41.982934909408655,34.376806565680091],[41.982964202427418,34.376768601102512],[41.982918022938364,34.376744105644427],[41.98287976461549,34.376723812112559],[41.982948776292837,34.376634370087061]]]},"properties":{"OBJECTID":22,"Name":"تجاري","اسم_المؤسس":"السوق الاول","Shape_Length":175.76655050212395,"Shape_Area":1332.0955258542376,"رقم_القطعة":null}},{"type":"Feature","id":24,"geometry":{"type":"Polygon","coordinates":[[[41.979463131405481,34.370096279045974],[41.979405069687346,34.370172437132844],[41.979202149160976,34.370066068034468],[41.979260209918081,34.369989910063602],[41.979463131405481,34.370096279045974]]]},"properties":{"OBJECTID":24,"Name":"تجاري","اسم_المؤسس":" ","Shape_Length":64.186943481943345,"Shape_Area":220.93356695954816,"رقم_القطعة":null}},{"type":"Feature","id":25,"geometry":{"type":"Polygon","coordinates":[[[41.979463131405481,34.370096279045974],[41.979666053391441,34.3702026476629],[41.979607991798396,34.370278805839291],[41.979405069687346,34.370172437132844],[41.979463131405481,34.370096279045974]]]},"properties":{"OBJECTID":25,"Name":"تجاري","اسم_المؤسس":" ","Shape_Length":64.18708229648314,"Shape_Area":220.93459900779504,"رقم_القطعة":null}},{"type":"Feature","id":26,"geometry":{"type":"Polygon","coordinates":[[[41.979172823007183,34.370477072827093],[41.979114760778351,34.370553230799345],[41.978911838540398,34.370446861279795],[41.97896990089432,34.370370703397072],[41.979172823007183,34.370477072827093]]]},"properties":{"OBJECTID":26,"Name":"تجاري","اسم_المؤسس":" ","Shape_Length":64.187082293897518,"Shape_Area":220.93459898552749,"رقم_القطعة":null}},{"type":"Feature","id":27,"geometry":{"type":"Polygon","coordinates":[[[41.979172823007183,34.370477072827093],[41.979375744532497,34.370583441918114],[41.979317682428757,34.370659599979923],[41.979114760778351,34.370553230799345],[41.979172823007183,34.370477072827093]]]},"properties":{"OBJECTID":27,"Name":"تجاري","اسم_المؤسس":" ","Shape_Length":64.186916455277085,"Shape_Area":220.9337698092036,"رقم_القطعة":null}},{"type":"Feature","id":28,"geometry":{"type":"Polygon","coordinates":[[[41.97923088510197,34.370400913931306],[41.979172823007183,34.370477072827093],[41.97896990089432,34.370370703397072],[41.979027963114191,34.370294544590791],[41.97923088510197,34.370400913931306]]]},"properties":{"OBJECTID":28,"Name":"تجاري","اسم_المؤسس":" ","Shape_Length":64.187248137628004,"Shape_Area":220.93643102468292,"رقم_القطعة":null}},{"type":"Feature","id":29,"geometry":{"type":"Polygon","coordinates":[[[41.97923088510197,34.370400913931306],[41.979433806502179,34.370507282932792],[41.979375744532497,34.370583441918114],[41.979172823007183,34.370477072827093],[41.97923088510197,34.370400913931306]]]},"properties":{"OBJECTID":29,"Name":"تجاري","اسم_المؤسس":" ","Shape_Length":64.187082293836312,"Shape_Area":220.93560179382405,"رقم_القطعة":null}},{"type":"Feature","id":30,"geometry":{"type":"Polygon","coordinates":[[[41.979288947094602,34.370324755012582],[41.979491868369728,34.370431123924554],[41.979433806502179,34.370507282932792],[41.97923088510197,34.370400913931306],[41.979288947094602,34.370324755012582]]]},"properties":{"OBJECTID":30,"Name":"تجاري","اسم_المؤسس":" ","Shape_Length":64.187082296421949,"Shape_Area":220.93560181609152,"رقم_القطعة":null}},{"type":"Feature","id":31,"geometry":{"type":"Polygon","coordinates":[[[41.979288947094602,34.370324755012582],[41.97923088510197,34.370400913931306],[41.979027963114191,34.370294544590791],[41.979086025231929,34.370218385761618],[41.979288947094602,34.370324755012582]]]},"properties":{"OBJECTID":31,"Name":"تجاري","اسم_المؤسس":" ","Shape_Length":64.187248137628004,"Shape_Area":220.93643102468292,"رقم_القطعة":null}},{"type":"Feature","id":32,"geometry":{"type":"Polygon","coordinates":[[[41.979056698479297,34.370629389649316],[41.978998636078089,34.37070554847633],[41.978795713589953,34.370599178777709],[41.978853776116246,34.370523020040224],[41.979056698479297,34.370629389649316]]]},"properties":{"OBJECTID":32,"Name":"تجاري","اسم_المؤسس":" ","Shape_Length":64.187248135042381,"Shape_Area":220.93643100241536,"رقم_القطعة":null}},{"type":"Feature","id":33,"geometry":{"type":"Polygon","coordinates":[[[41.979056698479297,34.370629389649316],[41.979259620254787,34.370735758919402],[41.979201559064812,34.370811917809512],[41.978998636078089,34.37070554847633],[41.979056698479297,34.370629389649316]]]},"properties":{"OBJECTID":33,"Name":"تجاري","اسم_المؤسس":" ","Shape_Length":64.187109323551681,"Shape_Area":220.93539897143609,"رقم_القطعة":null}},{"type":"Feature","id":34,"geometry":{"type":"Polygon","coordinates":[[[41.97934700789898,34.370248596097404],[41.979288947094602,34.370324755012582],[41.979086025231929,34.370218385761618],[41.979144087247519,34.370142226909515],[41.97934700789898,34.370248596097404]]]},"properties":{"OBJECTID":34,"Name":"تجاري","اسم_المؤسس":" ","Shape_Length":64.187109320966059,"Shape_Area":220.93539894916861,"رقم_القطعة":null}},{"type":"Feature","id":35,"geometry":{"type":"Polygon","coordinates":[[[41.97934700789898,34.370248596097404],[41.979549930135136,34.37035496489338],[41.979491868369728,34.370431123924554],[41.979288947094602,34.370324755012582],[41.97934700789898,34.370248596097404]]]},"properties":{"OBJECTID":35,"Name":"تجاري","اسم_المؤسس":" ","Shape_Length":64.187109323551695,"Shape_Area":220.93539897143609,"رقم_القطعة":null}},{"type":"Feature","id":36,"geometry":{"type":"Polygon","coordinates":[[[41.979114760778351,34.370553230799345],[41.979056698479297,34.370629389649316],[41.978853776116246,34.370523020040224],[41.978911838540398,34.370446861279795],[41.979114760778351,34.370553230799345]]]},"properties":{"OBJECTID":36,"Name":"تجاري","اسم_المؤسس":" ","Shape_Length":64.187248138131423,"Shape_Area":220.9364310365394,"رقم_القطعة":null}},{"type":"Feature","id":37,"geometry":{"type":"Polygon","coordinates":[[[41.979114760778351,34.370553230799345],[41.979317682428757,34.370659599979923],[41.979259620254787,34.370735758919402],[41.979056698479297,34.370629389649316],[41.979114760778351,34.370553230799345]]]},"properties":{"OBJECTID":37,"Name":"تجاري","اسم_المؤسس":" ","Shape_Length":64.187082296421949,"Shape_Area":220.93560181609152,"رقم_القطعة":null}},{"type":"Feature","id":38,"geometry":{"type":"Polygon","coordinates":[[[41.979405069687346,34.370172437132844],[41.979607991798396,34.370278805839291],[41.979549930135136,34.37035496489338],[41.97934700789898,34.370248596097404],[41.979405069687346,34.370172437132844]]]},"properties":{"OBJECTID":38,"Name":"تجاري","اسم_المؤسس":" ","Shape_Length":64.187248135042381,"Shape_Area":220.93643100241536,"رقم_القطعة":null}},{"type":"Feature","id":39,"geometry":{"type":"Polygon","coordinates":[[[41.979405069687346,34.370172437132844],[41.97934700789898,34.370248596097404],[41.979144087247519,34.370142226909515],[41.979202149160976,34.370066068034468],[41.979405069687346,34.370172437132844]]]},"properties":{"OBJECTID":39,"Name":"تجاري","اسم_المؤسس":" ","Shape_Length":64.187082296421949,"Shape_Area":220.93560181609149,"رقم_القطعة":null}},{"type":"Feature","id":40,"geometry":{"type":"Polygon","coordinates":[[[41.979525377182959,34.37001463136712],[41.979728299034811,34.370120999888059],[41.979666053391441,34.3702026476629],[41.979463131405481,34.370096279045974],[41.979525377182959,34.37001463136712]]]},"properties":{"OBJECTID":40,"Name":"تجاري","اسم_المؤسس":" ","Shape_Length":65.628599725455018,"Shape_Area":236.85875974780234,"رقم_القطعة":null}},{"type":"Feature","id":41,"geometry":{"type":"Polygon","coordinates":[[[41.980020877469556,34.370274364070987],[41.980099116009008,34.370315374502297],[41.980177353568358,34.370356385806339],[41.980267981322697,34.370403890686177],[41.980358609176484,34.37045139549312],[41.980459968042155,34.370504524772166],[41.980466435621594,34.370507915016148],[41.980574262207476,34.370564434435991],[41.980330405359183,34.370884303000786],[41.980222549711876,34.370827768758929],[41.980216110897921,34.370824393125169],[41.98011475176979,34.370771263658305],[41.980114694173487,34.37077123351321],[41.980024066085093,34.370723728538302],[41.979933438096161,34.370676223490477],[41.97985520036621,34.370635212942013],[41.979776961624218,34.370594202365709],[41.979705013251795,34.370556488088269],[41.979948871719415,34.370236620682348],[41.980020877469556,34.370274364070987]]]},"properties":{"OBJECTID":41,"Name":"تجاري","اسم_المؤسس":" ","Shape_Length":220.18068288120213,"Shape_Area":2859.7955895276145,"رقم_القطعة":null}},{"type":"Feature","id":42,"geometry":{"type":"Polygon","coordinates":[[[41.982327456643262,34.365999369317798],[41.981929231515529,34.366520101716169],[41.981900657920484,34.366557585147575],[41.981577724344206,34.366392184391366],[41.981570897764549,34.366387950232948],[41.981564953633331,34.366382882405233],[41.981560039879085,34.366377106200794],[41.981556275648941,34.366370762937628],[41.981553754566939,34.366364009879575],[41.981552539048188,34.366357013163984],[41.981552656944864,34.366349945179053],[41.981554107871112,34.366342979001459],[41.981556855536724,34.366336286780481],[41.981560830781831,34.366330033354096],[41.981960085042658,34.365806798186483],[41.982327456643262,34.365999369317798]]]},"properties":{"OBJECTID":42,"Name":"تجاري","اسم_المؤسس":" ","Shape_Length":224.85851853502601,"Shape_Area":2934.3458222060599,"رقم_القطعة":null}},{"type":"Feature","id":43,"geometry":{"type":"Polygon","coordinates":[[[41.980497379238827,34.360054544721635],[41.981006507140521,34.360321800617626],[41.981006646594572,34.360321840485419],[41.981010348660746,34.360323464699853],[41.981021983104768,34.360329563881997],[41.981025562406785,34.360331803133953],[41.981028649293108,34.360334501478953],[41.981031158482729,34.360337583475868],[41.981033021783333,34.360340965154606],[41.981034189241072,34.360344555790697],[41.981034627990859,34.360348256130614],[41.981034326887546,34.360351966391477],[41.981033293216079,34.360355585439684],[41.981031556045217,34.360359013413465],[41.981029163193043,34.360362158106618],[41.981026177905093,34.360364933246622],[41.981022683389888,34.360367263792426],[41.980703656595146,34.360546153540383],[41.980362588352016,34.360737401386324],[41.980358803441533,34.36073917561999],[41.980354724975015,34.360740426086721],[41.980350458359858,34.360741121373273],[41.980346111622282,34.360741242622062],[41.980341797706934,34.360740787080744],[41.980337627897065,34.360739766459766],[41.980333706384471,34.360738207064713],[41.980330135667607,34.360736148763309],[41.980327006713694,34.3607336434224],[41.980324400140468,34.360730757583333],[41.980322382607106,34.360727562634608],[41.980321004897554,34.360724142069643],[41.980317033110126,34.360707819983482],[41.980315745150243,34.360698680597068],[41.980308166168896,34.360609943768786],[41.980309448992863,34.360520990990203],[41.980319585780514,34.360432429991803],[41.980338505510829,34.360344864633383],[41.980349661916009,34.360306553079596],[41.980366097207195,34.36025884476156],[41.980402135413257,34.360175063628255],[41.980446393818809,34.360094036930157],[41.980463121356514,34.360067431201507],[41.980479920481635,34.360045391985977],[41.980497379238827,34.360054544721635]]]},"properties":{"OBJECTID":43,"Name":"تجاري","اسم_المؤسس":" ","Shape_Length":220.33618823625585,"Shape_Area":2708.0028739512618,"رقم_القطعة":"5726"}},{"type":"Feature","id":44,"geometry":{"type":"Polygon","coordinates":[[[41.977758109851884,34.366740211704908],[41.976469487042884,34.366988002458669],[41.976389502428859,34.366693661148496],[41.976388287329442,34.366686664359626],[41.976388405627446,34.366679595456709],[41.976389856990195,34.36667262931816],[41.976392605084783,34.366665937191598],[41.976396580740783,34.366659683912673],[41.976401687253173,34.366654024170437],[41.976407799041247,34.366649095328839],[41.976414766120527,34.366645020923464],[41.976422414806258,34.366641899827734],[41.976430558701828,34.366639809591042],[41.976642553952793,34.366600196654218],[41.976769750566653,34.366576428911166],[41.976779135638154,34.366575377492133],[41.976788597343422,34.366575692522176],[41.97679785058682,34.366577365617296],[41.976806612000679,34.366580345084635],[41.976814616459549,34.366584541830214],[41.976821620242866,34.366589826577815],[41.97682741119219,34.366596040438338],[41.976831812991804,34.366602993002864],[41.976834692099665,34.36661047389201],[41.976839469021385,34.366628053766924],[41.97684198970947,34.366634806040722],[41.976845753608018,34.366641149466858],[41.976850667069343,34.366646925876786],[41.976856610953455,34.366651993947535],[41.976863437369843,34.366656229281119],[41.976870977343815,34.366659526020612],[41.976879047588064,34.366661803896555],[41.976887448298648,34.366663007379238],[41.976895972961728,34.366663106341349],[41.976904410621337,34.366662098706904],[41.977413197632465,34.366567024941347],[41.977421341491251,34.36656493464028],[41.977428991213834,34.366561813457388],[41.977435957146163,34.366557739023122],[41.977442068894952,34.366552811033856],[41.977447175295744,34.366547150351231],[41.977451151951783,34.366540897015831],[41.977453898870429,34.366534204896361],[41.977455468383077,34.366520170750945],[41.977454253167416,34.366513173076406],[41.977449476159123,34.366495594132225],[41.977448259890267,34.366488597384638],[41.977448379186072,34.366481528458706],[41.977449830457793,34.366474562312114],[41.97745184588593,34.366469652930228],[41.977463293264663,34.366454640046534],[41.977467772193904,34.3664510290848],[41.977474739169608,34.366446953721763],[41.977482387793458,34.366443832562581],[41.977490531638466,34.366441742257578],[41.977561990069141,34.366428388864357],[41.97758075903203,34.366426285032404],[41.977599684609551,34.366426915816781],[41.977618188882396,34.366430261035809],[41.977635711792253,34.366436221652073],[41.977651721779111,34.366444613203662],[41.977665729451886,34.366455183498978],[41.977677311418248,34.366467610233748],[41.977686115171068,34.366481516195606],[41.977691873526481,34.36649647792629],[41.977758109851884,34.366740211704908]]]},"properties":{"OBJECTID":44,"Name":"تجاري","اسم_المؤسس":" ","Shape_Length":328.59691334609022,"Shape_Area":3915.9733804903994,"رقم_القطعة":"5706"}},{"type":"Feature","id":45,"geometry":{"type":"Polygon","coordinates":[[[41.973046514665072,34.370573508928402],[41.973056399695786,34.37061065391994],[41.972694160823728,34.370666096603799],[41.972493802475888,34.370562823162892],[41.972476309189048,34.37049175970651],[41.972468053273928,34.370458223904215],[41.972229785695092,34.370337712888023],[41.972114913184626,34.370367831542069],[41.972037011070114,34.37032497967715],[41.971975834838162,34.370291327425605],[41.97231320982759,34.369848932239051],[41.972358762712631,34.369789199231562],[41.972915520531934,34.370081239623921],[41.973046514665072,34.370573508928402]]]},"properties":{"OBJECTID":45,"Name":"تجاري","اسم_المؤسس":" ","Shape_Length":306.33020715313353,"Shape_Area":5317.4526902604284,"رقم_القطعة":"5695"}},{"type":"Feature","id":49,"geometry":{"type":"Polygon","coordinates":[[[41.97578118001082,34.375331146854428],[41.975604883003562,34.375560976430386],[41.975266427874629,34.375381595406736],[41.975442674743803,34.375151744985125],[41.97578118001082,34.375331146854428]]]},"properties":{"OBJECTID":49,"Name":"تجاري","اسم_المؤسس":null,"Shape_Length":134.39636276646095,"Shape_Area":1117.5454073934457,"رقم_القطعة":null}},{"type":"Feature","id":57,"geometry":{"type":"Polygon","coordinates":[[[41.976696565891338,34.363442743321173],[41.977880341176643,34.364050978140703],[41.977687067685331,34.364300027559757],[41.977661124634579,34.364309026859551],[41.97764227246067,34.364308398791039],[41.977624812938664,34.364302342873593],[41.976493424502138,34.363709203562216],[41.976696565891338,34.363442743321173]]]},"properties":{"OBJECTID":57,"Name":"تجاري","اسم_المؤسس":null,"Shape_Length":325.28863568105623,"Shape_Area":4548.723576194383,"رقم_القطعة":null}},{"type":"Feature","id":59,"geometry":{"type":"Polygon","coordinates":[[[41.979309334736634,34.369756856197831],[41.978703866858368,34.37055103364694],[41.978154474402395,34.370263044161781],[41.97802397272752,34.369782862235745],[41.979304810246973,34.369543511319129],[41.979309334736634,34.369756856197831]]]},"properties":{"OBJECTID":59,"Name":"تجاري","اسم_المؤسس":null,"Shape_Length":363.24181470271014,"Shape_Area":7689.4108501894098,"رقم_القطعة":null}},{"type":"Feature","id":62,"geometry":{"type":"Polygon","coordinates":[[[41.974503624693988,34.355215575300143],[41.974802175441923,34.355219620624467],[41.975100520676648,34.355229656381205],[41.975398486425178,34.355245678689641],[41.975695896319522,34.35526767741932],[41.97599257715364,34.355295639660326],[41.976288355593539,34.355329548902013],[41.976583058177127,34.355369385032894],[41.976876511345878,34.35541512524135],[41.977168543552814,34.355466742161454],[41.977419142302651,34.355515414386133],[41.977668519467585,34.355568226185447],[41.977916575401842,34.355625155654309],[41.97816321259883,34.355686179934935],[41.978186629223451,34.35571328435735],[41.978204490973226,34.355743156105198],[41.978216335632496,34.355775019518738],[41.978221854583538,34.355808047423693],[41.978220904400104,34.355841381580738],[41.978213509849226,34.3558741560485],[41.978199862517407,34.355905519751857],[41.978180318318969,34.355934658176174],[41.978155384112839,34.355960814425551],[41.978125706459174,34.355983309327492],[41.9780920580763,34.356001557988293],[41.978055311265855,34.356015086665444],[41.969033251325357,34.355713860117341],[41.969021402115722,34.355712689290755],[41.969009918716445,34.355709996137811],[41.968999084900638,34.355705844980555],[41.968989167378709,34.355700340216828],[41.968980411104688,34.355693616518678],[41.968973029534588,34.355685839970349],[41.96896720654393,34.355677200810433],[41.968963085568248,34.355667913695427],[41.968960766986214,34.355658205143783],[41.968960307097404,34.355648315363375],[41.968970799720928,34.355431099834412],[41.96897540793244,34.355412494013947],[41.968983582199428,34.355394750801807],[41.968995107486684,34.355378336932333],[41.969009680580697,34.355363684322917],[41.969026918364243,34.355351178154883],[41.969046367272114,34.355341147630327],[41.969067514886895,34.355333855775285],[41.970680426116495,34.355294055810269],[41.97229346026127,34.355257925492445],[41.973906605617643,34.355225465996959],[41.97420504349185,34.355217524264198],[41.974503624693988,34.355215575300143]]]},"properties":{"OBJECTID":62,"Name":"تجاري","اسم_المؤسس":null,"Shape_Length":1768.0657488800039,"Shape_Area":51951.333006807261,"رقم_القطعة":null}},{"type":"Feature","id":64,"geometry":{"type":"Polygon","coordinates":[[[41.981805303240769,34.357006513423585],[41.982227772496216,34.357173233996214],[41.981961876995271,34.357511536898279],[41.981946155398397,34.357531539922519],[41.981553754304599,34.357326561340955],[41.981805303240769,34.357006513423585]]]},"properties":{"OBJECTID":64,"Name":"تجاري","اسم_المؤسس":null,"Shape_Length":175.62105335509705,"Shape_Area":1917.8830580034355,"رقم_القطعة":null}},{"type":"Feature","id":70,"geometry":{"type":"Polygon","coordinates":[[[41.967696984898851,34.370725372152876],[41.967764032423261,34.370639658297897],[41.968997797622649,34.371301969619246],[41.96893542092382,34.371381862187292],[41.967696984898851,34.370725372152876]]]},"properties":{"OBJECTID":70,"Name":"تجاري","اسم_المؤسس":null,"Shape_Length":292.43321621747771,"Shape_Area":1481.2750106590486,"رقم_القطعة":null}},{"type":"Feature","id":75,"geometry":{"type":"Polygon","coordinates":[[[41.964587406019881,34.368882716325686],[41.964481431819813,34.369020711209075],[41.964371575154473,34.368962469581852],[41.964477575485994,34.368824441706252],[41.964587406019881,34.368882716325686]]]},"properties":{"OBJECTID":75,"Name":"تجاري","اسم_المؤسس":null,"Shape_Length":60.318800733168572,"Shape_Area":217.91221802313612,"رقم_القطعة":null}},{"type":"Feature","id":76,"geometry":{"type":"Polygon","coordinates":[[[41.962981785778915,34.368225685401427],[41.963052789553863,34.36813369639399],[41.964162325954078,34.368714644025722],[41.964092044528364,34.368814273511205],[41.962981785778915,34.368225685401427]]]},"properties":{"OBJECTID":76,"Name":"تجاري","اسم_المؤسس":null,"Shape_Length":266.97309156809717,"Shape_Area":1508.1093489532921,"رقم_القطعة":null}},{"type":"Feature","id":78,"geometry":{"type":"Polygon","coordinates":[[[41.960603019030565,34.366964591772785],[41.960701498948083,34.366835546753144],[41.962905124003257,34.367991870675226],[41.96280010853836,34.368129483975686],[41.960603019030565,34.366964591772785]]]},"properties":{"OBJECTID":78,"Name":"تجاري","اسم_المؤسس":null,"Shape_Length":515.02585271002226,"Shape_Area":4202.7931210970446,"رقم_القطعة":null}},{"type":"Feature","id":85,"geometry":{"type":"Polygon","coordinates":[[[41.966646243881023,34.370168360215402],[41.966697707673809,34.370101588328929],[41.967619001053293,34.370589511586836],[41.967567006213443,34.370656469801304],[41.966646243881023,34.370168360215402]]]},"properties":{"OBJECTID":85,"Name":"تجاري","اسم_المؤسس":null,"Shape_Length":218.81235165436658,"Shape_Area":886.87803638936794,"رقم_القطعة":null}},{"type":"Feature","id":88,"geometry":{"type":"Polygon","coordinates":[[[41.961004483040504,34.36125099529891],[41.960772188095696,34.361555597710435],[41.959716174837141,34.361001751255436],[41.959948471263985,34.360697149834124],[41.961004483040504,34.36125099529891]]]},"properties":{"OBJECTID":88,"Name":"تجاري","اسم_المؤسس":null,"Shape_Length":310.00212480362291,"Shape_Area":4600.0420120426388,"رقم_القطعة":null}},{"type":"Feature","id":89,"geometry":{"type":"Polygon","coordinates":[[[41.959773302146836,34.36286538576357],[41.959529384181522,34.363185216085128],[41.958473355896629,34.362631358779652],[41.958717276591649,34.362311530416108],[41.959773302146836,34.36286538576357]]]},"properties":{"OBJECTID":89,"Name":"تجاري","اسم_المؤسس":null,"Shape_Length":314.00212028844641,"Shape_Area":4830.038823334733,"رقم_القطعة":null}},{"type":"Feature","id":90,"geometry":{"type":"Polygon","coordinates":[[[41.955448866176937,34.367783510716137],[41.955071325591305,34.368278475154156],[41.95454329472706,34.368001532602634],[41.954920837393139,34.367506568779611],[41.955448866176937,34.367783510716137]]]},"properties":{"OBJECTID":90,"Name":"تجاري","اسم_المؤسس":null,"Shape_Length":245.00009537301668,"Shape_Area":3737.5029542709281,"رقم_القطعة":null}},{"type":"Feature","id":92,"geometry":{"type":"Polygon","coordinates":[[[42.003141609413518,34.361889697603459],[42.003144400895202,34.361885593550717],[42.0031480100577,34.361881954364613],[42.003152324525992,34.361878890069505],[42.003157213906015,34.361876493104489],[42.003162535150324,34.361874836388886],[42.003168119526102,34.361873973642346],[42.003173802572896,34.361873926029659],[42.003179406155127,34.361874697023779],[42.003184766408587,34.361876263607037],[42.003451860207818,34.361976854922439],[42.003570569225282,34.362021561562919],[42.003575517091804,34.36202387649157],[42.00357990439489,34.362026869508568],[42.003583601749497,34.362030448244809],[42.003586491169706,34.362034504727504],[42.00358848782092,34.362038915747661],[42.003589530374512,34.362043546702203],[42.003589587716803,34.362048256837767],[42.003588658120421,34.362052906481985],[42.003586769019165,34.362057350739306],[42.003510395365183,34.362196810361347],[42.003200405641749,34.362762858658243],[42.003197614201348,34.362766964514336],[42.003194004941705,34.362770601902135],[42.003189689313587,34.362773665326742],[42.003184799884338,34.362776062295453],[42.003179478584826,34.362777719014787],[42.00317389638618,34.36277858351275],[42.00316821216007,34.362778630254724],[42.003162607463139,34.362777860190619],[42.003157250377079,34.362776292629],[42.00303853936574,34.362731585662893],[42.002771443523883,34.362630993554838],[42.002766494521836,34.362628677720622],[42.00276210727673,34.362625686475958],[42.002758409927083,34.362622107714721],[42.002755519404815,34.362618050337794],[42.002753523866204,34.362613639276162],[42.002752480230505,34.362609007438856],[42.002752422900173,34.362604296400228],[42.002753353761697,34.36259965033571],[42.002755245025725,34.362595204234125],[42.002831618108765,34.362455745060295],[42.003141609413518,34.361889697603459]]]},"properties":{"OBJECTID":92,"Name":"تجاري","اسم_المؤسس":null,"Shape_Length":268.82625692187202,"Shape_Area":4132.1597398956228,"رقم_القطعة":null}},{"type":"Feature","id":93,"geometry":{"type":"Polygon","coordinates":[[[41.96656689115207,34.369932971114864],[41.966459949095494,34.370069601173356],[41.966350234909982,34.370011439081232],[41.96645942755778,34.369875956081124],[41.96656689115207,34.369932971114864]]]},"properties":{"OBJECTID":93,"Name":"تجاري","اسم_المؤسس":null,"Shape_Length":59.888627948946606,"Shape_Area":214.4718489873184,"رقم_القطعة":null}},{"type":"Feature","id":94,"geometry":{"type":"Polygon","coordinates":[[[41.96645942755778,34.369875956081124],[41.966350234909982,34.370011439081232],[41.966239169380344,34.369952560604183],[41.966344729028961,34.369815101628717],[41.96645942755778,34.369875956081124]]]},"properties":{"OBJECTID":94,"Name":"تجاري","اسم_المؤسس":null,"Shape_Length":60.835352826891857,"Shape_Area":223.00768846473142,"رقم_القطعة":null}},{"type":"Feature","id":95,"geometry":{"type":"Polygon","coordinates":[[[41.966344727942818,34.369815101655064],[41.966239169380344,34.369952560604183],[41.966129310348258,34.369894320691806],[41.966234895041289,34.369756828749772],[41.966344727942818,34.369815101655064]]]},"properties":{"OBJECTID":95,"Name":"تجاري","اسم_المؤسس":null,"Shape_Length":60.177290544514889,"Shape_Area":217.06315835209878,"رقم_القطعة":null}},{"type":"Feature","id":96,"geometry":{"type":"Polygon","coordinates":[[[41.966234896095663,34.369756827822805],[41.966129310348258,34.369894320691806],[41.966019451464106,34.369836080672229],[41.966125062255969,34.369698554836717],[41.966234896095663,34.369756827822805]]]},"properties":{"OBJECTID":96,"Name":"تجاري","اسم_المؤسس":null,"Shape_Length":60.186360146906424,"Shape_Area":217.11782934610704,"رقم_القطعة":null}},{"type":"Feature","id":97,"geometry":{"type":"Polygon","coordinates":[[[41.966125062255969,34.369698554836717],[41.966019450409739,34.369836081599196],[41.965909591673501,34.369777841472448],[41.966015228564267,34.369640281743479],[41.966125062255969,34.369698554836717]]]},"properties":{"OBJECTID":97,"Name":"تجاري","اسم_المؤسس":null,"Shape_Length":60.195290974424559,"Shape_Area":217.17141406436593,"رقم_القطعة":null}},{"type":"Feature","id":98,"geometry":{"type":"Polygon","coordinates":[[[41.966015229650402,34.369640281717132],[41.965909591641726,34.369777840571821],[41.96579973196728,34.369719600364235],[41.965905394988781,34.369582007642492],[41.966015229650402,34.369640281717132]]]},"properties":{"OBJECTID":98,"Name":"تجاري","اسم_المؤسس":null,"Shape_Length":60.204195168276541,"Shape_Area":217.22551748910843,"رقم_القطعة":null}},{"type":"Feature","id":99,"geometry":{"type":"Polygon","coordinates":[[[41.965905395020549,34.369582008543119],[41.965799731999041,34.369719601264855],[41.965689873558652,34.369661360923736],[41.96579556159304,34.369523734334969],[41.965905395020549,34.369582008543119]]]},"properties":{"OBJECTID":99,"Name":"تجاري","اسم_المؤسس":null,"Shape_Length":60.212848421414762,"Shape_Area":217.27692865246939,"رقم_القطعة":null}},{"type":"Feature","id":100,"geometry":{"type":"Polygon","coordinates":[[[41.96579556159304,34.369523734334969],[41.965689873558652,34.369661360923736],[41.965580014180048,34.369603120501786],[41.965685728313495,34.369465460019711],[41.96579556159304,34.369523734334969]]]},"properties":{"OBJECTID":100,"Name":"تجاري","اسم_المؤسس":null,"Shape_Length":60.221805732269132,"Shape_Area":217.33092482634555,"رقم_القطعة":null}},{"type":"Feature","id":101,"geometry":{"type":"Polygon","coordinates":[[[41.965685728345264,34.369465460920338],[41.965580014180048,34.369603120501786],[41.965470154949358,34.369544879972651],[41.965575895213711,34.369407186497924],[41.965685728345264,34.369465460920338]]]},"properties":{"OBJECTID":101,"Name":"تجاري","اسم_المؤسس":null,"Shape_Length":60.23057107161452,"Shape_Area":217.38351826746646,"رقم_القطعة":null}},{"type":"Feature","id":102,"geometry":{"type":"Polygon","coordinates":[[[41.965575895213711,34.369407186497924],[41.965470154949358,34.369544879972651],[41.965360296952724,34.369486639309997],[41.965466063348032,34.369348912842675],[41.965575895213711,34.369407186497924]]]},"properties":{"OBJECTID":102,"Name":"تجاري","اسم_المؤسس":null,"Shape_Length":60.239197555589605,"Shape_Area":217.43459944733371,"رقم_القطعة":null}},{"type":"Feature","id":103,"geometry":{"type":"Polygon","coordinates":[[[41.965466063348032,34.369348912842675],[41.965360296952724,34.369486639309997],[41.96525043801789,34.369428398566519],[41.965356230512441,34.36929063820601],[41.965466063348032,34.369348912842675]]]},"properties":{"OBJECTID":103,"Name":"تجاري","اسم_المؤسس":null,"Shape_Length":60.248267235060695,"Shape_Area":217.48969670548735,"رقم_القطعة":null}},{"type":"Feature","id":104,"geometry":{"type":"Polygon","coordinates":[[[41.965356230512441,34.36929063820601],[41.96525043801789,34.369428398566519],[41.965140579230969,34.369370157715849],[41.965246397824835,34.369232363462181],[41.965356230512441,34.36929063820601]]]},"properties":{"OBJECTID":104,"Name":"تجاري","اسم_المؤسس":null,"Shape_Length":60.257198063862859,"Shape_Area":217.54328174389235,"رقم_القطعة":null}},{"type":"Feature","id":105,"geometry":{"type":"Polygon","coordinates":[[[41.965246397824835,34.369232363462181],[41.965140579230969,34.369370157715849],[41.965030721678097,34.369311916731661],[41.965136565316961,34.369174089511873],[41.965246397824835,34.369232363462181]]]},"properties":{"OBJECTID":105,"Name":"تجاري","اسم_المؤسس":null,"Shape_Length":60.26585101364693,"Shape_Area":217.5947737180548,"رقم_القطعة":null}},{"type":"Feature","id":106,"geometry":{"type":"Polygon","coordinates":[[[41.965136565316961,34.369174089511873],[41.965030721678097,34.369311916731661],[41.964920863187018,34.369253675666641],[41.965026732925303,34.369115814553787],[41.965136565316961,34.369174089511873]]]},"properties":{"OBJECTID":106,"Name":"تجاري","اسم_المؤسس":null,"Shape_Length":60.274781920854949,"Shape_Area":217.64878436074656,"رقم_القطعة":null}},{"type":"Feature","id":107,"geometry":{"type":"Polygon","coordinates":[[[41.965026732957057,34.369115815454414],[41.964920863187018,34.369253675666641],[41.964811004843874,34.369195434494443],[41.964916900713391,34.3690575403892],[41.965026732957057,34.369115815454414]]]},"properties":{"OBJECTID":107,"Name":"تجاري","اسم_المؤسس":null,"Shape_Length":60.283547256969065,"Shape_Area":217.70137777276042,"رقم_القطعة":null}},{"type":"Feature","id":108,"geometry":{"type":"Polygon","coordinates":[[[41.964916900713391,34.3690575403892],[41.964811004843874,34.369195434494443],[41.964701147734765,34.36913719318872],[41.964807068617695,34.368999265216857],[41.964916900713391,34.3690575403892]]]},"properties":{"OBJECTID":108,"Name":"تجاري","اسم_المؤسس":null,"Shape_Length":60.292339288467957,"Shape_Area":217.75387414328611,"رقم_القطعة":null}},{"type":"Feature","id":109,"geometry":{"type":"Polygon","coordinates":[[[41.964807068617695,34.368999265216857],[41.96470114668039,34.369137194115702],[41.964591289719202,34.369078952702793],[41.96469723778786,34.36894099081168],[41.964807068617695,34.368999265216857]]]},"properties":{"OBJECTID":109,"Name":"تجاري","اسم_المؤسس":null,"Shape_Length":60.301270057057721,"Shape_Area":217.80703213461157,"رقم_القطعة":null}},{"type":"Feature","id":110,"geometry":{"type":"Polygon","coordinates":[[[41.96469723778786,34.36894099081168],[41.964591289719202,34.369078952702793],[41.964481431819813,34.369020711209075],[41.964587406019881,34.368882716325686],[41.96469723778786,34.36894099081168]]]},"properties":{"OBJECTID":110,"Name":"تجاري","اسم_المؤسس":null,"Shape_Length":60.310200658082337,"Shape_Area":217.86112729960035,"رقم_القطعة":null}},{"type":"Feature","id":111,"geometry":{"type":"Polygon","coordinates":[[[41.964477575485994,34.368824441706252],[41.964371575154473,34.368962469581852],[41.964269939343936,34.368908586943135],[41.964374999900329,34.368770015855794],[41.964477575485994,34.368824441706252]]]},"properties":{"OBJECTID":111,"Name":"تجاري","اسم_المؤسس":null,"Shape_Length":58.637239036080423,"Shape_Area":202.60944921795198,"رقم_القطعة":null}},{"type":"Feature","id":112,"geometry":{"type":"Polygon","coordinates":[[[41.964284390711839,34.369237076132137],[41.963991074511014,34.369616524902476],[41.962788764674123,34.368979790037635],[41.963081710873553,34.368599457919032],[41.964284390711839,34.369237076132137]]]},"properties":{"OBJECTID":112,"Name":"تجاري","اسم_المؤسس":null,"Shape_Length":362.7728375499413,"Shape_Area":6573.7482755504061,"رقم_القطعة":null}},{"type":"Feature","id":121,"geometry":{"type":"Polygon","coordinates":[[[41.98665610256311,34.362666954853182],[41.986655920199723,34.362667512760709],[41.986647955823251,34.362691596822316],[41.986639912545307,34.36271566297971],[41.986631790333867,34.362739710332285],[41.986623590306841,34.362763739754108],[41.986615310260142,34.362787750397608],[41.986606952365761,34.362811742209708],[41.986598515537608,34.362835715216953],[41.986589999743636,34.362859668518681],[41.986581406101791,34.362883602989008],[41.986572733493986,34.362907517753797],[41.986563983038188,34.362931413687136],[41.986555153584327,34.362955289014323],[41.98654624625037,34.362979144609426],[41.986537261036226,34.363002980472409],[41.986528197877888,34.363026794802074],[41.98651905575322,34.36305058942613],[41.986509836802249,34.363074363390922],[41.98650053885283,34.363098116749448],[41.98649116295897,34.3631218485746],[41.986481710206625,34.363145558839811],[41.986472179541707,34.363169248472232],[41.98646257090018,34.363192915670602],[41.986452884345923,34.363216562236126],[41.986443120868991,34.363240185440446],[41.986433279479229,34.363263788011899],[41.986423361166658,34.363287367222107],[41.986413365995197,34.363310924872295],[41.986403292814764,34.363334459187726],[41.986393142743346,34.363357971042497],[41.986382915748884,34.363381459535944],[41.986372611863288,34.363404925568709],[41.986362229936532,34.363428367366033],[41.986351772204564,34.363451786676123],[41.986341237517344,34.363475181724226],[41.98633062696085,34.363498552483804],[41.986319939480957,34.363521899881995],[41.986309175045641,34.363545223018157],[41.986307334816516,34.363548223614728],[41.98606427087163,34.363445742957722],[41.985963518663972,34.363398646266781],[41.985867234741328,34.363345507440542],[41.985775946844456,34.363286617373539],[41.985690152237652,34.363222296550049],[41.98561032000849,34.363152898593107],[41.985536886371776,34.363078800463569],[41.985470251571456,34.363000407042364],[41.985410780838684,34.362918147501198],[41.985316038477919,34.362752881675704],[41.98531540412597,34.362749004952882],[41.985315587136434,34.362745096559962],[41.985316582976807,34.362741273788473],[41.985318360922122,34.36273765096368],[41.985320868335066,34.362734337537404],[41.985324029452173,34.362731434512035],[41.985327748418023,34.362729028056769],[41.9853319126074,34.362727191229339],[41.985336397927419,34.362725980240882],[41.98594514332315,34.362608884137302],[41.986209746951275,34.362557984887061],[41.98665610256311,34.362666954853182]]]},"properties":{"OBJECTID":121,"Name":"تجاري","اسم_المؤسس":null,"Shape_Length":362.80517281975528,"Shape_Area":8126.5295884713187,"رقم_القطعة":null}},{"type":"Feature","id":122,"geometry":{"type":"Polygon","coordinates":[[[41.962364659405715,34.368219292046192],[41.962074183259581,34.368600000763003],[41.96150487576292,34.368301323137864],[41.961797072281882,34.367918362925877],[41.962364659405715,34.368219292046192]]]},"properties":{"OBJECTID":122,"Name":"تجاري","اسم_المؤسس":null,"Shape_Length":224.29665241511759,"Shape_Area":3109.1737002093205,"رقم_القطعة":null}},{"type":"Feature","id":123,"geometry":{"type":"Polygon","coordinates":[[[41.98258619237231,34.355487873775438],[41.982431743907156,34.355673158874545],[41.982253014283756,34.355570685646299],[41.982407464074896,34.355385400733176],[41.98258619237231,34.355487873775438]]]},"properties":{"OBJECTID":123,"Name":"تجاري","اسم_المؤسس":null,"Shape_Length":89.999933764654003,"Shape_Area":499.99919692473105,"رقم_القطعة":null}},{"type":"Feature","id":124,"geometry":{"type":"Polygon","coordinates":[[[41.983276820046896,34.354342458005682],[41.983431264345548,34.354157172028849],[41.98360999101974,34.354259642762138],[41.983455545875216,34.354444928977898],[41.983276820046896,34.354342458005682]]]},"properties":{"OBJECTID":124,"Name":"تجاري","اسم_المؤسس":null,"Shape_Length":89.99965414625818,"Shape_Area":499.99570169566857,"رقم_القطعة":null}},{"type":"Feature","id":125,"geometry":{"type":"Polygon","coordinates":[[[41.982431743907156,34.355673158874545],[41.982277294777212,34.355858443809204],[41.982098564913763,34.355755970368463],[41.982253014283756,34.355570685646299],[41.982431743907156,34.355673158874545]]]},"properties":{"OBJECTID":125,"Name":"تجاري","اسم_المؤسس":null,"Shape_Length":89.999955055969394,"Shape_Area":499.99961121402737,"رقم_القطعة":null}},{"type":"Feature","id":126,"geometry":{"type":"Polygon","coordinates":[[[41.982407464074896,34.355385400733176],[41.982561912115322,34.355200115682059],[41.982617204589246,34.35523181692249],[41.982637830691139,34.35524948426233],[41.98265440492748,34.355269875681103],[41.982666414440743,34.355292360209575],[41.982673487618101,34.355316242111179],[41.982675405590577,34.355340782410025],[41.982672109005954,34.355365221756834],[41.982663699865896,34.355388803925486],[41.982650438370229,34.355410799212827],[41.98258619237231,34.355487873775438],[41.982407464074896,34.355385400733176]]]},"properties":{"OBJECTID":126,"Name":"تجاري","اسم_المؤسس":null,"Shape_Length":83.449845298281772,"Shape_Area":449.97328411651029,"رقم_القطعة":null}},{"type":"Feature","id":127,"geometry":{"type":"Polygon","coordinates":[[[41.983431264345548,34.354157172028849],[41.983585707979486,34.353971885887589],[41.983764434413608,34.354074356408411],[41.98360999101974,34.354259642762138],[41.983431264345548,34.354157172028849]]]},"properties":{"OBJECTID":127,"Name":"تجاري","اسم_المؤسس":null,"Shape_Length":89.999675437636654,"Shape_Area":499.99611598996478,"رقم_القطعة":null}},{"type":"Feature","id":128,"geometry":{"type":"Polygon","coordinates":[[[41.983455545875216,34.354444928977898],[41.983380286149682,34.354535218378338],[41.983359252459437,34.354552882520089],[41.983335592624023,34.354566834230297],[41.98330995514825,34.35457669109924],[41.983283042743096,34.354582182954843],[41.98325559306474,34.354583159267968],[41.983228358495765,34.354579593278331],[41.983202085522713,34.354571582728013],[41.983177494275239,34.354559347182381],[41.983122374029513,34.354527744745148],[41.983276820046896,34.354342458005682],[41.983455545875216,34.354444928977898]]]},"properties":{"OBJECTID":128,"Name":"تجاري","اسم_المؤسس":null,"Shape_Length":84.277093391941222,"Shape_Area":461.84556214893411,"رقم_القطعة":null}},{"type":"Feature","id":147,"geometry":{"type":"Polygon","coordinates":[[[41.953386590739626,34.36472348699106],[41.953468149403733,34.36470709836189],[41.953550810030265,34.364697737609845],[41.953633968164198,34.364695473185328],[41.953717015712492,34.364700321646936],[41.953799345390763,34.364712247540332],[41.953880355164046,34.364731163657545],[41.953959452649165,34.364756931674641],[41.955005007842935,34.365305332839036],[41.954859527844313,34.365496063333836],[41.953386590739626,34.36472348699106]]]},"properties":{"OBJECTID":147,"Name":"تجاري","اسم_المؤسس":null,"Shape_Length":353.31855755819606,"Shape_Area":3604.9561284162492,"رقم_القطعة":null}},{"type":"Feature","id":148,"geometry":{"type":"Polygon","coordinates":[[[41.977550530692071,34.354270463044628],[41.977457619672279,34.354252691326145],[41.977445224041482,34.354248957805247],[41.977434278559734,34.354242856905678],[41.977425428372328,34.354234748224982],[41.977419195123872,34.354225109702682],[41.977415946211728,34.354214509449648],[41.9774158731311,34.354203572262584],[41.977418980188254,34.354192942797425],[41.977425084247017,34.35418324757223],[41.97760969658033,34.353960841334214],[41.977617318586631,34.353953926395349],[41.977625984654615,34.353948375663393],[41.977635453312054,34.353944343804535],[41.977645460723274,34.353941943162901],[41.977655728040716,34.353941240630235],[41.977665969174758,34.353942255781973],[41.977675898765369,34.353944960331823],[41.977685240133383,34.353949278919927],[41.977774725197328,34.354000370998705],[41.977550530692071,34.354270463044628]]]},"properties":{"OBJECTID":148,"Name":"تجاري","اسم_المؤسس":null,"Shape_Length":102.72736204866952,"Shape_Area":572.56338300751895,"رقم_القطعة":null}},{"type":"Feature","id":149,"geometry":{"type":"Polygon","coordinates":[[[41.980049052042155,34.352374767223509],[41.980054913931077,34.352378075128833],[41.980060147419913,34.352382307689993],[41.980064608123818,34.352387348136396],[41.980068172978058,34.352393057408996],[41.980070743633156,34.352399277996724],[41.980072249168238,34.352405838282046],[41.980072648047631,34.352412557275613],[41.980071929266813,34.352419249609547],[41.980070112655952,34.352425730651461],[41.98006724833288,34.352431821598245],[41.980063415320359,34.352437354408956],[41.979990092400932,34.352526753602042],[41.979982507342129,34.352533705170387],[41.979973871021116,34.352539297252186],[41.979964424385855,34.35254337383185],[41.979954430991576,34.352545821175354],[41.97994416964773,34.352546571003344],[41.979933926639411,34.352545602396084],[41.979923987740143,34.35254294237712],[41.979914630239023,34.352538665159308],[41.979824805999222,34.352487989426123],[41.979959226857474,34.352324092510109],[41.980049052042155,34.352374767223509]]]},"properties":{"OBJECTID":149,"Name":"تجاري","اسم_المؤسس":null,"Shape_Length":69.707705816384248,"Shape_Area":319.26768569646424,"رقم_القطعة":null}},{"type":"Feature","id":150,"geometry":{"type":"Polygon","coordinates":[[[41.980199431971798,34.352699333291675],[41.980109607429036,34.352648658687535],[41.980103745458599,34.352645350876998],[41.980098511873997,34.352641118395439],[41.980094051062821,34.352636078011372],[41.980090486092884,34.352630368782243],[41.980087915316936,34.352624148218041],[41.980086409659243,34.352617587935818],[41.980086010658894,34.352610868924984],[41.980086729323773,34.352604176554046],[41.980088545826874,34.352597695456581],[41.980091410053305,34.352591604437379],[41.980095242982898,34.352586071539527],[41.980168561489052,34.352496672393066],[41.980176146572809,34.352489720624902],[41.98018478295279,34.352484128351925],[41.980194229678816,34.352480051595428],[41.980204223192523,34.352477604094645],[41.980214484680445,34.352476854133471],[41.980224727852814,34.352477822635414],[41.980234666930848,34.352480482579807],[41.980244024619807,34.352484759755683],[41.980333851225232,34.352535434214197],[41.980199431971798,34.352699333291675]]]},"properties":{"OBJECTID":150,"Name":"تجاري","اسم_المؤسس":null,"Shape_Length":69.70774171837337,"Shape_Area":319.26785146502596,"رقم_القطعة":null}},{"type":"Feature","id":151,"geometry":{"type":"Polygon","coordinates":[[[41.979011340821891,34.351969095876292],[41.97889959588332,34.351926909009883],[41.979012080446751,34.351789756278876],[41.979104526127692,34.351841910186373],[41.97911038795435,34.351845218180678],[41.979115621369694,34.351849450816012],[41.979120081992001,34.351854491320623],[41.979123646759703,34.351860200634881],[41.979126217326446,34.351866421247763],[41.979127722774329,34.351872981542328],[41.979128121570405,34.351879700530326],[41.979127402712514,34.351886392845429],[41.979125586032822,34.351892873857146],[41.979122721650668,34.351898964764551],[41.979118888589866,34.351904497529041],[41.979078755437698,34.351953430980934],[41.979071031841826,34.351960539382233],[41.979062206288049,34.351966222066707],[41.979052538855655,34.351970311571947],[41.979042314433144,34.351972687384773],[41.979031834322903,34.351973279492611],[41.979021407362168,34.351972070446706],[41.979011340821891,34.351969095876292]]]},"properties":{"OBJECTID":151,"Name":"تجاري","اسم_المؤسس":null,"Shape_Length":61.428756027881363,"Shape_Area":252.50232846690298,"رقم_القطعة":null}},{"type":"Feature","id":152,"geometry":{"type":"Polygon","coordinates":[[[41.975221457432284,34.352602105911991],[41.974417144999144,34.352069731256506],[41.974411596146311,34.352065952440668],[41.974406755711328,34.352061300623177],[41.974402759446498,34.352055906266472],[41.974399719428988,34.352049920657862],[41.974397720917537,34.352043511666615],[41.974396819961356,34.352036859035941],[41.974397041828198,34.352030149342063],[41.974398380295689,34.352023570761546],[41.974400797825879,34.35201730779383],[41.97440422661797,34.352011536086835],[41.974408570509851,34.352006417510843],[41.974473570422496,34.351938868225631],[41.974481256330584,34.351932582351225],[41.974489860825678,34.351927627750904],[41.974499155576233,34.351924135901491],[41.974508893933852,34.351922199463772],[41.974518817478462,34.351921869823677],[41.974528662875791,34.35192315572862],[41.975258402812052,34.352067924596923],[41.97528013771408,34.352073244102165],[41.975301086346569,34.352080412264712],[41.975321020822605,34.352089351106635],[41.97533972428748,34.352099963387936],[41.975356993277636,34.352112133664292],[41.975372639934044,34.352125729542919],[41.975386494045779,34.35214060312272],[41.975398404901647,34.352156592603272],[41.975408242929689,34.352173524044836],[41.975415901106778,34.352191213260575],[41.97542129612286,34.352209467820202],[41.975424369287317,34.352228089143246],[41.975425087167466,34.352246874659322],[41.975423441952344,34.352265620011778],[41.975419451537711,34.352284121280697],[41.975413159331481,34.352302177201302],[41.975359986384873,34.35243511139317],[41.975310911658759,34.352569612444746],[41.975307561805842,34.352579287480403],[41.975302358645934,34.352589450576545],[41.975294331067374,34.352598258743477],[41.975283961281903,34.352605182879039],[41.975271872196956,34.352609807053753],[41.975258789997874,34.352611853495596],[41.975245500526206,34.352611199275692],[41.975232802074338,34.352607883692677],[41.975221457432284,34.352602105911991]]]},"properties":{"OBJECTID":152,"Name":"تجاري","اسم_المؤسس":null,"Shape_Length":262.37619815608048,"Shape_Area":3709.5127973353106,"رقم_القطعة":null}},{"type":"Feature","id":153,"geometry":{"type":"Polygon","coordinates":[[[41.973297950528426,34.351928360295602],[41.972950372087993,34.35169828858357],[41.972938215378939,34.351686983441532],[41.972931263979454,34.351672975418225],[41.972930303826466,34.351657848289562],[41.972935443473645,34.351643312359009],[41.972946101819545,34.351631011087136],[41.972961073809252,34.351622335278961],[41.97297866668081,34.351618265837288],[41.972996891351876,34.351619262860467],[41.973499442750565,34.351718967913087],[41.973297950528426,34.351928360295602]]]},"properties":{"OBJECTID":153,"Name":"تجاري","اسم_المؤسس":null,"Shape_Length":131.74810725361442,"Shape_Area":863.6134965677021,"رقم_القطعة":null}},{"type":"Feature","id":154,"geometry":{"type":"Polygon","coordinates":[[[41.972948793204743,34.352607946499603],[41.972454767721231,34.352280935262492],[41.972498032406705,34.3522069780322],[41.972504695575367,34.352199076155401],[41.972512607145035,34.35219242449854],[41.972521535957114,34.352187217408336],[41.972531221131455,34.352183607024465],[41.972541379688643,34.352181698834372],[41.972551714818081,34.35218154859114],[41.972561924550121,34.352183160684561],[41.972571710578954,34.352186488012819],[41.972580786978426,34.352191433358733],[41.973085551529486,34.352525551971745],[41.973096748568679,34.352535630812611],[41.973103773617083,34.352548035482762],[41.973105976539692,34.352561617991917],[41.973103153464628,34.352575121346121],[41.973095565651327,34.352587295876269],[41.97308391531304,34.352597014888865],[41.973069280631016,34.352603378936188],[41.973053015974202,34.352605799056157],[41.972948793204743,34.352607946499603]]]},"properties":{"OBJECTID":154,"Name":"تجاري","اسم_المؤسس":null,"Shape_Length":157.52888804705276,"Shape_Area":985.13207335988625,"رقم_القطعة":null}},{"type":"Feature","id":155,"geometry":{"type":"Polygon","coordinates":[[[41.97356922238199,34.350375860851656],[41.973747438890697,34.350071206552606],[41.973845175427307,34.350110535302271],[41.973666960360575,34.350415191502897],[41.97356922238199,34.350375860851656]]]},"properties":{"OBJECTID":155,"Name":"تجاري","اسم_المؤسس":null,"Shape_Length":95.164287478642692,"Shape_Area":375.81890361803562,"رقم_القطعة":null}},{"type":"Feature","id":156,"geometry":{"type":"Polygon","coordinates":[[[41.982205417735315,34.350564869932008],[41.981717884192889,34.351161561542334],[41.981320389206168,34.350938149290805],[41.981807924515472,34.350341459167716],[41.982205417735315,34.350564869932008]]]},"properties":{"OBJECTID":156,"Name":"تجاري","اسم_المؤسس":null,"Shape_Length":248.39852693198645,"Shape_Area":3535.9780348832146,"رقم_القطعة":null}},{"type":"Feature","id":158,"geometry":{"type":"Polygon","coordinates":[[[41.98141747779372,34.372593129472982],[41.98144528133404,34.372698763476905],[41.98125252024581,34.372733646276501],[41.981224715843553,34.372628012243659],[41.98141747779372,34.372593129472982]]]},"properties":{"OBJECTID":158,"Name":"تجاري","اسم_المؤسس":null,"Shape_Length":60.31403214606388,"Shape_Area":217.88438372350154,"رقم_القطعة":null}},{"type":"Feature","id":159,"geometry":{"type":"Polygon","coordinates":[[[41.98166771686487,34.373543834986307],[41.98169552112109,34.373649468886207],[41.981501221440674,34.373678514382043],[41.981474953982811,34.37357871822914],[41.98166771686487,34.373543834986307]]]},"properties":{"OBJECTID":159,"Name":"تجاري","اسم_المؤسس":null,"Shape_Length":59.662845266010592,"Shape_Area":211.86301600653002,"رقم_القطعة":null}},{"type":"Feature","id":160,"geometry":{"type":"Polygon","coordinates":[[[41.981639912688173,34.373438201074848],[41.98166771686487,34.373543834986307],[41.981474953982811,34.37357871822914],[41.981447148944198,34.373473084288761],[41.981639912688173,34.373438201074848]]]},"properties":{"OBJECTID":160,"Name":"تجاري","اسم_المؤسس":null,"Shape_Length":60.314032146807463,"Shape_Area":217.88438372743437,"رقم_القطعة":null}},{"type":"Feature","id":161,"geometry":{"type":"Polygon","coordinates":[[[41.981612108591044,34.373332567151813],[41.981639912688173,34.373438201074848],[41.981447148944198,34.373473084288761],[41.981419345071288,34.373367450310326],[41.981612108591044,34.373332567151813]]]},"properties":{"OBJECTID":161,"Name":"تجاري","اسم_المؤسس":null,"Shape_Length":60.314111993061914,"Shape_Area":217.88480604495703,"رقم_القطعة":null}},{"type":"Feature","id":162,"geometry":{"type":"Polygon","coordinates":[[[41.981584303487281,34.373226933243721],[41.981612108591044,34.373332567151813],[41.981419345071288,34.373367450310326],[41.981391541309868,34.373261817220964],[41.981584303487281,34.373226933243721]]]},"properties":{"OBJECTID":162,"Name":"تجاري","اسم_المؤسس":null,"Shape_Length":60.31395230438995,"Shape_Area":217.88360210376214,"رقم_القطعة":null}},{"type":"Feature","id":163,"geometry":{"type":"Polygon","coordinates":[[[41.981556498463071,34.373121299324076],[41.981584303487281,34.373226933243721],[41.981391541309868,34.373261817220964],[41.981363736477945,34.373156182345291],[41.981556498463071,34.373121299324076]]]},"properties":{"OBJECTID":163,"Name":"تجاري","اسم_المؤسس":null,"Shape_Length":60.31406903021162,"Shape_Area":217.88496436751524,"رقم_القطعة":null}},{"type":"Feature","id":164,"geometry":{"type":"Polygon","coordinates":[[[41.981528694604584,34.373015665366367],[41.981556498463071,34.373121299324076],[41.981363736477945,34.373156182345291],[41.981335931757506,34.373050548358663],[41.981528694604584,34.373015665366367]]]},"properties":{"OBJECTID":164,"Name":"تجاري","اسم_المؤسس":null,"Shape_Length":60.314032150468861,"Shape_Area":217.88438376067433,"رقم_القطعة":null}},{"type":"Feature","id":165,"geometry":{"type":"Polygon","coordinates":[[[41.981500889739465,34.372910031423608],[41.981528694604584,34.373015665366367],[41.981335931757506,34.373050548358663],[41.981308128202784,34.372944914334006],[41.981500889739465,34.372910031423608]]]},"properties":{"OBJECTID":165,"Name":"تجاري","اسم_المؤسس":null,"Shape_Length":60.314032146807477,"Shape_Area":217.88438372743437,"رقم_القطعة":null}},{"type":"Feature","id":166,"geometry":{"type":"Polygon","coordinates":[[[41.981473086040054,34.372804397442799],[41.981500889739465,34.372910031423608],[41.981308128202784,34.372944914334006],[41.981280323641442,34.372839280324285],[41.981473086040054,34.372804397442799]]]},"properties":{"OBJECTID":166,"Name":"تجاري","اسم_المؤسس":null,"Shape_Length":60.31403214606388,"Shape_Area":217.88438372350154,"رقم_القطعة":null}},{"type":"Feature","id":167,"geometry":{"type":"Polygon","coordinates":[[[41.98144528133404,34.372698763476905],[41.981473086040054,34.372804397442799],[41.981280323641442,34.372839280324285],[41.98125252024581,34.372733646276501],[41.98144528133404,34.372698763476905]]]},"properties":{"OBJECTID":167,"Name":"تجاري","اسم_المؤسس":null,"Shape_Length":60.314032149381759,"Shape_Area":217.88438375362296,"رقم_القطعة":null}},{"type":"Feature","id":168,"geometry":{"type":"Polygon","coordinates":[[[41.98141747779372,34.372593129472982],[41.981224715843553,34.372628012243659],[41.981198204215225,34.372527287210282],[41.981390256141097,34.372489708610409],[41.98141747779372,34.372593129472982]]]},"properties":{"OBJECTID":168,"Name":"تجاري","اسم_المؤسس":null,"Shape_Length":59.507616454069563,"Shape_Area":210.53964755124659,"رقم_القطعة":null}},{"type":"Feature","id":170,"geometry":{"type":"Polygon","coordinates":[[[41.995426807009714,34.352385508170734],[41.995886182473896,34.352588932223881],[41.995634952053081,34.352978805967204],[41.995175672791206,34.352775229934899],[41.995426807009714,34.352385508170734]]]},"properties":{"OBJECTID":170,"Name":"تجاري","اسم_المؤسس":null,"Shape_Length":193.97945464693194,"Shape_Area":2351.439181296425,"رقم_القطعة":null}},{"type":"Feature","id":171,"geometry":{"type":"Polygon","coordinates":[[[41.997382569691354,34.349348327733402],[41.997841932167624,34.349551745145057],[41.997590719126343,34.349941622122749],[41.997131452845693,34.349738052730871],[41.997382569691354,34.349348327733402]]]},"properties":{"OBJECTID":171,"Name":"تجاري","اسم_المؤسس":null,"Shape_Length":193.97945464727718,"Shape_Area":2351.4391813051502,"رقم_القطعة":null}},{"type":"Feature","id":172,"geometry":{"type":"Polygon","coordinates":[[[42.000208103417094,34.34496002555435],[42.000667447128613,34.345163433372612],[42.000416259191596,34.345553315021029],[41.999957011666012,34.345349755220987],[42.000208103417094,34.34496002555435]]]},"properties":{"OBJECTID":172,"Name":"تجاري","اسم_المؤسس":null,"Shape_Length":193.97945464762202,"Shape_Area":2351.4391813124512,"رقم_القطعة":null}},{"type":"Feature","id":173,"geometry":{"type":"Polygon","coordinates":[[[42.002163532011004,34.341922782770602],[42.002622862735727,34.34212618395091],[42.00237169216927,34.342516068830292],[42.001912457623789,34.342312515667153],[42.002163532011004,34.341922782770602]]]},"properties":{"OBJECTID":173,"Name":"تجاري","اسم_المؤسس":null,"Shape_Length":193.97945464762202,"Shape_Area":2351.4391813124512,"رقم_القطعة":null}},{"type":"Feature","id":176,"geometry":{"type":"Polygon","coordinates":[[[41.972803564643684,34.362094539143087],[41.974098432230143,34.362773450901145],[41.973940526424165,34.362980566117926],[41.972645656668263,34.362301652806124],[41.972803564643684,34.362094539143087]]]},"properties":{"OBJECTID":176,"Name":"تجاري","اسم_المؤسس":null,"Shape_Length":336.39210843418482,"Shape_Area":3834.6407515344299,"رقم_القطعة":null}},{"type":"Feature","id":189,"geometry":{"type":"Polygon","coordinates":[[[41.987080524285282,34.359357044143209],[41.988235034293176,34.360442547508455],[41.988257110077519,34.360463017733331],[41.988255888212279,34.360464176128922],[41.987674487305853,34.361015445288906],[41.987662991595379,34.36098511578821],[41.987027138364546,34.359307412196522],[41.987023887163218,34.359301957960795],[41.987024609558361,34.359301824038226],[41.987080524285282,34.359357044143209]]]},"properties":{"OBJECTID":189,"Name":"تجاري","اسم_المؤسس":null,"Shape_Length":452.6084607312373,"Shape_Area":6912.0667098259937,"رقم_القطعة":null}},{"type":"Feature","id":192,"geometry":{"type":"Polygon","coordinates":[[[41.964131694016281,34.355444301688365],[41.964137893912991,34.355624429307895],[41.963969566372285,34.355628413865091],[41.963963367920698,34.355448286192086],[41.964131694016281,34.355444301688365]]]},"properties":{"OBJECTID":192,"Name":"تجاري","اسم_المؤسس":null,"Shape_Length":70.999716293731268,"Shape_Area":309.99804226858089,"رقم_القطعة":null}},{"type":"Feature","id":193,"geometry":{"type":"Polygon","coordinates":[[[41.966292780881417,34.355393124318148],[41.96642852737196,34.355389908738744],[41.9664347322013,34.355570036888018],[41.966298985421105,34.355573252489364],[41.966292780881417,34.355393124318148]]]},"properties":{"OBJECTID":193,"Name":"تجاري","اسم_المؤسس":null,"Shape_Length":64.99981489102079,"Shape_Area":249.99886474047852,"رقم_القطعة":null}},{"type":"Feature","id":194,"geometry":{"type":"Polygon","coordinates":[[[41.965076490351102,34.355421931572764],[41.965212238122703,34.35541871731337],[41.965218440356772,34.355598845659088],[41.965082692295525,34.355602059940388],[41.965076490351102,34.355421931572764]]]},"properties":{"OBJECTID":194,"Name":"تجاري","اسم_المؤسس":null,"Shape_Length":65.000014891565499,"Shape_Area":250.00086473639021,"رقم_القطعة":null}},{"type":"Feature","id":195,"geometry":{"type":"Polygon","coordinates":[[[41.967107259466196,34.355373827687146],[41.967243005826049,34.355370611206183],[41.967249212361516,34.355550738323267],[41.967113465712018,34.355553954826171],[41.967107259466196,34.355373827687146]]]},"properties":{"OBJECTID":195,"Name":"تجاري","اسم_المؤسس":null,"Shape_Length":64.999614893270007,"Shape_Area":249.99761475425606,"رقم_القطعة":null}},{"type":"Feature","id":196,"geometry":{"type":"Polygon","coordinates":[[[41.966971511998601,34.355377044044204],[41.967107259466196,34.355373827687146],[41.967113465712018,34.355553954826171],[41.966977717954784,34.355557171205156],[41.966971511998601,34.355377044044204]]]},"properties":{"OBJECTID":196,"Name":"تجاري","اسم_المؤسس":null,"Shape_Length":64.999814893814715,"Shape_Area":249.99961474016783,"رقم_القطعة":null}},{"type":"Feature","id":197,"geometry":{"type":"Polygon","coordinates":[[[41.966835765595185,34.355380260224663],[41.966971511998601,34.355377044044204],[41.966977717954784,34.355557171205156],[41.966841971261722,34.355560387407543],[41.966835765595185,34.355380260224663]]]},"properties":{"OBJECTID":197,"Name":"تجاري","اسم_المؤسس":null,"Shape_Length":64.999614893266227,"Shape_Area":249.99761475422298,"رقم_القطعة":null}},{"type":"Feature","id":198,"geometry":{"type":"Polygon","coordinates":[[[41.966700020255942,34.355383476228518],[41.966835765595185,34.355380260224663],[41.966841971261722,34.355560387407543],[41.966706225664588,34.355563604333952],[41.966700020255942,34.355383476228518]]]},"properties":{"OBJECTID":198,"Name":"تجاري","اسم_المؤسس":null,"Shape_Length":64.999514824930969,"Shape_Area":249.9962390872758,"رقم_القطعة":null}},{"type":"Feature","id":199,"geometry":{"type":"Polygon","coordinates":[[[41.966564272723005,34.355386692134779],[41.966700020255942,34.355383476228518],[41.966706225664588,34.355563604333952],[41.966570477842005,34.35556682026214],[41.966564272723005,34.355386692134779]]]},"properties":{"OBJECTID":199,"Name":"تجاري","اسم_المؤسس":null,"Shape_Length":65.000014893429409,"Shape_Area":250.00086474804442,"رقم_القطعة":null}},{"type":"Feature","id":200,"geometry":{"type":"Polygon","coordinates":[[[41.96642852737196,34.355389908738744],[41.966564272723005,34.355386692134779],[41.966570477842005,34.35556682026214],[41.9664347322013,34.355570036888018],[41.96642852737196,34.355389908738744]]]},"properties":{"OBJECTID":200,"Name":"تجاري","اسم_المؤسس":null,"Shape_Length":64.999614755274024,"Shape_Area":249.99686339456122,"رقم_القطعة":null}},{"type":"Feature","id":201,"geometry":{"type":"Polygon","coordinates":[[[41.966292780881417,34.355393124318148],[41.966298985421105,34.355573252489364],[41.966163238650886,34.355576468841058],[41.966157034400851,34.355396340647914],[41.966292780881417,34.355393124318148]]]},"properties":{"OBJECTID":201,"Name":"تجاري","اسم_المؤسس":null,"Shape_Length":64.999814757684959,"Shape_Area":249.99886340213487,"رقم_القطعة":null}},{"type":"Feature","id":202,"geometry":{"type":"Polygon","coordinates":[[[41.965890971160832,34.355402642092905],[41.966026717715835,34.355399426958279],[41.966032921687805,34.355579555172476],[41.965897174843157,34.355582770329022],[41.965890971160832,34.355402642092905]]]},"properties":{"OBJECTID":202,"Name":"تجاري","اسم_المؤسس":null,"Shape_Length":64.9998148928847,"Shape_Area":249.99886475213262,"رقم_القطعة":null}},{"type":"Feature","id":203,"geometry":{"type":"Polygon","coordinates":[[[41.965755224584051,34.355405857077265],[41.965890971160832,34.355402642092905],[41.965897174843157,34.355582770329022],[41.965761427976723,34.355585985335303],[41.965755224584051,34.355405857077265]]]},"properties":{"OBJECTID":203,"Name":"تجاري","اسم_المؤسس":null,"Shape_Length":64.9998148928847,"Shape_Area":249.99886475213262,"رقم_القطعة":null}},{"type":"Feature","id":204,"geometry":{"type":"Polygon","coordinates":[[[41.965619476899541,34.355409071937707],[41.965755224584051,34.355405857077265],[41.965761427976723,34.355585985335303],[41.965625680002574,34.355589200217658],[41.965619476899541,34.355409071937707]]]},"properties":{"OBJECTID":204,"Name":"تجاري","اسم_المؤسس":null,"Shape_Length":65.000014893429409,"Shape_Area":250.00086474804442,"رقم_القطعة":null}},{"type":"Feature","id":205,"geometry":{"type":"Polygon","coordinates":[[[41.965483731396922,34.355412287495852],[41.965619476899541,34.355409071937707],[41.965625680002574,34.355589200217658],[41.965489934210296,34.355592415797737],[41.965483731396922,34.355412287495852]]]},"properties":{"OBJECTID":205,"Name":"تجاري","اسم_المؤسس":null,"Shape_Length":64.999614757135404,"Shape_Area":249.99686340619007,"رقم_القطعة":null}},{"type":"Feature","id":206,"geometry":{"type":"Polygon","coordinates":[[[41.96534798366887,34.355415502055756],[41.965483731396922,34.355412287495852],[41.965489934210296,34.355592415797737],[41.965354186192592,34.355595630379554],[41.96534798366887,34.355415502055756]]]},"properties":{"OBJECTID":206,"Name":"تجاري","اسم_المؤسس":null,"Shape_Length":65.000014893429409,"Shape_Area":250.00086474804442,"رقم_القطعة":null}},{"type":"Feature","id":207,"geometry":{"type":"Polygon","coordinates":[[[41.965212238122703,34.35541871731337],[41.96534798366887,34.355415502055756],[41.965354186192592,34.355595630379554],[41.965218440356772,34.355598845659088],[41.965212238122703,34.35541871731337]]]},"properties":{"OBJECTID":207,"Name":"تجاري","اسم_المؤسس":null,"Shape_Length":64.999614757137905,"Shape_Area":249.99686340621523,"رقم_القطعة":null}},{"type":"Feature","id":208,"geometry":{"type":"Polygon","coordinates":[[[41.965076490351102,34.355421931572764],[41.965082692295525,34.355602059940388],[41.964946946416163,34.355605274919405],[41.964940744761392,34.355425146529861],[41.965076490351102,34.355421931572764]]]},"properties":{"OBJECTID":208,"Name":"تجاري","اسم_المؤسس":null,"Shape_Length":64.99961475527401,"Shape_Area":249.99686339456122,"رقم_القطعة":null}},{"type":"Feature","id":209,"geometry":{"type":"Polygon","coordinates":[[[41.96467468117077,34.355431446236629],[41.964810427920845,34.35542823244834],[41.964816629265805,34.355608359958303],[41.964680882226077,34.355611573768506],[41.96467468117077,34.355431446236629]]]},"properties":{"OBJECTID":209,"Name":"تجاري","اسم_المؤسس":null,"Shape_Length":64.999614893267477,"Shape_Area":249.99761475423091,"رقم_القطعة":null}},{"type":"Feature","id":210,"geometry":{"type":"Polygon","coordinates":[[[41.964538934398931,34.355434659874632],[41.96467468117077,34.355431446236629],[41.964680882226077,34.355611573768506],[41.964545135164592,34.355614787428429],[41.964538934398931,34.355434659874632]]]},"properties":{"OBJECTID":210,"Name":"تجاري","اسم_المؤسس":null,"Shape_Length":64.999614893270007,"Shape_Area":249.99761475425606,"رقم_القطعة":null}},{"type":"Feature","id":211,"geometry":{"type":"Polygon","coordinates":[[[41.964403187637053,34.355437874263011],[41.964538934398931,34.355434659874632],[41.964545135164592,34.355614787428429],[41.964409388113062,34.355618001838721],[41.964403187637053,34.355437874263011]]]},"properties":{"OBJECTID":211,"Name":"تجاري","اسم_المؤسس":null,"Shape_Length":64.999614758070265,"Shape_Area":249.99761340425832,"رقم_القطعة":null}},{"type":"Feature","id":212,"geometry":{"type":"Polygon","coordinates":[[[41.964267439735721,34.355441087626836],[41.964403187637053,34.355437874263011],[41.964409388113062,34.355618001838721],[41.964273639922091,34.355621215224431],[41.964267439735721,34.355441087626836]]]},"properties":{"OBJECTID":212,"Name":"تجاري","اسم_المؤسس":null,"Shape_Length":64.999814891950805,"Shape_Area":249.99961472851362,"رقم_القطعة":null}},{"type":"Feature","id":213,"geometry":{"type":"Polygon","coordinates":[[[41.964131694016281,34.355444301688365],[41.964267439735721,34.355441087626836],[41.964273639922091,34.355621215224431],[41.964137893912991,34.355624429307895],[41.964131694016281,34.355444301688365]]]},"properties":{"OBJECTID":213,"Name":"تجاري","اسم_المؤسس":null,"Shape_Length":64.99941475565933,"Shape_Area":249.99561340668464,"رقم_القطعة":null}},{"type":"Feature","id":214,"geometry":{"type":"Polygon","coordinates":[[[41.967249212361516,34.355550738323267],[41.967243005826049,34.355370611206183],[41.967253270344798,34.355370365796489],[41.967270669096969,34.355371136252941],[41.967287694513743,34.355374202609362],[41.967303911275607,34.35537948708992],[41.967318900490838,34.355386853831007],[41.967332276143473,34.355396112989112],[41.96734369614331,34.355407025881206],[41.967352865837803,34.355419312110534],[41.967359549157543,34.355432657408741],[41.967363574141288,34.355446716205961],[41.96736483785179,34.355461127736682],[41.967363306566462,34.355475521443452],[41.967332358800519,34.355548768045225],[41.967249212361516,34.355550738323267]]]},"properties":{"OBJECTID":214,"Name":"تجاري","اسم_المؤسس":null,"Shape_Length":54.856418450759527,"Shape_Area":182.6781226883927,"رقم_القطعة":null}},{"type":"Feature","id":215,"geometry":{"type":"Polygon","coordinates":[[[41.963404271773712,34.355620878921236],[41.963398521519281,34.355453779958729],[41.963833085190409,34.355452374399661],[41.963843274582196,34.355748473947877],[41.963404271773712,34.355620878921236]]]},"properties":{"OBJECTID":215,"Name":"تجاري","اسم_المؤسس":null,"Shape_Length":134.24731998219758,"Shape_Area":1028.2770721790771,"رقم_القطعة":null}},{"type":"Feature","id":216,"geometry":{"type":"Polygon","coordinates":[[[41.958522093094381,34.351251577463429],[41.958990009658251,34.351441149660872],[41.958755873174574,34.351838285282781],[41.958288046119108,34.351648558642751],[41.958522093094381,34.351251577463429]]]},"properties":{"OBJECTID":216,"Name":"تجاري","اسم_المؤسس":null,"Shape_Length":193.97942995966787,"Shape_Area":2351.4385378820343,"رقم_القطعة":null}},{"type":"Feature","id":217,"geometry":{"type":"Polygon","coordinates":[[[41.960344695810697,34.348157867300309],[41.960812598212115,34.348347433282768],[41.960578479201594,34.348744571650279],[41.960110665184772,34.348554850349998],[41.960344695810697,34.348157867300309]]]},"properties":{"OBJECTID":217,"Name":"تجاري","اسم_المؤسس":null,"Shape_Length":193.97942996097925,"Shape_Area":2351.4386136075068,"رقم_القطعة":null}},{"type":"Feature","id":218,"geometry":{"type":"Polygon","coordinates":[[[41.964240291418669,34.344622161403727],[41.964825898789336,34.344859482710625],[41.96434903239814,34.345669038349293],[41.963763420389604,34.34543171500777],[41.964240291418669,34.344622161403727]]]},"properties":{"OBJECTID":218,"Name":"تجاري","اسم_المؤسس":null,"Shape_Length":320.00001861986436,"Shape_Area":5999.999580440277,"رقم_القطعة":null}},{"type":"Feature","id":219,"geometry":{"type":"Polygon","coordinates":[[[41.984875050375223,34.366089048974644],[41.984294504807671,34.366850658158036],[41.983927125276828,34.366658093394889],[41.98450767310964,34.365896485831925],[41.984875050375223,34.366089048974644]]]},"properties":{"OBJECTID":219,"Name":"تجاري","اسم_المؤسس":null,"Shape_Length":279.99994315346811,"Shape_Area":3999.9976650493441,"رقم_القطعة":null}},{"type":"Feature","id":220,"geometry":{"type":"Polygon","coordinates":[[[41.970944202073042,34.344454535145537],[41.970655124083798,34.344949091708486],[41.970410760803183,34.344850822284698],[41.970699839979446,34.344356266235593],[41.970944202073042,34.344454535145537]]]},"properties":{"OBJECTID":220,"Name":"تجاري","اسم_المؤسس":null,"Shape_Length":172.00003783722579,"Shape_Area":1525.0010582757734,"رقم_القطعة":null}},{"type":"Feature","id":221,"geometry":{"type":"Polygon","coordinates":[[[41.970981978927384,34.346119064805393],[41.97033969771541,34.346303898014213],[41.970090450824515,34.345708034541346],[41.970168511297857,34.345574491892222],[41.970670186654864,34.34577623678679],[41.97071694977511,34.345797452934981],[41.970760980576941,34.345822368718878],[41.970801855023133,34.345850744188859],[41.970839179472399,34.345882306076852],[41.970872594470222,34.34591675042801],[41.970901778210667,34.345953745527787],[41.970926449635542,34.345992935096376],[41.970946371141267,34.346033941719845],[41.970981978927384,34.346119064805393]]]},"properties":{"OBJECTID":221,"Name":"تجاري","اسم_المؤسس":null,"Shape_Length":249.64942786864555,"Shape_Area":3690.8968265982294,"رقم_القطعة":null}},{"type":"Feature","id":222,"geometry":{"type":"Polygon","coordinates":[[[41.969701977365801,34.34752971883173],[41.969559800530476,34.34777294218587],[41.968953762520989,34.347529227680802],[41.969086462410495,34.347302219502353],[41.969095940804188,34.347286004953503],[41.969701977365801,34.34752971883173]]]},"properties":{"OBJECTID":222,"Name":"تجاري","اسم_المؤسس":null,"Shape_Length":184.00007954476945,"Shape_Area":1860.0001445131193,"رقم_القطعة":null}},{"type":"Feature","id":223,"geometry":{"type":"Polygon","coordinates":[[[41.950297223634188,34.349777216278987],[41.950538447572519,34.350055067647695],[41.949656855311858,34.350581568758471],[41.949339456499914,34.350215972678399],[41.949938940138701,34.349857954179768],[41.950221048344716,34.349689473899311],[41.950297223634188,34.349777216278987]]]},"properties":{"OBJECTID":223,"Name":"تجاري","اسم_المؤسس":null,"Shape_Length":299.99998503082725,"Shape_Area":4999.9985967645162,"رقم_القطعة":null}},{"type":"Feature","id":225,"geometry":{"type":"Polygon","coordinates":[[[41.978686440936777,34.355849533993755],[41.978720016115602,34.355847702242578],[41.97875347898534,34.355850618155287],[41.979034971740198,34.355937952551521],[41.979313345531942,34.356031910881093],[41.979588377037373,34.35613241567583],[41.979859838458431,34.356239385972756],[41.980127510457756,34.356352734294866],[41.980053787117633,34.356446962184037],[41.979414766634193,34.356167761011086],[41.978686440936777,34.355849533993755]]]},"properties":{"OBJECTID":225,"Name":"تجاري","اسم_المؤسس":null,"Shape_Length":299.23770402747004,"Shape_Area":1266.3697069919115,"رقم_القطعة":null}},{"type":"Feature","id":226,"geometry":{"type":"Polygon","coordinates":[[[41.981805303240769,34.357006513423585],[41.981553754304599,34.357326561340955],[41.981232010336839,34.35715849020071],[41.981450594611339,34.356866532561178],[41.981805303240769,34.357006513423585]]]},"properties":{"OBJECTID":226,"Name":"تجاري","اسم_المؤسس":null,"Shape_Length":151.70003466331138,"Shape_Area":1427.1962230764411,"رقم_القطعة":null}}]}