{"type":"FeatureCollection","features":[{"type":"Feature","id":1,"geometry":{"type":"Polygon","coordinates":[[[41.969321896441151,34.357166189103836],[41.969837538972619,34.357183320100773],[41.969841772000215,34.357183738323137],[41.969845872069556,34.357184700611683],[41.969849741607312,34.357186183195203],[41.969853283649165,34.35718814876671],[41.969856411740693,34.357190549848681],[41.969859047733678,34.357193327945197],[41.969861127184153,34.357196412509346],[41.969862598584321,34.357199729975981],[41.969863427483972,34.357203197351765],[41.969863591314926,34.357206729552033],[41.969820200935118,34.358105045781365],[41.969819148622825,34.358112244645866],[41.969816718529351,34.358119209250589],[41.969812971721304,34.35812576053754],[41.969808006538535,34.358131728459028],[41.969801951214897,34.358136958466595],[41.969794961865226,34.358141316066892],[41.969787221367596,34.358144685947437],[41.969778927799084,34.358146983074192],[41.96977029858882,34.358148147182412],[41.969761555473269,34.358148147648826],[41.969752925645714,34.358146985266686],[41.969744631886982,34.358144689781035],[41.969736890393456,34.358141319941637],[41.969286205889688,34.357904987516427],[41.969321896441151,34.357166189103836]]]},"properties":{"OBJECTID":1,"Name":"تعليمي","اسم_المؤسس":" ","Shape_Length":292.80747703293196,"Shape_Area":4806.538680132131,"رقم_القطعة":null}},{"type":"Feature","id":2,"geometry":{"type":"Polygon","coordinates":[[[41.9720099879722,34.357706338437488],[41.971976649583652,34.358396903786833],[41.970794444950123,34.358371769375985],[41.970819125631849,34.357689562092212],[41.970819593091818,34.357686025377376],[41.970820725150581,34.357682595109431],[41.970822494295184,34.357679353983684],[41.970824856723041,34.357676385091132],[41.970827754164056,34.357673761958793],[41.970831111740459,34.357671549503124],[41.970834848794709,34.357669802865637],[41.970838870138195,34.357668565822664],[41.970843076847267,34.357667868720291],[41.970847361982976,34.357667730381173],[41.9720099879722,34.357706338437488]]]},"properties":{"OBJECTID":2,"Name":"تعليمي","اسم_المؤسس":" ","Shape_Length":372.35028048557513,"Shape_Area":8462.9918368843373,"رقم_القطعة":null}},{"type":"Feature","id":3,"geometry":{"type":"Polygon","coordinates":[[[41.9720099879722,34.357706338437488],[41.972697412024878,34.357729161289924],[41.972706091377979,34.357730033813539],[41.972714489385112,34.357732048933173],[41.972722389050411,34.357735156036519],[41.972729585327514,34.357739273573436],[41.972735892944058,34.357744295175557],[41.972741146465459,34.357750091457426],[41.972745210100356,34.35775651067965],[41.972747980222778,34.357763388602855],[41.972749384158817,34.357770544911666],[41.972749384976197,34.357777795717652],[41.972747983624402,34.357784952606117],[41.972745215963272,34.357791830820716],[41.972741152826686,34.357798251064779],[41.972279830064352,34.358403347450988],[41.971976649583652,34.358396903786833],[41.9720099879722,34.357706338437488]]]},"properties":{"OBJECTID":3,"Name":"تعليمي","اسم_المؤسس":" ","Shape_Length":257.86037136216459,"Shape_Area":3799.6271242706562,"رقم_القطعة":"9377"}},{"type":"Feature","id":4,"geometry":{"type":"Polygon","coordinates":[[[41.970684518600379,34.35766232114041],[41.970689184722026,34.357662814445881],[41.970693678522565,34.357663968153076],[41.970697866177261,34.357665747653797],[41.970701619709303,34.357668099268544],[41.970704826858949,34.35767095271089],[41.970707393319117,34.357674222836096],[41.970709240595234,34.357677810594382],[41.970710313829684,34.357681609150646],[41.97071058071591,34.357685503910915],[41.970679537127069,34.358543500973106],[41.970678564604071,34.358550741171783],[41.970676197265021,34.358557757449773],[41.970672497070076,34.358564365318635],[41.970667561176327,34.358570392054581],[41.970661518807155,34.358575680380042],[41.970654527003632,34.358580091271101],[41.970646769761245,34.358583510288291],[41.970638449342033,34.358585847787523],[41.970629783111903,34.35858704170122],[41.970620998269773,34.358587062173328],[41.970612324118356,34.358585908141357],[41.970603987815608,34.358583610143874],[41.970596207731539,34.358580226876221],[41.970055579491387,34.358296735037655],[41.970048048742413,34.358291977359194],[41.970041628919041,34.358286206575364],[41.970036514319972,34.358279600050111],[41.970032860879684,34.358272356811128],[41.970030778566553,34.358264697734427],[41.970030332087312,34.358256854710426],[41.970057875943773,34.357686593498698],[41.970058883456346,34.357679573295457],[41.970061204034351,34.357672770893053],[41.970064778369888,34.357666353588542],[41.970069519624147,34.357660478530782],[41.970075311191891,34.357655290971884],[41.97008200868261,34.35765091881072],[41.97008944959893,34.357647469653784],[41.970097448865523,34.357645027318199],[41.970105810870166,34.357643654243397],[41.970114328028032,34.357643381610849],[41.970684518600379,34.35766232114041]]]},"properties":{"OBJECTID":4,"Name":"تعليمي","اسم_المؤسس":" ","Shape_Length":297.49224776639346,"Shape_Area":5344.1040544240514,"رقم_القطعة":null}},{"type":"Feature","id":5,"geometry":{"type":"Polygon","coordinates":[[[41.975976412711169,34.357837972396922],[41.975985805148362,34.357838968853976],[41.975994845999061,34.357841302520811],[41.976003261062267,34.357844903450911],[41.976010794250527,34.357849660694313],[41.97601721659634,34.357855431092418],[41.976022333853933,34.35786203909295],[41.976025988894193,34.357869283001477],[41.976028072851271,34.357876942822664],[41.976028519915751,34.357884786696715],[41.976009757556824,34.358273815493419],[41.975947358176839,34.358440001468139],[41.975608205961322,34.358884881610166],[41.974896514278747,34.358511729291102],[41.975132468063556,34.35820222340805],[41.975194868945657,34.358036037769075],[41.97520348546162,34.357857417795401],[41.975204492573958,34.35785039847282],[41.975206812731727,34.357843595994311],[41.975210386637357,34.357837177658929],[41.975215127557348,34.357831303320516],[41.975220918799963,34.357826115533797],[41.975227616014543,34.357821743103941],[41.97523505667867,34.357818292743346],[41.975243055817927,34.357815850978518],[41.975251417696747,34.357814476654504],[41.975259934859864,34.35781420456388],[41.975976412711169,34.357837972396922]]]},"properties":{"OBJECTID":5,"Name":"تعليمي","اسم_المؤسس":" ","Shape_Length":359.93477989459961,"Shape_Area":8138.5149067477269,"رقم_القطعة":"9381"}},{"type":"Feature","id":6,"geometry":{"type":"Polygon","coordinates":[[[41.977172579192377,34.358445731444348],[41.9780225180101,34.358473912764211],[41.978030982062805,34.358474748683399],[41.978039184615724,34.358476671740569],[41.978046924063527,34.358479636366702],[41.978054007522438,34.358483567034391],[41.978060263190393,34.358488369675101],[41.978065535748144,34.358493924579911],[41.978069696419936,34.358500094267114],[41.978072640961031,34.358506728038208],[41.978074298377415,34.358513662666844],[41.978074626741368,34.3585207270078],[41.978059851161404,34.35882726865136],[41.978056858681782,34.358850718265067],[41.978050199925519,34.358873643301273],[41.978039988143372,34.358895650698344],[41.978026399125305,34.358916363899468],[41.977682163923866,34.3593679300375],[41.97767705685326,34.359373590738542],[41.97767094560939,34.359378518716611],[41.977663980290117,34.359382594037378],[41.97765633226485,34.359385714276542],[41.977648189095362,34.3593878045588],[41.977639752204297,34.359388813107692],[41.977631228282931,34.359388714158925],[41.977622828300738,34.359387510688748],[41.977614758753667,34.359385232824181],[41.977607218310524,34.359381935220497],[41.977121168540279,34.359127105490884],[41.977027954678796,34.359078233862391],[41.977172579192377,34.358445731444348]]]},"properties":{"OBJECTID":6,"Name":"تعليمي","اسم_المؤسس":"مدرسه","Shape_Length":332.3253148653456,"Shape_Area":7383.3528240998221,"رقم_القطعة":"9390"}},{"type":"Feature","id":7,"geometry":{"type":"Polygon","coordinates":[[[41.982732589286648,34.359170926548458],[41.982914179023076,34.359266120608915],[41.983390134891955,34.359515625792987],[41.9831080039461,34.3598857650708],[41.982439951412879,34.359538035011667],[41.982732589286648,34.359170926548458]]]},"properties":{"OBJECTID":7,"Name":"تعليمي","اسم_المؤسس":" ","Shape_Length":241.63998163622699,"Shape_Area":3512.3092964891189,"رقم_القطعة":"5730"}},{"type":"Feature","id":8,"geometry":{"type":"Polygon","coordinates":[[[41.974917026227558,34.359791513798747],[41.97458773569717,34.360223440889101],[41.974365456254681,34.360515000948027],[41.974359717440983,34.360521247464305],[41.974352759073412,34.36052657176662],[41.974344789649635,34.360530814645678],[41.9743360534071,34.360533843966252],[41.974326815660277,34.360535570347544],[41.974317357115744,34.360535940090287],[41.974307965407057,34.360534941692386],[41.974298924234574,34.360532606113033],[41.974290510011791,34.360529004150123],[41.973670640338455,34.360203995390286],[41.973663815704334,34.360199759812332],[41.973657872486967,34.360194691547811],[41.973652959646337,34.360188914973108],[41.973649196339167,34.360182572315821],[41.973646676103698,34.360175819045907],[41.973645460280011,34.360168822232914],[41.973645579927364,34.360161753288175],[41.973647031448351,34.360154787169805],[41.973649778506228,34.360148095124885],[41.973653754101491,34.36014184193489],[41.973687240886555,34.360097919422259],[41.974205329325486,34.359418357742008],[41.974917026227558,34.359791513798747]]]},"properties":{"OBJECTID":8,"Name":"تعليمي","اسم_المؤسس":" ","Shape_Length":350.68995848048678,"Shape_Area":7739.0926068271319,"رقم_القطعة":"9384"}},{"type":"Feature","id":9,"geometry":{"type":"Polygon","coordinates":[[[41.984561056259267,34.360129432513638],[41.984566329776605,34.360132763364547],[41.984570825224111,34.360136803668759],[41.984574406658702,34.360141428746189],[41.98457696480768,34.360146499745014],[41.984578422466768,34.360151862608589],[41.984578734659898,34.36015735257844],[41.9845778923127,34.360162805822682],[41.984575922028803,34.360168053131872],[41.984572882417005,34.360172938937701],[41.984231091795422,34.360621355901777],[41.983441774620658,34.360207591654209],[41.983381593768883,34.360176044404227],[41.983420419910452,34.360125106985883],[41.98374370546432,34.359700972860807],[41.984561056259267,34.360129432513638]]]},"properties":{"OBJECTID":9,"Name":"تعليمي","اسم_المؤسس":"مدرسة ابن حزم الابتدائية","Shape_Length":308.24638880720318,"Shape_Area":5767.2671216099261,"رقم_القطعة":"5731"}},{"type":"Feature","id":10,"geometry":{"type":"Polygon","coordinates":[[[41.984211396300651,34.360652722673798],[41.984121199307431,34.360771057013821],[41.983830940818699,34.361151860505807],[41.983752877844104,34.361110939895639],[41.983563975538921,34.36101191624364],[41.98323077828293,34.360837252739387],[41.983523590374809,34.360457788183226],[41.983620211122201,34.36033257317127],[41.984211396300651,34.360652722673798]]]},"properties":{"OBJECTID":10,"Name":"تعليمي","اسم_المؤسس":" ","Shape_Length":262.37520505982127,"Shape_Area":4302.184752286299,"رقم_القطعة":"5728"}},{"type":"Feature","id":11,"geometry":{"type":"Polygon","coordinates":[[[41.98232632318355,34.360632493064266],[41.9823884236148,34.360640714665855],[41.982448961448512,34.360654833391365],[41.982507126700249,34.360674658971035],[41.982562138258885,34.360699926518343],[41.983210260534761,34.36103967946827],[41.983572708831645,34.361229676895512],[41.98357647474311,34.361232056641093],[41.983579685771602,34.3612349420832],[41.983582244239614,34.361238245465586],[41.983584070548361,34.361241867774247],[41.983585111865857,34.361245698525487],[41.983585335770627,34.36124962042792],[41.983584733701434,34.361253514706668],[41.983583325397156,34.361257263699244],[41.983581154616694,34.361260752762703],[41.983061583099456,34.361942386888089],[41.981506635328529,34.361127259952085],[41.981407163786201,34.361075114568749],[41.981402152684815,34.361071979094646],[41.981397830796112,34.361068202153895],[41.981394318090082,34.361063887186347],[41.98139170898321,34.361059152677008],[41.981390075373014,34.361054125772441],[41.981389460185973,34.361048944240679],[41.981389882583976,34.361043750034675],[41.981391327998814,34.361038684126811],[41.981393760014463,34.361033884416472],[41.981397111551274,34.361029482339369],[41.981401290104529,34.361025597331512],[41.981406182024664,34.361022334922104],[41.981967582140392,34.360707532462591],[41.982021628528358,34.360680870232478],[41.982079027851462,34.360659566128135],[41.9821390119914,34.360643905686217],[41.982200776484184,34.360634099613932],[41.982263494445867,34.360630278041285],[41.98232632318355,34.360632493064266]]]},"properties":{"OBJECTID":11,"Name":"تعليمي","اسم_المؤسس":" ","Shape_Length":510.79614396236309,"Shape_Area":15015.465670320504,"رقم_القطعة":"5727"}},{"type":"Feature","id":12,"geometry":{"type":"Polygon","coordinates":[[[41.98121390124701,34.36113819268234],[41.981220114704357,34.361138972360969],[41.981226090435769,34.361140588918168],[41.981228343469006,34.361141564289575],[41.981231661739876,34.361143000446511],[41.981803564387164,34.361442806850825],[41.981806976385911,34.361444923961734],[41.981809948799338,34.361447457416709],[41.981812405543529,34.361450345973346],[41.981814287527598,34.361453517158147],[41.981815547447141,34.36145689370337],[41.98181615626838,34.361460392487395],[41.981816096775937,34.361463926494935],[41.981815371334605,34.36146740913459],[41.981813997577248,34.361470755245598],[41.981812009522713,34.361473881971818],[41.981350476846281,34.36207935068073],[41.980405025320799,34.361583717128681],[41.981190042882105,34.361143532705718],[41.981195521918053,34.361140979811218],[41.981201434158635,34.361139210483628],[41.981207616094686,34.361138272876836],[41.98121390124701,34.36113819268234]]]},"properties":{"OBJECTID":12,"Name":"تعليمي","اسم_المؤسس":" ","Shape_Length":339.91366656680424,"Shape_Area":6968.107013762331,"رقم_القطعة":"5724"}},{"type":"Feature","id":13,"geometry":{"type":"Polygon","coordinates":[[[41.980186304605475,34.362207005083562],[41.979826354912952,34.36267919004213],[41.979390124914765,34.36245050185881],[41.979386711843006,34.362448384706127],[41.979383740514592,34.362445850263512],[41.979381283818483,34.362442961655624],[41.979379401898385,34.362439790430138],[41.979378140971072,34.362436413882371],[41.97937753335821,34.362432915955907],[41.979377592919001,34.362429381044045],[41.979378318467738,34.362425898413626],[41.979379692336899,34.36242255232456],[41.979381679418694,34.362419425658899],[41.97968178469155,34.362025748384774],[41.979706331974121,34.361996798801499],[41.979734183217452,34.361969986142022],[41.980186304605475,34.362207005083562]]]},"properties":{"OBJECTID":13,"Name":"تعليمي","اسم_المؤسس":" ","Shape_Length":222.20081059057009,"Shape_Area":3096.3931272127465,"رقم_القطعة":"5722"}},{"type":"Feature","id":14,"geometry":{"type":"Polygon","coordinates":[[[41.980673045813113,34.362462169961177],[41.980313097980591,34.362934356250896],[41.979899825805795,34.362717705667606],[41.980259774131532,34.362245520534572],[41.980673045813113,34.362462169961177]]]},"properties":{"OBJECTID":14,"Name":"تعليمي","اسم_المؤسس":" ","Shape_Length":213.99993841258532,"Shape_Area":2789.9984086189497,"رقم_القطعة":"5721"}},{"type":"Feature","id":16,"geometry":{"type":"Polygon","coordinates":[[[41.978860939959894,34.364778908230328],[41.978748739753399,34.364926843848316],[41.977896097712694,34.364471247694098],[41.977888564826692,34.364466488780252],[41.97788214287425,34.364460717591918],[41.977877027207192,34.364454109651149],[41.977873372736219,34.364446864900962],[41.977871290545146,34.364439204182148],[41.977870845399977,34.364431360280015],[41.977872047891438,34.36442357090457],[41.977874864050058,34.364416073949343],[41.97787920732933,34.364409095968597],[41.977959258249285,34.364306214101497],[41.978568848053769,34.363484930175382],[41.978571401129123,34.363482099816167],[41.978574456320104,34.363479635812887],[41.97857793964512,34.363477597656541],[41.978581763803042,34.363476037049935],[41.978585835584063,34.363474992318956],[41.978590053697673,34.363474488465329],[41.978594316406827,34.363474537882247],[41.97859851711997,34.363475138658792],[41.978602552120861,34.363476277997357],[41.978606322549375,34.363477926756993],[41.97978501752155,34.364096031209726],[41.979788430672585,34.364098148346784],[41.979791402074675,34.364100682775259],[41.979793858837063,34.364103571370975],[41.979795740814346,34.364106742586557],[41.979797000702227,34.364110119153494],[41.979797609435877,34.364113617049028],[41.979797549896972,34.364117151959398],[41.979796824356505,34.36412063459133],[41.979795451567739,34.364123980658405],[41.979793463380304,34.364127107357803],[41.979480587436441,34.364536343194544],[41.979448635348696,34.364578255799806],[41.979138034085032,34.364415428600402],[41.978860939959894,34.364778908230328]]]},"properties":{"OBJECTID":16,"Name":"تعليمي","اسم_المؤسس":" ","Shape_Length":518.24868511512238,"Shape_Area":14772.70584354641,"رقم_القطعة":"5712"}},{"type":"Feature","id":17,"geometry":{"type":"Polygon","coordinates":[[[41.96936594163865,34.364748604069916],[41.968767837784362,34.365532992559864],[41.968766919652062,34.365532510967739],[41.967390293803774,34.364810674945716],[41.967988406364839,34.364026291817005],[41.96936594163865,34.364748604069916]]]},"properties":{"OBJECTID":17,"Name":"تعليمي","اسم_المؤسس":" ","Shape_Length":506.00452631012462,"Shape_Area":15450.231934904474,"رقم_القطعة":null}},{"type":"Feature","id":18,"geometry":{"type":"Polygon","coordinates":[[[41.974134429683133,34.364723842200299],[41.974454060000156,34.365900216691102],[41.974317636793302,34.366079148864799],[41.973407377891007,34.365601917848544],[41.974093293724977,34.364702275279868],[41.974134429683133,34.364723842200299]]]},"properties":{"OBJECTID":18,"Name":"تعليمي","اسم_المؤسس":" ","Shape_Length":379.05591248212397,"Shape_Area":7230.6027309574019,"رقم_القطعة":null}},{"type":"Feature","id":19,"geometry":{"type":"Polygon","coordinates":[[[41.978811283876119,34.36528181864707],[41.978725817831922,34.365393326780975],[41.978149966337881,34.366147287058219],[41.977208672751807,34.366323183680663],[41.976976984305765,34.365470587407074],[41.977519837548599,34.364759935653765],[41.977610580188063,34.364640240498865],[41.978811283876119,34.36528181864707]]]},"properties":{"OBJECTID":19,"Name":"تعليمي","اسم_المؤسس":" ","Shape_Length":540.04007058207912,"Shape_Area":18942.101561919331,"رقم_القطعة":"5714"}},{"type":"Feature","id":20,"geometry":{"type":"Polygon","coordinates":[[[41.964719610043424,34.365952498877711],[41.965097076560085,34.365457504483807],[41.96567104441759,34.365758728853599],[41.965293577961575,34.366253723145697],[41.964719610043424,34.365952498877711]]]},"properties":{"OBJECTID":20,"Name":"تعليمي","اسم_المؤسس":" ","Shape_Length":255.03025023778014,"Shape_Area":4063.4828349380241,"رقم_القطعة":"6781"}},{"type":"Feature","id":22,"geometry":{"type":"Polygon","coordinates":[[[41.976187926422483,34.366708287647896],[41.976196327099601,34.366709490277749],[41.976204397365706,34.366711769099588],[41.976211938408134,34.366715065854379],[41.976218764800123,34.366719301225352],[41.976224707567816,34.366724369354962],[41.976229620993628,34.366730145791756],[41.976233384820318,34.36673648833824],[41.976235905496424,34.366743241527438],[41.976478519489511,34.367636053043888],[41.976479723798008,34.367642897757605],[41.976479649031191,34.367649814166022],[41.976478299225356,34.367656639920064],[41.976475704546964,34.36766321383746],[41.976471926882475,34.367669380273576],[41.975999060530313,34.368313527151045],[41.975994010684033,34.368319317103285],[41.975987919510118,34.368324371620652],[41.97598094233139,34.368328564333595],[41.975973252581639,34.368331789163889],[41.97596504525518,34.368333965649086],[41.975956526013896,34.368335038306185],[41.975947909174351,34.368334981187573],[41.9759394121497,34.368333794410795],[41.975931248006276,34.36833150884658],[41.975923620959762,34.368328181721559],[41.975478920229548,34.368095050490268],[41.975469364040173,34.368089121078462],[41.975461043870759,34.368082025836003],[41.975454163702508,34.368073938275941],[41.97544889477134,34.368065058848515],[41.975445365410515,34.368055604371513],[41.975138215894205,34.366925254194058],[41.975137582538018,34.366921362961506],[41.975137772024183,34.366917439992534],[41.975138780924134,34.366913603453149],[41.975140577539101,34.366909971295733],[41.975143108098045,34.366906652094258],[41.975146294712921,34.366903748699684],[41.975150041512869,34.366901347273945],[41.975154233749301,34.366899522720175],[41.975158745048049,34.366898328590835],[41.976170964075216,34.366709196221642],[41.976179402837992,34.366708188610154],[41.976187926422483,34.366708287647896]]]},"properties":{"OBJECTID":22,"Name":"تعليمي","اسم_المؤسس":" ","Shape_Length":486.8138408079609,"Shape_Area":15039.342338862098,"رقم_القطعة":"5702"}},{"type":"Feature","id":27,"geometry":{"type":"Polygon","coordinates":[[[41.982713781447359,34.376478081306608],[41.982600738445178,34.376624587123892],[41.982281397693285,34.377038456338248],[41.982146925655833,34.377212732560004],[41.981505486061543,34.376872483309661],[41.981443247607103,34.376839469510394],[41.98141388679452,34.376823895478751],[41.981411083130666,34.376822089848424],[41.981384388304114,34.376801220934723],[41.981362469293948,34.376776825606825],[41.981345993827162,34.376749645656361],[41.981335459699586,34.376720505439074],[41.981331189728849,34.376690292166863],[41.981333311021558,34.37665992306156],[41.981341761683346,34.376630319952355],[41.98135628232211,34.376602384243931],[41.981359888726125,34.376597060131225],[41.981364794592785,34.376590702889018],[41.98158161864302,34.376309701256567],[41.981754244983797,34.376401270887627],[41.981760850806886,34.376404773954775],[41.982074395594296,34.375998418994421],[41.982670078791067,34.376314395690876],[41.982612177645265,34.376389436349946],[41.982621077288755,34.376428907492837],[41.982663522538367,34.376451421863962],[41.982713781447359,34.376478081306608]]]},"properties":{"OBJECTID":27,"Name":"تعليمي","اسم_المؤسس":"مدرسة بنات","Shape_Length":405.41943099312039,"Shape_Area":9458.1816747306384,"رقم_القطعة":null}},{"type":"Feature","id":28,"geometry":{"type":"Polygon","coordinates":[[[41.983143385434587,34.375173626115057],[41.983095154365735,34.375237974932396],[41.982867067130186,34.375542276251068],[41.982731257697509,34.37547023650707],[41.982501744670223,34.375348019451614],[41.982414107740993,34.375301352097587],[41.982239291804724,34.375208261116946],[41.982218444517031,34.375129062272713],[41.982158003912602,34.374899452164115],[41.982088126333615,34.374633984969748],[41.982075039180728,34.37458426611947],[41.982159978260064,34.374469101617443],[41.982178184018601,34.374465631640518],[41.98279556256616,34.374347966107564],[41.982919807277582,34.37432428533377],[41.982924173608708,34.3743408734775],[41.982948000499903,34.374431391284979],[41.982976194890206,34.374538497197776],[41.983007416182268,34.374657099509527],[41.983031268388764,34.374747712222131],[41.983038636488459,34.374775701833194],[41.983065899978676,34.374879268128446],[41.983093162459198,34.374982834439088],[41.983093459003456,34.374983961153987],[41.983143385434587,34.375173626115057]]]},"properties":{"OBJECTID":28,"Name":"تعليمي","اسم_المؤسس":"متوسطة البنين","Shape_Length":370.91758727941715,"Shape_Area":8909.0305248963377,"رقم_القطعة":null}},{"type":"Feature","id":29,"geometry":{"type":"Polygon","coordinates":[[[41.989849971719032,34.36797353913245],[41.989230345441335,34.368089041261051],[41.989042118522597,34.367991087446391],[41.988965690671115,34.367951314012615],[41.988879235573194,34.367966909188546],[41.988801861966095,34.367980865363563],[41.988585534378949,34.36801988593708],[41.988513213959635,34.367971836229025],[41.988497038815716,34.367910173537723],[41.988357988549673,34.367380090305389],[41.988747507922277,34.367305185216068],[41.989406505420433,34.36717845641477],[41.989416853289185,34.367183943507399],[41.989656995271616,34.367311285679158],[41.989731768703393,34.367567894113854],[41.989739743217811,34.36759525913439],[41.989849971719032,34.36797353913245]]]},"properties":{"OBJECTID":29,"Name":"تعليمي","اسم_المؤسس":"متوسطة البنات","Shape_Length":400.7946015636237,"Shape_Area":10035.96645901316,"رقم_القطعة":null}},{"type":"Feature","id":30,"geometry":{"type":"Polygon","coordinates":[[[41.990057203128089,34.368128140828389],[41.990111086742544,34.368360167752698],[41.989971586161303,34.368554353181736],[41.989887905845407,34.368565728539139],[41.989702888871655,34.368590879382914],[41.989526261136078,34.368489561841173],[41.98947841378024,34.36826684713823],[41.989629369645606,34.368073958727877],[41.989865490377582,34.368030345656969],[41.990057203128089,34.368128140828389]]]},"properties":{"OBJECTID":30,"Name":"تعليمي","اسم_المؤسس":"روضة الصمود","Shape_Length":189.74467325619509,"Shape_Area":2704.5858574203276,"رقم_القطعة":null}},{"type":"Feature","id":31,"geometry":{"type":"Polygon","coordinates":[[[41.990332460314328,34.367255950388746],[41.990109165626833,34.367294060491638],[41.990099079696535,34.367252960372731],[41.99007393001115,34.367239623597946],[41.989977309978137,34.367188389372394],[41.989913470941126,34.367154537326243],[41.989822475943377,34.367106285152474],[41.989798981773369,34.36713764290063],[41.989537936156154,34.366999217440835],[41.989472102123194,34.366742934750022],[41.989440139234851,34.366618511277814],[41.989567636660269,34.366466556150002],[41.990359425527203,34.366323720468316],[41.990443986673704,34.366646055498038],[41.990504135719938,34.366875333072734],[41.99042037825582,34.366984442868016],[41.990506134344969,34.367029709305172],[41.990332460314328,34.367255950388746]]]},"properties":{"OBJECTID":31,"Name":"تعليمي","اسم_المؤسس":"مدرسة ثانوية الزهور للبنات","Shape_Length":342.92427278332786,"Shape_Area":7450.7851387834125,"رقم_القطعة":null}},{"type":"Feature","id":32,"geometry":{"type":"Polygon","coordinates":[[[41.995260825293073,34.366654079554003],[41.995283363938114,34.366665842274216],[41.995273315205395,34.366679045849665],[41.994891495717994,34.367180776755312],[41.994758799677683,34.367199423935936],[41.99398303719876,34.366794272738922],[41.994005256217079,34.366754533693921],[41.993968279711936,34.366616855938638],[41.993880668617429,34.366574206344566],[41.994225868923493,34.366113918618531],[41.995260825293073,34.366654079554003]]]},"properties":{"OBJECTID":32,"Name":"تعليمي","اسم_المؤسس":"متوسطة عنه الغربية","Shape_Length":369.37082101309693,"Shape_Area":8399.7544403367974,"رقم_القطعة":null}},{"type":"Feature","id":33,"geometry":{"type":"Polygon","coordinates":[[[41.994120056256953,34.366066291181298],[41.993782465322845,34.366516431095235],[41.99323872543539,34.366240349407079],[41.993209744852727,34.366225635081435],[41.993163133067597,34.366043721055668],[41.993362994930692,34.366020675189212],[41.993525853104103,34.365803523010797],[41.993551011194988,34.365769977652391],[41.994120056256953,34.366066291181298]]]},"properties":{"OBJECTID":33,"Name":"تعليمي","اسم_المؤسس":"روضة الورود","Shape_Length":254.46157396089245,"Shape_Area":3850.6744406476269,"رقم_القطعة":null}},{"type":"Feature","id":34,"geometry":{"type":"Polygon","coordinates":[[[41.993604326365563,34.366937428075282],[41.993694521550644,34.366984535062542],[41.993699940009265,34.366987365280494],[41.993861923134965,34.366972278448287],[41.993915580565101,34.366918604975119],[41.994680097358113,34.367315325455756],[41.994696240056143,34.367439380273829],[41.994259208837271,34.36801134727898],[41.993306060293051,34.367516741177738],[41.993286414440384,34.367353490262389],[41.993372943212727,34.367240247303073],[41.993604326365563,34.366937428075282]]]},"properties":{"OBJECTID":34,"Name":"تعليمي","اسم_المؤسس":"مدرسة ابتدائية","Shape_Length":381.50146960462848,"Shape_Area":9416.3298932615144,"رقم_القطعة":null}},{"type":"Feature","id":35,"geometry":{"type":"Polygon","coordinates":[[[41.984544820608399,34.373867384241215],[41.984356808636036,34.374150917267293],[41.984263733796887,34.374110453009266],[41.984220156823078,34.374093763629112],[41.984155861504654,34.374075906873848],[41.984089339149776,34.374065014491244],[41.984021684258899,34.374061264384245],[41.984008020073574,34.37406196199705],[41.98391251164324,34.373697826060521],[41.983666731995307,34.373743638733053],[41.983647076415394,34.373668698082206],[41.983636687993339,34.373629092068533],[41.983524864777522,34.373202753148504],[41.984343269647908,34.373050203843704],[41.98448579266968,34.373129109772734],[41.984486537770124,34.373132245552192],[41.984544195656454,34.373374837453191],[41.984461167108996,34.373484993824007],[41.984565817014783,34.373835719719487],[41.984544820608399,34.373867384241215]]]},"properties":{"OBJECTID":35,"Name":"تعليمي","اسم_المؤسس":"اعدادية صناعة عنه","Shape_Length":375.24856955396848,"Shape_Area":7682.4909052761795,"رقم_القطعة":null}},{"type":"Feature","id":36,"geometry":{"type":"Polygon","coordinates":[[[41.985410658772224,34.373313669956318],[41.985327220379467,34.373418067092331],[41.984887837166568,34.373499970708522],[41.984862945110258,34.37339523915832],[41.98473979746452,34.373329060722959],[41.984682834039042,34.373089386904248],[41.984763002991627,34.372975927193721],[41.985258730068473,34.372883520201533],[41.985309418999385,34.372908706970527],[41.98539067171658,34.373233720578611],[41.985410658772224,34.373313669956318]]]},"properties":{"OBJECTID":36,"Name":"تعليمي","اسم_المؤسس":"روضة اطفال عنه","Shape_Length":220.50326738425269,"Shape_Area":3330.7563196586852,"رقم_القطعة":null}},{"type":"Feature","id":37,"geometry":{"type":"Polygon","coordinates":[[[41.986035773477468,34.374084225581896],[41.98630762038978,34.373729284401186],[41.986441526998888,34.37355444624248],[41.986551581219395,34.373613624321223],[41.987454501030328,34.37409913422011],[41.9869685947859,34.374728956755575],[41.98606701585782,34.374249551829642],[41.986035773477468,34.374084225581896]]]},"properties":{"OBJECTID":37,"Name":"تعليمي","اسم_المؤسس":"مدرسة ابن جبير","Shape_Length":380.87963185290687,"Shape_Area":9154.2978454710519,"رقم_القطعة":null}},{"type":"Feature","id":38,"geometry":{"type":"Polygon","coordinates":[[[41.985308759356442,34.370967924334394],[41.985192438740079,34.370480392272427],[41.986265728241555,34.370286666916371],[41.986405784333925,34.370817075055967],[41.985668401130809,34.370953036996966],[41.985653245505254,34.370905995706615],[41.985308759356442,34.370967924334394]]]},"properties":{"OBJECTID":38,"Name":"تعليمي","اسم_المؤسس":"ثانوية عنه","Shape_Length":323.87342972873478,"Shape_Area":5973.1395199172257,"رقم_القطعة":null}},{"type":"Feature","id":39,"geometry":{"type":"Polygon","coordinates":[[[41.985668401130809,34.370953036996966],[41.985755689095917,34.371253066189212],[41.985467392459476,34.371308772946257],[41.984907892315618,34.371416880055158],[41.984893517613763,34.371363594598741],[41.984812835692097,34.371064521189247],[41.985308759356442,34.370967924334394],[41.985653245505254,34.370905995706615],[41.985668401130809,34.370953036996966]]]},"properties":{"OBJECTID":39,"Name":"تعليمي","اسم_المؤسس":"معهد اعداد معلمات","Shape_Length":239.1673031161194,"Shape_Area":3193.0940463182092,"رقم_القطعة":null}},{"type":"Feature","id":40,"geometry":{"type":"Polygon","coordinates":[[[41.979448635348696,34.364578255799806],[41.979171543191384,34.364941735156592],[41.979057624057489,34.36509188978475],[41.978748739753399,34.364926843848316],[41.978860939959894,34.364778908230328],[41.979138034085032,34.364415428600402],[41.979448635348696,34.364578255799806]]]},"properties":{"OBJECTID":40,"Name":"تعليمي","اسم_المؤسس":"متوسطة الروضة المحمدية","Shape_Length":202.17765119517293,"Shape_Area":2275.0160138890146,"رقم_القطعة":null}},{"type":"Feature","id":45,"geometry":{"type":"Polygon","coordinates":[[[41.966199099205348,34.366035624798904],[41.965821631541203,34.366530618883758],[41.965293577961575,34.366253723145697],[41.96567104441759,34.365758728853599],[41.966199099205348,34.366035624798904]]]},"properties":{"OBJECTID":45,"Name":"تعليمي","اسم_المؤسس":" ","Shape_Length":245.00075873938326,"Shape_Area":3737.5248315037647,"رقم_القطعة":"6782"}},{"type":"Feature","id":46,"geometry":{"type":"Polygon","coordinates":[[[41.965821631541203,34.366530618883758],[41.965444159593027,34.367025612899404],[41.965420920664414,34.367056087462359],[41.964892867044981,34.366779190963932],[41.964916107189815,34.366748716467932],[41.965293577961575,34.366253723145697],[41.965821631541203,34.366530618883758]]]},"properties":{"OBJECTID":46,"Name":"تعليمي","اسم_المؤسس":" ","Shape_Length":253.003799953022,"Shape_Area":3967.6072233797531,"رقم_القطعة":"6779"}},{"type":"Feature","id":47,"geometry":{"type":"Polygon","coordinates":[[[41.965293577961575,34.366253723145697],[41.964916107189815,34.366748716467932],[41.964892867044981,34.366779190963932],[41.964319316414958,34.366478184630061],[41.964342140297134,34.366447492275391],[41.964719610043424,34.365952498877711],[41.965293577961575,34.366253723145697]]]},"properties":{"OBJECTID":47,"Name":"تعليمي","اسم_المؤسس":" ","Shape_Length":262.98805218242262,"Shape_Area":4313.5388706811918,"رقم_القطعة":"6780"}},{"type":"Feature","id":50,"geometry":{"type":"Polygon","coordinates":[[[41.989276944054232,34.366577678920677],[41.989386149338834,34.366640069064424],[41.989414058885281,34.366748720870099],[41.989466169900332,34.366951578388687],[41.989331563852673,34.367131244646806],[41.989133019751414,34.367169425791054],[41.988890706670745,34.367216023609124],[41.98877089815241,34.367111643140319],[41.988754251687752,34.367028461400295],[41.988690944834865,34.366712101924151],[41.98872548721328,34.366670727639807],[41.988770524655571,34.366616782061882],[41.989206450375434,34.366543226570819],[41.989276944054232,34.366577678920677]]]},"properties":{"OBJECTID":50,"Name":"تعليمي","اسم_المؤسس":"ثانوية عنه للبنات","Shape_Length":234.96600173978524,"Shape_Area":4030.0391528562268,"رقم_القطعة":null}},{"type":"Feature","id":51,"geometry":{"type":"Polygon","coordinates":[[[41.977172579192377,34.358445731444348],[41.977027954678796,34.359078233862391],[41.97619367280533,34.35864082021164],[41.976186140555512,34.358636061156623],[41.976179719189162,34.358630289844704],[41.97617460404031,34.358623681801724],[41.976170950003947,34.358616436973747],[41.976168868150673,34.358608776203965],[41.976168422150131,34.358600932305698],[41.976169625876082,34.358593143810886],[41.976172442001761,34.358585645990388],[41.976176785162359,34.358578668072724],[41.976214931705655,34.358528629135733],[41.976218281470466,34.358459169093884],[41.976219289586794,34.358452149741161],[41.976221609673878,34.35844534724739],[41.97622518355373,34.358438929786182],[41.976229924398687,34.358433054510208],[41.976235714527675,34.358427866703366],[41.976242412784934,34.358423493291468],[41.97624985243187,34.35842004469643],[41.976257852646675,34.358417601936878],[41.976266213476784,34.358416227567702],[41.976274731778062,34.358415955376934],[41.97715405054997,34.358445117021247],[41.977172579192377,34.358445731444348]]]},"properties":{"OBJECTID":51,"Name":"تعليمي","اسم_المؤسس":" حضانه","Shape_Length":274.98159007412517,"Shape_Area":4133.8262692487451,"رقم_القطعة":"9389"}},{"type":"Feature","id":52,"geometry":{"type":"Polygon","coordinates":[[[41.977885984270429,34.367288907320166],[41.977257613520671,34.367413634398261],[41.977121849735489,34.366912796663605],[41.97775044186988,34.366788064985528],[41.977885984270429,34.367288907320166]]]},"properties":{"OBJECTID":52,"Name":"تعليمي","اسم_المؤسس":" روضة","Shape_Length":232.8931781693878,"Shape_Area":3388.0539739340757,"رقم_القطعة":"5707"}},{"type":"Feature","id":53,"geometry":{"type":"Polygon","coordinates":[[[41.978186954445334,34.368422083399238],[41.977523157115982,34.368539732643036],[41.977235681630262,34.367447561356272],[41.977893472356449,34.367317195476424],[41.978186954445334,34.368422083399238]]]},"properties":{"OBJECTID":53,"Name":"تعليمي","اسم_المؤسس":" ","Shape_Length":374.35296854803943,"Shape_Area":7782.6396960933953,"رقم_القطعة":null}},{"type":"Feature","id":54,"geometry":{"type":"Polygon","coordinates":[[[41.977121849735489,34.366912796663605],[41.977257613520671,34.367413634398261],[41.976644283704282,34.36752867357729],[41.976498408874917,34.367033864507697],[41.977121849735489,34.366912796663605]]]},"properties":{"OBJECTID":54,"Name":"تعليمي","اسم_المؤسس":" حضانة","Shape_Length":230.3109474120663,"Shape_Area":3314.3211343870553,"رقم_القطعة":null}},{"type":"Feature","id":55,"geometry":{"type":"Polygon","coordinates":[[[41.974196271566313,34.369668774470853],[41.974375949922667,34.370330018695689],[41.9737438975272,34.370443015998646],[41.973558791454749,34.369788372006575],[41.974196271566313,34.369668774470853]]]},"properties":{"OBJECTID":55,"Name":"تعليمي","اسم_المؤسس":" مدرسة","Shape_Length":269.51159079740671,"Shape_Area":4482.5104549976641,"رقم_القطعة":"5693"}},{"type":"Feature","id":56,"geometry":{"type":"Polygon","coordinates":[[[41.9737438975272,34.370443015998646],[41.9737454642868,34.37044855662505],[41.973104511920383,34.370563140814561],[41.97292779470088,34.369903292656247],[41.973558795659031,34.369788490888354],[41.9737438975272,34.370443015998646]]]},"properties":{"OBJECTID":56,"Name":"تعليمي","اسم_المؤسس":"مدرسة","Shape_Length":270.05930905506125,"Shape_Area":4499.9026040779991,"رقم_القطعة":null}},{"type":"Feature","id":57,"geometry":{"type":"Polygon","coordinates":[[[41.971928007634574,34.370265018883536],[41.971900158572808,34.370301541450239],[41.971899644545765,34.37030126910188],[41.971214610545495,34.369940542035366],[41.971212053307497,34.36993723745951],[41.971210226214588,34.369933614978805],[41.971209186433605,34.369929784977245],[41.971208963051012,34.369925863028044],[41.971209565698338,34.369921967881297],[41.971210973595404,34.369918219026005],[41.971213145102723,34.369914730148189],[41.971499565359387,34.3695391011385],[41.971530287891987,34.369554666237022],[41.972207902760012,34.369897954166547],[41.971928007634574,34.370265018883536]]]},"properties":{"OBJECTID":57,"Name":"تعليمي","اسم_المؤسس":" روضة","Shape_Length":256.50064125100323,"Shape_Area":3996.2714420853144,"رقم_القطعة":"5696"}},{"type":"Feature","id":58,"geometry":{"type":"Polygon","coordinates":[[[41.972058633093482,34.369710620784552],[41.972021187363374,34.3697591289922],[41.971557145822928,34.369512831581865],[41.971530414724832,34.369498643280146],[41.971584787003088,34.369427335965248],[41.971617394090103,34.369384571972191],[41.971810285044171,34.369131598996816],[41.971834481025383,34.36909986690624],[41.971837034526409,34.369097037569908],[41.971840091173689,34.369094572789052],[41.971843573844836,34.369092535732705],[41.971847399477632,34.369090975291904],[41.971851471626266,34.369089930767643],[41.971855690045416,34.369089426229515],[41.971859953053574,34.369089475866708],[41.971864152965615,34.369090077789245],[41.971868188167491,34.369091217340021],[41.971871954554601,34.369092870908609],[41.971872119315243,34.369092949832876],[41.971878630773858,34.369096363816844],[41.972344325605583,34.3693405169155],[41.972058633093482,34.369710620784552]]]},"properties":{"OBJECTID":58,"Name":"تعليمي","اسم_المؤسس":" حضانة","Shape_Length":216.50860877679702,"Shape_Area":2957.2097718423538,"رقم_القطعة":"5697"}},{"type":"Feature","id":64,"geometry":{"type":"Polygon","coordinates":[[[41.992035232056914,34.361945111348369],[41.992862341727715,34.360560894822164],[41.994355412293864,34.361196145217605],[41.993570993132337,34.362590898319731],[41.992035232056914,34.361945111348369]]]},"properties":{"OBJECTID":64,"Name":"تعليمي","اسم_المؤسس":"اعدادية صناعه","Shape_Length":655.20887469381455,"Shape_Area":26768.145959219895,"رقم_القطعة":null}},{"type":"Feature","id":66,"geometry":{"type":"Polygon","coordinates":[[[41.971818455642605,34.350373430564282],[41.969364315920004,34.35453202063978],[41.969237030236407,34.354789236102143],[41.964183319124395,34.354902235883038],[41.963838122550243,34.354910612353152],[41.96349282913912,34.354912429023805],[41.963147563536189,34.354907685239219],[41.962802450376586,34.354896382711807],[41.962457614240407,34.354878525521606],[41.962113179607748,34.354854120114759],[41.961769270813775,34.354823175301213],[41.961426012003834,34.354785702251533],[41.961083527088626,34.354741714492853],[41.96105451147654,34.354734768098261],[41.961028201589023,34.35472247108563],[41.96100600929045,34.35470548334844],[41.960989125481412,34.354684716497843],[41.960978456191597,34.354661284942537],[41.960974573960094,34.354636446086097],[41.960977687112297,34.354611532850761],[41.960987628581861,34.354587882149026],[41.965044431148172,34.347649296648925],[41.971818455642605,34.350373430564282]]]},"properties":{"OBJECTID":66,"Name":"تعليمي","اسم_المؤسس":"معهد تقني","Shape_Length":2867.5945470909091,"Shape_Area":498536.16462679807,"رقم_القطعة":null}},{"type":"Feature","id":68,"geometry":{"type":"Polygon","coordinates":[[[41.975141725173714,34.374671443880366],[41.975451140667062,34.374270213764483],[41.975818538227863,34.374479535619308],[41.975517119056903,34.374870398026822],[41.975141725173714,34.374671443880366]]]},"properties":{"OBJECTID":68,"Name":"تعليمي","اسم_المؤسس":"روضه","Shape_Length":186.36968015845929,"Shape_Area":2139.1156584506548,"رقم_القطعة":null}},{"type":"Feature","id":69,"geometry":{"type":"Polygon","coordinates":[[[41.975376146228122,34.374153785749279],[41.975030555847994,34.374615447247436],[41.974108111693589,34.374126552391779],[41.974450563848677,34.373677431495672],[41.975376146228122,34.374153785749279]]]},"properties":{"OBJECTID":69,"Name":"تعليمي","اسم_المؤسس":null,"Shape_Length":320.27979527524968,"Shape_Area":5993.5991750723333,"رقم_القطعة":"14898"}},{"type":"Feature","id":72,"geometry":{"type":"Polygon","coordinates":[[[41.979070641939671,34.375794805877185],[41.978547856264875,34.376479615726105],[41.977827642182291,34.376091425624089],[41.97834395746748,34.375409306543752],[41.979070641939671,34.375794805877185]]]},"properties":{"OBJECTID":72,"Name":"تعليمي","اسم_المؤسس":"مدرسة","Shape_Length":337.7711935401141,"Shape_Area":7102.8567689000365,"رقم_القطعة":"12252"}},{"type":"Feature","id":77,"geometry":{"type":"Polygon","coordinates":[[[41.975442638166157,34.375151725143155],[41.975124662607989,34.375565757823232],[41.974437210640332,34.375202790209919],[41.97475593880629,34.374787781857144],[41.975442638166157,34.375151725143155]]]},"properties":{"OBJECTID":77,"Name":"تعليمي","اسم_المؤسس":null,"Shape_Length":259.08463214993185,"Shape_Area":4090.6704502883613,"رقم_القطعة":"10018"}},{"type":"Feature","id":78,"geometry":{"type":"Polygon","coordinates":[[[41.974481296133128,34.374642222157838],[41.974162467239687,34.375057358467352],[41.973475023348293,34.374694384980053],[41.97379460377676,34.374278273034214],[41.974481296133128,34.374642222157838]]]},"properties":{"OBJECTID":78,"Name":"تعليمي","اسم_المؤسس":null,"Shape_Length":259.37577645005939,"Shape_Area":4101.5875197312798,"رقم_القطعة":"10019"}},{"type":"Feature","id":96,"geometry":{"type":"Polygon","coordinates":[[[41.961521793293869,34.359603364282876],[41.961144323019454,34.360098344299189],[41.960616327554668,34.359821426044455],[41.960993799909637,34.359326446642342],[41.961521793293869,34.359603364282876]]]},"properties":{"OBJECTID":96,"Name":"تعليمي","اسم_المؤسس":null,"Shape_Length":245.00009536888655,"Shape_Area":3737.5029541424906,"رقم_القطعة":null}},{"type":"Feature","id":97,"geometry":{"type":"Polygon","coordinates":[[[41.957805471784823,34.363507081461577],[41.958182970746762,34.363012106714173],[41.958710984298165,34.363289038232445],[41.958333485212975,34.363784012746315],[41.957805471784823,34.363507081461577]]]},"properties":{"OBJECTID":97,"Name":"تعليمي","اسم_المؤسس":null,"Shape_Length":245.00083982149991,"Shape_Area":3737.527270769689,"رقم_القطعة":null}},{"type":"Feature","id":98,"geometry":{"type":"Polygon","coordinates":[[[41.961521793293869,34.359603364282876],[41.962049790022817,34.359880278549781],[41.961672321860782,34.360375260080914],[41.961144323019454,34.360098344299189],[41.961521793293869,34.359603364282876]]]},"properties":{"OBJECTID":98,"Name":"تعليمي","اسم_المؤسس":null,"Shape_Length":244.99995655382503,"Shape_Area":3737.4987536090566,"رقم_القطعة":null}},{"type":"Feature","id":99,"geometry":{"type":"Polygon","coordinates":[[[41.961672321860782,34.360375260080914],[41.961294849415616,34.360870241542685],[41.960766848461908,34.360593324246068],[41.961144323019454,34.360098344299189],[41.961672321860782,34.360375260080914]]]},"properties":{"OBJECTID":99,"Name":"تعليمي","اسم_المؤسس":null,"Shape_Length":245.00012239852691,"Shape_Area":3737.5035216499004,"رقم_القطعة":null}},{"type":"Feature","id":100,"geometry":{"type":"Polygon","coordinates":[[[41.961144323019454,34.360098344299189],[41.960766848461908,34.360593324246068],[41.960766389971639,34.36059308295372],[41.960238851939188,34.360316403549511],[41.960616327554668,34.359821426044455],[41.961144323019454,34.360098344299189]]]},"properties":{"OBJECTID":100,"Name":"تعليمي","اسم_المؤسس":null,"Shape_Length":244.99995661475771,"Shape_Area":3737.4964200115155,"رقم_القطعة":null}},{"type":"Feature","id":101,"geometry":{"type":"Polygon","coordinates":[[[41.959239002281286,34.363565966350691],[41.958861501986839,34.364060940657296],[41.958333485212975,34.363784012746315],[41.958710984298165,34.363289038232445],[41.959239002281286,34.363565966350691]]]},"properties":{"OBJECTID":101,"Name":"تعليمي","اسم_المؤسس":null,"Shape_Length":245.00075873704935,"Shape_Area":3737.5248314356563,"رقم_القطعة":null}},{"type":"Feature","id":102,"geometry":{"type":"Polygon","coordinates":[[[41.958861501986839,34.364060940657296],[41.95848399740818,34.364555914894034],[41.958460756470636,34.364586388239275],[41.957932739658261,34.364309459567842],[41.957955981811914,34.364278986289619],[41.958333485212975,34.363784012746315],[41.958861501986839,34.364060940657296]]]},"properties":{"OBJECTID":102,"Name":"تعليمي","اسم_المؤسس":null,"Shape_Length":253.00379995043636,"Shape_Area":3967.6072233640753,"رقم_القطعة":null}},{"type":"Feature","id":103,"geometry":{"type":"Polygon","coordinates":[[[41.958333485212975,34.363784012746315],[41.957955981811914,34.364278986289619],[41.957932739658261,34.364309459567842],[41.95740514259866,34.36403274640859],[41.957427968507062,34.364002055238373],[41.957805470698766,34.363507081487839],[41.958333485212975,34.363784012746315]]]},"properties":{"OBJECTID":103,"Name":"تعليمي","اسم_المؤسس":null,"Shape_Length":252.95880760864202,"Shape_Area":3967.5219657447369,"رقم_القطعة":null}},{"type":"Feature","id":104,"geometry":{"type":"Polygon","coordinates":[[[41.962405874720957,34.362279124869886],[41.961807719154564,34.363063482024252],[41.961806801086261,34.363063000376187],[41.960430271176833,34.362341080477201],[41.961028435444547,34.361556728684882],[41.962405874720957,34.362279124869886]]]},"properties":{"OBJECTID":104,"Name":"تعليمي","اسم_المؤسس":null,"Shape_Length":506.00452631346531,"Shape_Area":15450.231935136861,"رقم_القطعة":null}},{"type":"Feature","id":105,"geometry":{"type":"Polygon","coordinates":[[[41.955599359833911,34.368555415232478],[41.955221817074978,34.36905038111567],[41.95469378072017,34.368773439521661],[41.955071325591305,34.368278475154156],[41.955599359833911,34.368555415232478]]]},"properties":{"OBJECTID":105,"Name":"تعليمي","اسم_المؤسس":null,"Shape_Length":245.00012239568957,"Shape_Area":3737.5035215615267,"رقم_القطعة":null}},{"type":"Feature","id":106,"geometry":{"type":"Polygon","coordinates":[[[41.955071325591305,34.368278475154156],[41.95469378072017,34.368773439521661],[41.954693322199205,34.368773198208231],[41.95416574879831,34.368496494527591],[41.95454329472706,34.368001532602634],[41.955071325591305,34.368278475154156]]]},"properties":{"OBJECTID":106,"Name":"تعليمي","اسم_المؤسس":null,"Shape_Length":244.99995661579561,"Shape_Area":3737.4964201105013,"رقم_القطعة":null}},{"type":"Feature","id":111,"geometry":{"type":"Polygon","coordinates":[[[41.970648693229514,34.37525033828436],[41.970348825328799,34.375626151735425],[41.9696655519516,34.375265988297294],[41.96995578211115,34.374885094121659],[41.970648693229514,34.37525033828436]]]},"properties":{"OBJECTID":111,"Name":"تعليمي","اسم_المؤسس":null,"Shape_Length":250.0844659096729,"Shape_Area":3752.0042851090375,"رقم_القطعة":null}},{"type":"Feature","id":112,"geometry":{"type":"Polygon","coordinates":[[[41.968478365082483,34.376824992855248],[41.970153645526949,34.377709210632496],[41.967677884983495,34.377876140244823],[41.968478365082483,34.376824992855248]]]},"properties":{"OBJECTID":112,"Name":"تعليمي","اسم_المؤسس":null,"Shape_Length":549.29604756944434,"Shape_Area":12607.03008516913,"رقم_القطعة":null}},{"type":"Feature","id":113,"geometry":{"type":"Polygon","coordinates":[[[41.97816538790174,34.379087072821548],[41.977841347256557,34.379491962305131],[41.977646178699473,34.379563612168454],[41.977448951276514,34.379629383075581],[41.977249842031675,34.379689215986325],[41.977049029698172,34.379743057190829],[41.976846694538033,34.379790858357786],[41.976643018180276,34.37983257657779],[41.976419453028235,34.379651246970859],[41.977249555121858,34.37859462565342],[41.97816538790174,34.379087072821548]]]},"properties":{"OBJECTID":113,"Name":"تعليمي","اسم_المؤسس":null,"Shape_Length":439.89651566450891,"Shape_Area":11441.482633843454,"رقم_القطعة":null}},{"type":"Feature","id":114,"geometry":{"type":"Polygon","coordinates":[[[42.005593090042147,34.358285189015596],[42.004610603816189,34.359126249261301],[42.003566500261392,34.358733922604273],[42.003695383503732,34.358479457208297],[42.005593090042147,34.358285189015596]]]},"properties":{"OBJECTID":114,"Name":"تعليمي","اسم_المؤسس":null,"Shape_Length":442.11017085220692,"Shape_Area":8793.1950274952014,"رقم_القطعة":null}},{"type":"Feature","id":115,"geometry":{"type":"Polygon","coordinates":[[[42.002386489911409,34.361641204989077],[42.002389279251986,34.361637101005279],[42.002392888471185,34.361633462740798],[42.00239720401084,34.361630397544182],[42.002402095572791,34.361628000555619],[42.002407412507303,34.361626344880129],[42.0024129989527,34.361625479413426],[42.002418679845967,34.361625432790632],[42.002424286729457,34.361626205541853],[42.002429645837026,34.361627771285939],[42.002696735906021,34.361728365298674],[42.002815445302659,34.36177307268737],[42.00282039204955,34.361775387675188],[42.002824780400168,34.361778380694865],[42.002828477712612,34.361781959456323],[42.002831368142111,34.361786015032145],[42.002833364747723,34.361790426067181],[42.002834405116218,34.361795057984615],[42.002834463533112,34.361799768996882],[42.002833533864056,34.361804417736955],[42.002831643576258,34.36180886021004],[42.002772016149031,34.361917741534675],[42.002462022290068,34.362483790889776],[42.00245923177792,34.362487893101509],[42.002455620420157,34.362491533223832],[42.002451306948679,34.362494596569803],[42.002446415339712,34.362496993562637],[42.002441095094305,34.362498649322461],[42.002435510731793,34.36249951383946],[42.002429828757819,34.362499562293984],[42.00242422401957,34.362498790393445],[42.002418865909142,34.362497223724986],[42.002300158867328,34.362452515017701],[42.002033063580555,34.362351920324386],[42.002028113559739,34.362349605385489],[42.002023725236079,34.362346613238103],[42.002020030133508,34.362343035299368],[42.002017139688341,34.362338978803031],[42.00201514314147,34.36233456865402],[42.002014100572346,34.36232993498006],[42.002014042230918,34.362325224865955],[42.002014973035351,34.362320576103109],[42.002016864462753,34.362316133613461],[42.002093239642285,34.362176673917304],[42.002386489911409,34.361641204989077]]]},"properties":{"OBJECTID":115,"Name":"تعليمي","اسم_المؤسس":null,"Shape_Length":261.37139816567571,"Shape_Area":3964.4093764799541,"رقم_القطعة":null}},{"type":"Feature","id":116,"geometry":{"type":"Polygon","coordinates":[[[42.007971653139826,34.361086583423678],[42.007967365864211,34.361089672453474],[42.007962493936212,34.361092096218734],[42.00795718694561,34.361093782535008],[42.007951611480593,34.361094678630167],[42.007945931869877,34.361094759730669],[42.007940318548457,34.361094019841886],[42.007934948444159,34.361092482555193],[42.007929979774474,34.361090195358202],[42.007925565046129,34.361087228413616],[42.007714668693048,34.360918141481811],[42.00762093643641,34.360842992423152],[42.007617213588105,34.360839433368213],[42.007614290908222,34.360835393126209],[42.007612256429113,34.360830993021999],[42.007611174774574,34.360826368476872],[42.007611079139373,34.360821657487755],[42.00761197250408,34.360817004202929],[42.007613824087258,34.360812550896789],[42.007616581001479,34.360808429570703],[42.007620159887537,34.360804771172631],[42.007720386598258,34.360718797536272],[42.00824144764875,34.360271837231899],[42.00824573707829,34.360268749042021],[42.008250612209245,34.360266325187993],[42.008255915916294,34.360264639842597],[42.008261491290398,34.360263742835919],[42.008267174165923,34.360263663444762],[42.008272784207321,34.360264404302121],[42.008278156370089,34.360265939721984],[42.008283122793571,34.360268226059979],[42.008287536370119,34.360271192119718],[42.008381266399169,34.360346342529859],[42.00859216468627,34.360515429176779],[42.008595889697922,34.360518987246721],[42.008598813497002,34.360523027436791],[42.008600845749235,34.360527424874093],[42.008601928602864,34.360532051182474],[42.008602024259766,34.360536761267511],[42.008601129930682,34.360541416384585],[42.008599279491833,34.360545869676073],[42.008596522602922,34.360549990120901],[42.008592942685596,34.360553648571624],[42.008464567296301,34.360663768457528],[42.007971653139826,34.361086583423678]]]},"properties":{"OBJECTID":116,"Name":"تعليمي","اسم_المؤسس":null,"Shape_Length":261.3713732091274,"Shape_Area":3964.4113985829908,"رقم_القطعة":null}},{"type":"Feature","id":117,"geometry":{"type":"Polygon","coordinates":[[[42.005077602460247,34.362612586821989],[42.005080395047834,34.362608485404259],[42.005084006354949,34.362604847011347],[42.005088320782512,34.362601782649946],[42.005093210141858,34.362599385608391],[42.005098532536593,34.362597730582742],[42.005104118051378,34.36259686862023],[42.005109802289411,34.36259682268949],[42.005115403855854,34.362597596346419],[42.005120763100059,34.362599162866935],[42.005387827639723,34.362699812718503],[42.005506523269595,34.362744544783574],[42.005511470205903,34.362746861456408],[42.005515856526351,34.362749854424678],[42.005519554057464,34.362753434897122],[42.00552244036934,34.362757492308063],[42.005524436053847,34.362761903316546],[42.005525477671071,34.362766535175297],[42.005525534039407,34.362771245330435],[42.005524601223975,34.362775893262551],[42.005522712214088,34.36278033754482],[42.005446292872691,34.362919781390644],[42.005136121420463,34.363485760313822],[42.005133327852526,34.36348986536278],[42.005129718652405,34.363493502804616],[42.005125401882417,34.363496563620423],[42.00512051247383,34.363498960665659],[42.005115188937857,34.363500615721726],[42.005109606686261,34.363501479408924],[42.005103922387065,34.36350152534289],[42.005098318652109,34.363500753543256],[42.00509296362916,34.363499185117035],[42.004974263865982,34.36345445368012],[42.004707198306264,34.363353801207587],[42.004702250266597,34.363351484529787],[42.004697863972027,34.363348492433296],[42.004694167564075,34.363344912809723],[42.004691277978139,34.363340854557961],[42.004689283374091,34.36333644260737],[42.004688242878963,34.36333181071312],[42.004688186554759,34.363327100555523],[42.004689118399071,34.363322454455258],[42.004691011775911,34.363318009175941],[42.004767429460564,34.363178565805349],[42.005077602460247,34.362612586821989]]]},"properties":{"OBJECTID":117,"Name":"تعليمي","اسم_المؤسس":null,"Shape_Length":268.82614197020064,"Shape_Area":4132.1605805722647,"رقم_القطعة":null}},{"type":"Feature","id":118,"geometry":{"type":"Polygon","coordinates":[[[42.005694440482969,34.36436103053493],[42.005700045461886,34.364361804978898],[42.005705403744052,34.364363371493567],[42.005824101937414,34.36440810310696],[42.005972472516113,34.364464020663902],[42.006091172031937,34.364508751074915],[42.006096119090145,34.364511067717181],[42.00610050769879,34.364514060604378],[42.006104204250839,34.364517641079523],[42.006107091678665,34.364521696643095],[42.006109087377752,34.364526105835914],[42.006110128066695,34.364530740414153],[42.006110183422713,34.364535451493353],[42.006109250627837,34.364540099428105],[42.006107362703091,34.36454454369207],[42.006030941797,34.364683985227202],[42.005873608795909,34.364971075699096],[42.005851956170133,34.365010584687887],[42.005797188339486,34.365110519795586],[42.00572076879385,34.365249965629367],[42.005717977311129,34.3652540688377],[42.005714365895628,34.365257706351947],[42.005710049191542,34.365260770793668],[42.005705156347936,34.365263165244542],[42.005699837060455,34.365264820224162],[42.005694250356932,34.365265684050499],[42.005688568112923,34.365265729964513],[42.005682964320108,34.365264959999557],[42.005677608022822,34.365263389831348],[42.005558908588931,34.365218656339366],[42.005410535854189,34.365162740169687],[42.005291837807171,34.365118007276529],[42.005286887505683,34.365115691583263],[42.005282500008946,34.365112699541122],[42.005278805666144,34.365109119888174],[42.005275918254441,34.365105064304323],[42.005273922453227,34.365100651494309],[42.005272879692697,34.365096018761811],[42.005272823262601,34.365091306806256],[42.005273754000314,34.365086660730057],[42.005275648560733,34.365082218117408],[42.005352069885639,34.364942774302371],[42.005406834908875,34.364842839449793],[42.005428487680632,34.364803329629623],[42.005585825266692,34.364516240481116],[42.005662244532999,34.364376796541848],[42.005665035896108,34.364372690633907],[42.005668644020673,34.364369053202623],[42.005672962919476,34.364365990512113],[42.005677854659972,34.364363596992213],[42.005683177053768,34.364361939234449],[42.005688759418334,34.364361077319636],[42.005694440482969,34.36436103053493]]]},"properties":{"OBJECTID":118,"Name":"تعليمي","اسم_المؤسس":null,"Shape_Length":268.82555707897205,"Shape_Area":4132.1145930368803,"رقم_القطعة":null}},{"type":"Feature","id":119,"geometry":{"type":"Polygon","coordinates":[[[41.990951323153602,34.371747767377656],[41.990723777063295,34.37204113357857],[41.990098030345763,34.371705843741815],[41.990320726191285,34.371409878680858],[41.990951323153602,34.371747767377656]]]},"properties":{"OBJECTID":119,"Name":"تعليمي","اسم_المؤسس":null,"Shape_Length":215.09107995845582,"Shape_Area":2664.611510658423,"رقم_القطعة":null}},{"type":"Feature","id":120,"geometry":{"type":"Polygon","coordinates":[[[42.000143558890535,34.369348376577193],[41.998908375731205,34.369640812671513],[41.999431123889707,34.368967857868483],[42.000143558890535,34.369348376577193]]]},"properties":{"OBJECTID":120,"Name":"تعليمي","اسم_المؤسس":null,"Shape_Length":285.05521997813855,"Shape_Area":3464.5439338596652,"رقم_القطعة":null}},{"type":"Feature","id":121,"geometry":{"type":"Polygon","coordinates":[[[41.951468659786066,34.365967867858117],[41.952283855692585,34.365414505136783],[41.952679630277039,34.365621947184501],[41.952145533349778,34.366322648722289],[41.951468659786066,34.365967867858117]]]},"properties":{"OBJECTID":121,"Name":"تعليمي","اسم_المؤسس":null,"Shape_Length":305.74379846952843,"Shape_Area":5372.1910323449465,"رقم_القطعة":null}},{"type":"Feature","id":123,"geometry":{"type":"Polygon","coordinates":[[[41.973452314911817,34.351339045700875],[41.973032068665937,34.351255669808857],[41.97301511492163,34.351249634251737],[41.973001575002009,34.351239240193891],[41.972993010999424,34.351225686792461],[41.972990410935708,34.351210537695891],[41.972994074775492,34.351195540646337],[41.973003579820848,34.351182425843454],[41.973017829479069,34.351172706332605],[41.973035179776595,34.351167503446206],[41.973425148537459,34.351109892463292],[41.973433927891897,34.351108766756333],[41.973442773548989,34.351109080812151],[41.973451450964525,34.351110826303483],[41.973459730055254,34.351113956948325],[41.973467391299579,34.351118389737053],[41.9734742315582,34.351124007133464],[41.973480069460422,34.351130660191259],[41.973484750213196,34.351138172503418],[41.973488149705517,34.351146344879595],[41.973518427953529,34.351287331718773],[41.973519130974928,34.351298448382458],[41.97351652589893,34.35130936863608],[41.97351077178692,34.351319425702826],[41.97350221997673,34.351328005510723],[41.973491392630621,34.351334584187164],[41.97347895085278,34.351338760046104],[41.973465654323078,34.351340278114499],[41.973452314911817,34.351339045700875]]]},"properties":{"OBJECTID":123,"Name":"تعليمي","اسم_المؤسس":null,"Shape_Length":123.5471555144765,"Shape_Area":828.95654400623835,"رقم_القطعة":null}},{"type":"Feature","id":124,"geometry":{"type":"Polygon","coordinates":[[[41.973499442750565,34.351718967913087],[41.974271899234935,34.351872217675613],[41.97428463347012,34.351876198027824],[41.974295775171676,34.351882678638077],[41.974304625006233,34.351891252736813],[41.974310627493907,34.351901382151986],[41.974313405874334,34.351912431088607],[41.974312785755025,34.351923706035606],[41.974308806057849,34.351934499295638],[41.974301716576257,34.35194413340524],[41.973954298711945,34.352305170867446],[41.973946240559258,34.352311609708103],[41.973937228822415,34.352316627784703],[41.973927511502012,34.352320087001097],[41.973917356016159,34.352321892160575],[41.973907041841116,34.352321993585619],[41.973896852820268,34.352320388485033],[41.973887069352763,34.352317121030772],[41.973877960677044,34.352312281142311],[41.973297950528426,34.351928360295602],[41.973499442750565,34.351718967913087]]]},"properties":{"OBJECTID":124,"Name":"تعليمي","اسم_المؤسس":null,"Shape_Length":240.32245146013952,"Shape_Area":3421.1903851929233,"رقم_القطعة":null}},{"type":"Feature","id":125,"geometry":{"type":"Polygon","coordinates":[[[41.976684899667482,34.352516335645014],[41.976695323886602,34.352521508932789],[41.976704101202451,34.352528474216967],[41.976710792620267,34.352536883131279],[41.976715063470422,34.35254631510675],[41.97671670014693,34.352556298406164],[41.976715620790998,34.352566333717917],[41.976711879385327,34.352575919128803],[41.976705663054432,34.35258457522712],[41.976659327758306,34.352632436528047],[41.97660991515032,34.352678131506806],[41.976557572208307,34.352721524238703],[41.97650245462745,34.352762485647077],[41.976444726357116,34.352800893887306],[41.976384559113228,34.352836634709227],[41.976322131867455,34.352869601797089],[41.976257630314826,34.352899697085768],[41.976191246321335,34.352926831052557],[41.976123177353188,34.352950922983489],[41.976053625889364,34.352971901213401],[41.975982798819295,34.35298970333924],[41.975910906827337,34.35300427640562],[41.975838163766056,34.353015577062429],[41.975764786019994,34.353023571693761],[41.975690991861946,34.353028236517964],[41.975678575960956,34.353027555974457],[41.975666672561324,34.353024549929721],[41.975655906305768,34.353019376128898],[41.975646842164039,34.353012306072259],[41.975639955785404,34.353003710767965],[41.975635608538596,34.352994041262932],[41.975634028548647,34.352983804973611],[41.975635298726012,34.35297353905888],[41.975661941246955,34.35287786672243],[41.975670528671515,34.352859143113108],[41.975682091397921,34.352842095510212],[41.975696311650402,34.352827192429132],[41.975712798617003,34.352814843447845],[41.97573109919017,34.352805387950596],[41.975750710419419,34.352799085800662],[41.975771093333805,34.352796110198589],[41.975865210403065,34.3527819644437],[41.975957460332651,34.352761001266686],[41.976047126666373,34.352733383478949],[41.976090772430283,34.352717144159477],[41.97613351301554,34.352699325574591],[41.976175265396634,34.352679962338094],[41.976215948467861,34.352659092064336],[41.976255483200895,34.352636755295123],[41.976293792798323,34.352612995421005],[41.976330802842817,34.352587858596912],[41.976366441441684,34.352561393652522],[41.97640063936656,34.352533651997426],[41.976433330187845,34.352504687521218],[41.976451856743786,34.352491083938219],[41.976472247988653,34.352480477907946],[41.976494022892659,34.352473119626822],[41.976516667785461,34.35246918267682],[41.976539648473683,34.352468759930645],[41.97656242284252,34.352471861360897],[41.976584453644243,34.352478413804775],[41.976684899667482,34.352516335645014]]]},"properties":{"OBJECTID":125,"Name":"تعليمي","اسم_المؤسس":null,"Shape_Length":248.27054796664885,"Shape_Area":2567.5432221531269,"رقم_القطعة":null}},{"type":"Feature","id":126,"geometry":{"type":"Polygon","coordinates":[[[41.981746989110931,34.350416038612309],[41.981320389206168,34.350938149290805],[41.981268233254852,34.350908835317327],[41.980690880551649,34.350584328787683],[41.981117482872811,34.35006221926951],[41.981746989110931,34.350416038612309]]]},"properties":{"OBJECTID":126,"Name":"تعليمي","اسم_المؤسس":null,"Shape_Length":280.00021725170689,"Shape_Area":4900.0090896994425,"رقم_القطعة":null}},{"type":"Feature","id":127,"geometry":{"type":"Polygon","coordinates":[[[41.981117482872811,34.35006221926951],[41.981422188791527,34.34968929102709],[41.981999537645379,34.350013794316475],[41.982051693280859,34.350043108897857],[41.981746989110931,34.350416038612309],[41.981117482872811,34.35006221926951]]]},"properties":{"OBJECTID":127,"Name":"تعليمي","اسم_المؤسس":null,"Shape_Length":239.99812350052315,"Shape_Area":3499.9344665893145,"رقم_القطعة":null}},{"type":"Feature","id":140,"geometry":{"type":"Polygon","coordinates":[[[41.996639480996166,34.353331462190923],[41.996260242050234,34.353919995373339],[41.995302116344483,34.353495315493085],[41.995681361623141,34.352906784970699],[41.996639480996166,34.353331462190923]]]},"properties":{"OBJECTID":140,"Name":"تعليمي","اسم_المؤسس":null,"Shape_Length":348.12646556099963,"Shape_Area":7406.3240867094992,"رقم_القطعة":null}},{"type":"Feature","id":141,"geometry":{"type":"Polygon","coordinates":[[[41.995681361623141,34.352906784970699],[41.995886182473896,34.352588932223881],[41.996844500780107,34.353013292070436],[41.996639480996166,34.353331462190923],[41.995681361623141,34.352906784970699]]]},"properties":{"OBJECTID":141,"Name":"تعليمي","اسم_المؤسس":null,"Shape_Length":280.03937087629811,"Shape_Area":4001.977018598207,"رقم_القطعة":null}},{"type":"Feature","id":142,"geometry":{"type":"Polygon","coordinates":[[[41.99859521777698,34.350294263896615],[41.998216005066681,34.350882801961113],[41.997257906443075,34.350458135933835],[41.997637125485859,34.349869600528748],[41.99859521777698,34.350294263896615]]]},"properties":{"OBJECTID":142,"Name":"تعليمي","اسم_المؤسس":null,"Shape_Length":348.12646555938352,"Shape_Area":7406.3240866496508,"رقم_القطعة":null}},{"type":"Feature","id":143,"geometry":{"type":"Polygon","coordinates":[[[41.997637125485859,34.349869600528748],[41.997841932167624,34.349551745145057],[41.998800223378012,34.349976091136966],[41.99859521777698,34.350294263896615],[41.997637125485859,34.349869600528748]]]},"properties":{"OBJECTID":143,"Name":"تعليمي","اسم_المؤسس":null,"Shape_Length":280.03937087595307,"Shape_Area":4001.9770186051815,"رقم_القطعة":null}},{"type":"Feature","id":144,"geometry":{"type":"Polygon","coordinates":[[[42.001420714077234,34.345905935922815],[42.001041539263596,34.34649448103751],[42.000083479767774,34.346069835020295],[42.000462660913584,34.345481292564195],[42.001420714077234,34.345905935922815]]]},"properties":{"OBJECTID":144,"Name":"تعليمي","اسم_المؤسس":null,"Shape_Length":348.12646556227071,"Shape_Area":7406.3240867715231,"رقم_القطعة":null}},{"type":"Feature","id":145,"geometry":{"type":"Polygon","coordinates":[[[42.000462660913584,34.345481292564195],[42.000667447128613,34.345163433372612],[42.001625699191436,34.345587759351986],[42.001420714077234,34.345905935922815],[42.000462660913584,34.345481292564195]]]},"properties":{"OBJECTID":145,"Name":"تعليمي","اسم_المؤسس":null,"Shape_Length":280.03937087595307,"Shape_Area":4001.9770186051815,"رقم_القطعة":null}},{"type":"Feature","id":146,"geometry":{"type":"Polygon","coordinates":[[[42.003376116766482,34.342868675290205],[42.002996968174926,34.343457225281853],[42.002038935758883,34.343032593110273],[42.002418090682383,34.342444045776595],[42.003376116766482,34.342868675290205]]]},"properties":{"OBJECTID":146,"Name":"تعليمي","اسم_المؤسس":null,"Shape_Length":348.12646556158069,"Shape_Area":7406.3240867250106,"رقم_القطعة":null}},{"type":"Feature","id":147,"geometry":{"type":"Polygon","coordinates":[[[42.002418090682383,34.342444045776595],[42.002622862735727,34.34212618395091],[42.003581087705101,34.342550496082964],[42.003376116766482,34.342868675290205],[42.002418090682383,34.342444045776595]]]},"properties":{"OBJECTID":147,"Name":"تعليمي","اسم_المؤسس":null,"Shape_Length":280.03937087849528,"Shape_Area":4001.9770187045269,"رقم_القطعة":null}},{"type":"Feature","id":148,"geometry":{"type":"Polygon","coordinates":[[[41.999308105550199,34.347198169403363],[42.000745423586551,34.347834815860729],[41.999977845361698,34.349026964496744],[41.99854051028926,34.348390309911274],[41.999308105550199,34.347198169403363]]]},"properties":{"OBJECTID":148,"Name":"تعليمي","اسم_المؤسس":null,"Shape_Length":600.00008506539257,"Shape_Area":22500.006379901235,"رقم_القطعة":null}},{"type":"Feature","id":149,"geometry":{"type":"Polygon","coordinates":[[[41.999308105550199,34.347198169403363],[41.99854051028926,34.348390309911274],[41.997199016595815,34.347796083042624],[41.997966626710053,34.346603949245527],[41.999308105550199,34.347198169403363]]]},"properties":{"OBJECTID":149,"Name":"تعليمي","اسم_المؤسس":null,"Shape_Length":580.00026953339125,"Shape_Area":21000.019227266923,"رقم_القطعة":null}},{"type":"Feature","id":152,"geometry":{"type":"Polygon","coordinates":[[[41.993003931267857,34.373273395188619],[41.992320798461648,34.373872399935649],[41.992058983425189,34.373670928488195],[41.992619908665326,34.372974423049634],[41.993003931267857,34.373273395188619]]]},"properties":{"OBJECTID":152,"Name":"تعليمي","اسم_المؤسس":null,"Shape_Length":265.80332370530721,"Shape_Area":3726.243617717957,"رقم_القطعة":null}},{"type":"Feature","id":153,"geometry":{"type":"Polygon","coordinates":[[[41.994764193737119,34.363203351536306],[41.994816583441391,34.363217024453569],[41.994922388751462,34.363244638046908],[41.995080582821167,34.363285924370885],[41.995102279348181,34.363291587352677],[41.995313204679633,34.363346636023238],[41.995304206578751,34.363409257710032],[41.99529641475943,34.36346347956075],[41.995278415605554,34.363588732918338],[41.995062641718867,34.363567409406905],[41.995040446945808,34.363565216347673],[41.994878617141126,34.363549223642202],[41.994716787381932,34.363533230719121],[41.994554957668207,34.363517237578407],[41.994580477508357,34.363338285613573],[41.994605621424249,34.363161965888033],[41.994764193737119,34.363203351536306]]]},"properties":{"OBJECTID":153,"Name":"تعليمي","اسم_المؤسس":null,"Shape_Length":202.09736848016723,"Shape_Area":2239.0505907891879,"رقم_القطعة":null}},{"type":"Feature","id":154,"geometry":{"type":"Polygon","coordinates":[[[41.959775076911015,34.352160709695738],[41.959421642801892,34.352760204004873],[41.958445684300031,34.352364415123482],[41.958799125217126,34.35176492330239],[41.959775076911015,34.352160709695738]]]},"properties":{"OBJECTID":154,"Name":"تعليمي","اسم_المؤسس":null,"Shape_Length":348.12637064819745,"Shape_Area":7406.3190150899818,"رقم_القطعة":null}},{"type":"Feature","id":155,"geometry":{"type":"Polygon","coordinates":[[[41.958799125217126,34.35176492330239],[41.958990009658251,34.351441149660872],[41.959966145830762,34.351836612864567],[41.959775076911015,34.352160709695738],[41.958799125217126,34.35176492330239]]]},"properties":{"OBJECTID":155,"Name":"تعليمي","اسم_المؤسس":null,"Shape_Length":280.03946855561492,"Shape_Area":4001.9821781978985,"رقم_القطعة":null}},{"type":"Feature","id":156,"geometry":{"type":"Polygon","coordinates":[[[41.961597649260227,34.349066981713896],[41.961244239920411,34.34966648110759],[41.960268310951939,34.349270705189738],[41.960621727099351,34.348671208283477],[41.961597649260227,34.349066981713896]]]},"properties":{"OBJECTID":156,"Name":"تعليمي","اسم_المؤسس":null,"Shape_Length":348.1265476800574,"Shape_Area":7406.3278666877513,"رقم_القطعة":null}},{"type":"Feature","id":157,"geometry":{"type":"Polygon","coordinates":[[[41.960621727099351,34.348671208283477],[41.960812598212115,34.348347433282768],[41.961788705924484,34.348742883495333],[41.961597649260227,34.349066981713896],[41.960621727099351,34.348671208283477]]]},"properties":{"OBJECTID":157,"Name":"تعليمي","اسم_المؤسس":null,"Shape_Length":280.03942658421568,"Shape_Area":4001.9774223361396,"رقم_القطعة":null}},{"type":"Feature","id":158,"geometry":{"type":"Polygon","coordinates":[[[41.959628922790209,34.370727996519868],[41.958652746030474,34.372014586511149],[41.957335294515538,34.371336318665655],[41.958324967878312,34.370038794700307],[41.959628922790209,34.370727996519868]]]},"properties":{"OBJECTID":158,"Name":"تعليمي","اسم_المؤسس":null,"Shape_Length":624.11186084580538,"Shape_Area":24161.509041062454,"رقم_القطعة":null}},{"type":"Feature","id":159,"geometry":{"type":"Polygon","coordinates":[[[41.963470615005761,34.34531305178011],[41.963089109597711,34.345960692616956],[41.961946138413737,34.345497478716538],[41.962769296269023,34.345028829637037],[41.963470615005761,34.34531305178011]]]},"properties":{"OBJECTID":159,"Name":"تعليمي","اسم_المؤسس":null,"Shape_Length":360.87205972422714,"Shape_Area":7558.4517433537512,"رقم_القطعة":null}},{"type":"Feature","id":160,"geometry":{"type":"Polygon","coordinates":[[[41.963470615005761,34.34531305178011],[41.96434903239814,34.345669038349293],[41.96396753255555,34.346316681627833],[41.963089109597711,34.345960692616956],[41.963470615005761,34.34531305178011]]]},"properties":{"OBJECTID":160,"Name":"تعليمي","اسم_المؤسس":null,"Shape_Length":340.00011748779616,"Shape_Area":7200.0049785909177,"رقم_القطعة":null}},{"type":"Feature","id":161,"geometry":{"type":"Polygon","coordinates":[[[41.988387143477368,34.363802264648108],[41.988322969599999,34.364109616785804],[41.98753265569362,34.364550652125523],[41.987709246964513,34.363704928871279],[41.988387143477368,34.363802264648108]]]},"properties":{"OBJECTID":161,"Name":"تعليمي","اسم_المؤسس":null,"Shape_Length":280.87741420948436,"Shape_Area":4112.0913140212569,"رقم_القطعة":null}},{"type":"Feature","id":163,"geometry":{"type":"Polygon","coordinates":[[[41.970709312608079,34.344009611961006],[41.970543448403056,34.344293374115814],[41.9701035992668,34.344116487793421],[41.970269464729505,34.343832727069909],[41.970709312608079,34.344009611961006]]]},"properties":{"OBJECTID":163,"Name":"تعليمي","اسم_المؤسس":null,"Shape_Length":159.99995370480522,"Shape_Area":1574.9992439456114,"رقم_القطعة":null}},{"type":"Feature","id":164,"geometry":{"type":"Polygon","coordinates":[[[41.970699839979446,34.344356266235593],[41.970410760803183,34.344850822284698],[41.969814517194301,34.344611042588738],[41.9701035992668,34.344116487793421],[41.970543448403056,34.344293374115814],[41.970699839979446,34.344356266235593]]]},"properties":{"OBJECTID":164,"Name":"تعليمي","اسم_المؤسس":null,"Shape_Length":244.00001063867421,"Shape_Area":3720.9991353219284,"رقم_القطعة":null}},{"type":"Feature","id":165,"geometry":{"type":"Polygon","coordinates":[[[41.97033969771541,34.346303898014213],[41.96969741236876,34.346488728016126],[41.969448170369382,34.345892863013994],[41.970090450824515,34.345708034541346],[41.97033969771541,34.346303898014213]]]},"properties":{"OBJECTID":165,"Name":"تعليمي","اسم_المؤسس":null,"Shape_Length":265.16718057397901,"Shape_Area":4380.8514808319123,"رقم_القطعة":null}},{"type":"Feature","id":166,"geometry":{"type":"Polygon","coordinates":[[[41.971231232352331,34.346714926058958],[41.970588947334733,34.346899760770796],[41.97033969771541,34.346303898014213],[41.970981978927384,34.346119064805393],[41.971231232352331,34.346714926058958]]]},"properties":{"OBJECTID":166,"Name":"تعليمي","اسم_المؤسس":null,"Shape_Length":265.16705518169528,"Shape_Area":4380.8472033452226,"رقم_القطعة":null}},{"type":"Feature","id":167,"geometry":{"type":"Polygon","coordinates":[[[41.968953762520989,34.347529227680802],[41.968849497381164,34.347707591245218],[41.968243462767227,34.347463873957985],[41.968480430209581,34.347058503259888],[41.969086462410495,34.347302219502353],[41.968953762520989,34.347529227680802]]]},"properties":{"OBJECTID":167,"Name":"تعليمي","اسم_المؤسس":null,"Shape_Length":223.99994367056328,"Shape_Area":3099.9994677108798,"رقم_القطعة":null}},{"type":"Feature","id":168,"geometry":{"type":"Polygon","coordinates":[[[41.968849497381164,34.347707591245218],[41.968517742237694,34.348275110544243],[41.967911704213705,34.348031390893674],[41.968243462767227,34.347463873957985],[41.968849497381164,34.347707591245218]]]},"properties":{"OBJECTID":168,"Name":"تعليمي","اسم_المؤسس":null,"Shape_Length":263.99985784967572,"Shape_Area":4339.9952928452631,"رقم_القطعة":null}},{"type":"Feature","id":171,"geometry":{"type":"Polygon","coordinates":[[[41.985318697109896,34.382525801527805],[41.984921682186432,34.383043432036807],[41.984735506765979,34.382218781888874],[41.985318697109896,34.382525801527805]]]},"properties":{"OBJECTID":171,"Name":"تعليمي","اسم_المؤسس":null,"Shape_Length":224.76616508764448,"Shape_Area":2163.9335034573696,"رقم_القطعة":"18154"}},{"type":"Feature","id":172,"geometry":{"type":"Polygon","coordinates":[[[41.98217881637391,34.383776768587289],[41.982607882108226,34.383370536279259],[41.983110877062082,34.38373619673829],[41.982684837337075,34.384139012805448],[41.98217881637391,34.383776768587289]]]},"properties":{"OBJECTID":172,"Name":"تعليمي","اسم_المؤسس":null,"Shape_Length":242.46476346690412,"Shape_Area":3673.4254833633568,"رقم_القطعة":null}},{"type":"Feature","id":173,"geometry":{"type":"Polygon","coordinates":[[[41.987556191132775,34.379786496091356],[41.987019437922854,34.38029553618469],[41.986739512201993,34.380092046138323],[41.987230243511256,34.379549548958252],[41.987556191132775,34.379786496091356]]]},"properties":{"OBJECTID":173,"Name":"تعليمي","اسم_المؤسس":null,"Shape_Length":224.45444258916285,"Shape_Area":2782.1645761918553,"رقم_القطعة":null}},{"type":"Feature","id":174,"geometry":{"type":"Polygon","coordinates":[[[41.984410602746998,34.383177515631019],[41.983833412186925,34.382757925780723],[41.984241930789914,34.382370532757236],[41.984410602746998,34.383177515631019]]]},"properties":{"OBJECTID":174,"Name":"تعليمي","اسم_المؤسس":null,"Shape_Length":218.64800524026867,"Shape_Area":2017.0705333009678,"رقم_القطعة":null}},{"type":"Feature","id":175,"geometry":{"type":"Polygon","coordinates":[[[41.985060565785027,34.369927665314052],[41.985701495567248,34.36981338718045],[41.985851238123445,34.37036148375018],[41.985192439858189,34.370480393146536],[41.985060565785027,34.369927665314052]]]},"properties":{"OBJECTID":175,"Name":"تعليمي","اسم_المؤسس":null,"Shape_Length":247.29153644806865,"Shape_Area":3821.275699555305,"رقم_القطعة":null}},{"type":"Feature","id":176,"geometry":{"type":"Polygon","coordinates":[[[41.993685581721522,34.377131151329777],[41.993796070762848,34.377261511596835],[41.99344907305754,34.37757678980882],[41.993311426326947,34.377471109729214],[41.992798186101126,34.377076377537243],[41.993273296290297,34.376644700284317],[41.993685581721522,34.377131151329777]]]},"properties":{"OBJECTID":176,"Name":"تعليمي","اسم_المؤسس":null,"Shape_Length":277.58984553383448,"Shape_Area":4584.1913977659779,"رقم_القطعة":null}},{"type":"Feature","id":177,"geometry":{"type":"Polygon","coordinates":[[[41.965903336894691,34.365454120198827],[41.96567104441759,34.365758728853599],[41.965097076560085,34.365457504483807],[41.965329374889855,34.365152899438982],[41.965903336894691,34.365454120198827]]]},"properties":{"OBJECTID":177,"Name":"تعليمي","اسم_المؤسس":null,"Shape_Length":205.03001861149423,"Shape_Area":2500.6001779780627,"رقم_القطعة":"6784"}},{"type":"Feature","id":180,"geometry":{"type":"Polygon","coordinates":[[[41.970192440992349,34.365181964486865],[41.969594342413387,34.365966357634377],[41.968905591127495,34.365605222369858],[41.96950369407606,34.364820832353097],[41.970192440992349,34.365181964486865]]]},"properties":{"OBJECTID":180,"Name":"تعليمي","اسم_المؤسس":null,"Shape_Length":355.99563518276227,"Shape_Area":7724.7740041436482,"رقم_القطعة":null}},{"type":"Feature","id":181,"geometry":{"type":"Polygon","coordinates":[[[41.948684583703312,34.360559817852192],[41.939349577920716,34.368234616133286],[41.931355344344972,34.36264978191172],[41.941800052301133,34.354801278606601],[41.948684583703312,34.360559817852192]]]},"properties":{"OBJECTID":181,"Name":"تعليمي","اسم_المؤسس":null,"Shape_Length":4369.117819233813,"Shape_Area":1162784.9678706278,"رقم_القطعة":null}},{"type":"Feature","id":182,"geometry":{"type":"Polygon","coordinates":[[[41.990688477979489,34.371585474181991],[41.991042855140734,34.371521547885209],[41.991066123605528,34.371599759197785],[41.990963078876817,34.37173261143451],[41.990688477979489,34.371585474181991]]]},"properties":{"OBJECTID":182,"Name":"تعليمي","اسم_المؤسس":null,"Shape_Length":89.936747786147663,"Shape_Area":412.89246820594576,"رقم_القطعة":null}},{"type":"Feature","id":183,"geometry":{"type":"Polygon","coordinates":[[[41.990332231527184,34.371394588302401],[41.990559241748777,34.371092885459589],[41.990688477979489,34.371585474181991],[41.990332231527184,34.371394588302401]]]},"properties":{"OBJECTID":183,"Name":"تعليمي","اسم_المؤسس":null,"Shape_Length":134.45334436436923,"Shape_Area":770.22085066149543,"رقم_القطعة":null}},{"type":"Feature","id":184,"geometry":{"type":"Polygon","coordinates":[[[41.990320726191285,34.371409878680858],[41.990332231527184,34.371394588302401],[41.990688477979489,34.371585474181991],[41.990963078876817,34.37173261143451],[41.990951323153602,34.371747767377656],[41.990320726191285,34.371409878680858]]]},"properties":{"OBJECTID":184,"Name":"تعليمي","اسم_المؤسس":null,"Shape_Length":142.21988567732097,"Shape_Area":138.22127005867475,"رقم_القطعة":null}}]}