{"type":"FeatureCollection","features":[{"type":"Feature","id":1,"geometry":{"type":"Polygon","coordinates":[[[41.97806717706748,34.356194028258614],[41.978084105764829,34.356195699187595],[41.978100510451981,34.356199546219216],[41.978115986716467,34.356205474639019],[41.978130155476919,34.356213337736506],[41.978142666400238,34.356222941228779],[41.978153211219819,34.356234051048844],[41.978161531273443,34.356246391359143],[41.978167420185372,34.356259658908506],[41.978170734917136,34.356273528171407],[41.978171392669282,34.356287655930245],[41.978157071826097,34.356584749879374],[41.978156063915286,34.356591770140952],[41.978153744027352,34.356598572662406],[41.978150170366654,34.356604990169899],[41.978145429755017,34.356610865509509],[41.978139639867464,34.356616053395513],[41.978132941821862,34.356620425999253],[41.978125502446488,34.356623875598068],[41.978117502462048,34.356626318468791],[41.978109141815793,34.356627692053479],[41.978100623742861,34.356627965263066],[41.976960790713747,34.3565901689743],[41.976981627471396,34.356158031784673],[41.97806717706748,34.356194028258614]]]},"properties":{"OBJECTID":1,"Name":"صحي","اسم_المؤسس":" ","Shape_Length":309.5376644031831,"Shape_Area":5252.7679331894233}},{"type":"Feature","id":2,"geometry":{"type":"Polygon","coordinates":[[[41.983193476573675,34.360208490628267],[41.982870540864646,34.360644458260943],[41.982200776127954,34.360307110499278],[41.982546803661819,34.359846000461985],[41.983193476573675,34.360208490628267]]]},"properties":{"OBJECTID":2,"Name":"صحي","اسم_المؤسس":"مركز صحي","Shape_Length":261.03346778056942,"Shape_Area":4211.6074870711691}},{"type":"Feature","id":4,"geometry":{"type":"Polygon","coordinates":[[[41.981732227485708,34.370820924582496],[41.982266471917399,34.37109825371892],[41.982782334751811,34.371368738327099],[41.982824680683507,34.371396034323809],[41.982862441306501,34.37142761920061],[41.98289499032952,34.37146296830575],[41.982912595773151,34.371488281677244],[41.982921785154318,34.371501495454204],[41.98294238233747,34.37154255976138],[41.982963480131225,34.371602145353272],[41.983111416521062,34.372258181624147],[41.982768974057002,34.372323235327457],[41.982463745792188,34.372381218524069],[41.982434001264217,34.372268216376682],[41.982197896293457,34.372313068024596],[41.982227639442463,34.37242607027099],[41.982207022508078,34.372429987547022],[41.981913026711759,34.372485834976906],[41.981555417148144,34.372553766455852],[41.981541280130237,34.372556452066235],[41.981508066549715,34.372430263061553],[41.981414830351682,34.372088415737586],[41.98122800943213,34.371889139781445],[41.981100580994216,34.371642826836563],[41.981732227485708,34.370820924582496]]]},"properties":{"OBJECTID":4,"Name":"صحي","اسم_المؤسس":"مستشفى عنه","Shape_Length":612.90012903614297,"Shape_Area":22124.648434547646}},{"type":"Feature","id":8,"geometry":{"type":"Polygon","coordinates":[[[41.989109573859601,34.359553772017058],[41.989347358638497,34.35965186533997],[41.98939038723401,34.359669922192161],[41.989074352109185,34.360195772939164],[41.988738064425739,34.360055266476508],[41.989022643339574,34.359578289834083],[41.989109573859601,34.359553772017058]]]},"properties":{"OBJECTID":8,"Name":"صحي","اسم_المؤسس":" ","Shape_Length":196.26841369666624,"Shape_Area":2246.2980083615607}},{"type":"Feature","id":13,"geometry":{"type":"Polygon","coordinates":[[[41.960766389971639,34.36059308295372],[41.960534095768431,34.360897684891434],[41.960006556468976,34.360621005456416],[41.960238851939188,34.360316403549511],[41.960766389971639,34.36059308295372]]]},"properties":{"OBJECTID":13,"Name":"صحي","اسم_المؤسس":null,"Shape_Length":194.89997468676987,"Shape_Area":2297.9998688102391}},{"type":"Feature","id":14,"geometry":{"type":"Polygon","coordinates":[[[42.007300384878071,34.358425796122589],[42.007717821112536,34.358067720889714],[42.007722112628301,34.358064632668786],[42.007726982191052,34.358062208073761],[42.007732289000245,34.358060521776636],[42.007737865387675,34.358059626575468],[42.007743545880366,34.358059545468691],[42.007749156824097,34.35806028543103],[42.007754527813539,34.358061822710233],[42.007759495175478,34.358064109051149],[42.007763906473571,34.358067076091793],[42.007857633423349,34.358142226180675],[42.007974796442262,34.358236164252425],[42.008068527026253,34.358311314077717],[42.008072252998033,34.358314872144348],[42.008075173365839,34.358318910632505],[42.008077208851439,34.358323309805215],[42.008078288348848,34.358327935302214],[42.008078385050389,34.358332645364086],[42.008077492845807,34.358337299525076],[42.008075639192533,34.358341753789638],[42.008072882341075,34.35834587422147],[42.008069306894512,34.358349534348577],[42.007651867555268,34.358707607240653],[42.007523494577711,34.358817726056088],[42.00751920423253,34.358820817847786],[42.007514332384559,34.358823240689119],[42.007509026577026,34.358824926052066],[42.007503451254351,34.358825822119393],[42.007497769590671,34.358825902343845],[42.007492158564432,34.358825161472033],[42.00748678759345,34.358823625984961],[42.007481822331307,34.35882133868121],[42.007477406689134,34.358818372639639],[42.007383677084654,34.358743222341502],[42.007266518244307,34.358649282704675],[42.007172789048397,34.35857413312366],[42.007169064186215,34.358570575001643],[42.007166141646529,34.358566535642922],[42.007164106136202,34.358562134651805],[42.007163025630739,34.358557510071691],[42.007162929011407,34.358552800907141],[42.007163822386687,34.358548147624077],[42.007165676093067,34.358543693370699],[42.007168434050072,34.358539572029457],[42.007172009545343,34.358535911926317],[42.007300384878071,34.358425796122589]]]},"properties":{"OBJECTID":14,"Name":"صحي","اسم_المؤسس":null,"Shape_Length":241.38352597729929,"Shape_Area":3514.6752263992053}},{"type":"Feature","id":17,"geometry":{"type":"Polygon","coordinates":[[[41.976865743455249,34.351448837371201],[41.976617371965034,34.35153996809661],[41.976587619477456,34.351488682004337],[41.976554448181709,34.351439537941467],[41.976518011659898,34.351392763443549],[41.976509199703337,34.351380923541583],[41.976502366847093,34.351367841266075],[41.976497684366883,34.351353844543745],[41.976495269636047,34.351339284223286],[41.976495183183417,34.351324525280809],[41.976497427176049,34.351309937671203],[41.97650194536493,34.351295887054626],[41.976508624494926,34.351282725630711],[41.976517297143694,34.351270783310156],[41.976584575857387,34.351189988290471],[41.976592532411665,34.351182957516542],[41.976601580612147,34.351177401564229],[41.976611450246047,34.351173486354831],[41.976621846569564,34.351171328811006],[41.976632459109979,34.351170993364995],[41.976642970937533,34.351172490034472],[41.976653068130133,34.351175774123327],[41.976662449148222,34.351180747556519],[41.976670833839854,34.35118726180891],[41.976726639629639,34.351247106723854],[41.976777906244102,34.351310883163542],[41.976824357576874,34.351378247647517],[41.976865743455249,34.351448837371201]]]},"properties":{"OBJECTID":17,"Name":"صحي","اسم_المؤسس":null,"Shape_Length":112.45202152672744,"Shape_Area":823.96593143449934}},{"type":"Feature","id":18,"geometry":{"type":"Polygon","coordinates":[[[42.001935455426306,34.362464274590764],[42.001938248136263,34.362460172336355],[42.001941855204493,34.362456533235459],[42.001946171823505,34.362453466224203],[42.00195106351012,34.36245107105195],[42.001956383763876,34.362449415313108],[42.00196196707585,34.362448551745167],[42.001967647994448,34.362448504239822],[42.001973254834432,34.362449274307195],[42.001978612967065,34.362450841896411],[42.002245709542983,34.36255143486639],[42.002364417757512,34.362596142692865],[42.002369364575721,34.36259845859739],[42.002373751902873,34.362601452558764],[42.002377450257761,34.362605029504707],[42.002380338557806,34.362609086044316],[42.002382335195314,34.362613497987006],[42.002383378746622,34.362618128027343],[42.002383433948637,34.362622840921745],[42.002382504216584,34.362627488759053],[42.002380616029079,34.362631930272947],[42.002304236704511,34.362771392044287],[42.001994240023123,34.363337436793422],[42.001991448472587,34.363341541725134],[42.001987842489712,34.363345181702869],[42.001983522442373,34.36334824519512],[42.001978631921112,34.363350643946802],[42.001973311515705,34.363352296987578],[42.001967726004658,34.36335316151299],[42.001962047196969,34.363353208968235],[42.001956442468128,34.363352438850299],[42.001951084244908,34.363350870362723],[42.001832374036539,34.36330616221057],[42.001565276439742,34.363205566620017],[42.001560328550319,34.363203251611104],[42.001555938087364,34.363200261303263],[42.001552243985046,34.363196681523867],[42.001549353561231,34.363192625917911],[42.00154735695034,34.36318821396037],[42.001546313402919,34.36318358301061],[42.001546257159049,34.363178870140409],[42.001547187005897,34.363174224108285],[42.001549077291912,34.363169778948965],[42.00162545508816,34.363030321254911],[42.001935455426306,34.362464274590764]]]},"properties":{"OBJECTID":18,"Name":"صحي","اسم_المؤسس":null,"Shape_Length":268.82619727761767,"Shape_Area":4132.1405669838896}},{"type":"Feature","id":19,"geometry":{"type":"Polygon","coordinates":[[[42.000937069261262,34.347919701486582],[42.002086942244595,34.348429004191182],[42.001319377790274,34.349621159564023],[42.000169492045316,34.34911185033593],[42.000937069261262,34.347919701486582]]]},"properties":{"OBJECTID":19,"Name":"صحي","اسم_المؤسس":null,"Shape_Length":540.00015488195277,"Shape_Area":18000.012557963855}},{"type":"Feature","id":20,"geometry":{"type":"Polygon","coordinates":[[[41.964240291418669,34.344622161403727],[41.963763420389604,34.34543171500777],[41.962769296269023,34.345028829637037],[41.963798231171062,34.344443010647872],[41.964240291418669,34.344622161403727]]]},"properties":{"OBJECTID":20,"Name":"صحي","اسم_المؤسس":null,"Shape_Length":362.03681745178318,"Shape_Area":7357.4164186751213}},{"type":"Feature","id":21,"geometry":{"type":"Polygon","coordinates":[[[41.989722482126886,34.376558277962459],[41.98924279110625,34.376996781831593],[41.989078530711275,34.376873251821515],[41.988900229897432,34.37673916248626],[41.989207292471406,34.376275083934594],[41.989208629091273,34.376273845200821],[41.989722482126886,34.376558277962459]]]},"properties":{"OBJECTID":21,"Name":"صحي","اسم_المؤسس":null,"Shape_Length":224.05485688968355,"Shape_Area":3068.4390513302228}},{"type":"Feature","id":22,"geometry":{"type":"Polygon","coordinates":[[[41.991495916123299,34.367531528162758],[41.990805796647898,34.367656022353827],[41.990647481436469,34.3672535794502],[41.990912911259869,34.367205698888895],[41.990967755213973,34.367234925435042],[41.990994316639906,34.36733617241984],[41.991424312553669,34.367258602191754],[41.991495916123299,34.367531528162758]]]},"properties":{"OBJECTID":22,"Name":"صحي","اسم_المؤسس":null,"Shape_Length":225.98291568838499,"Shape_Area":2502.5403975831546}},{"type":"Feature","id":23,"geometry":{"type":"Polygon","coordinates":[[[41.965903336894691,34.365454120198827],[41.966431384856037,34.36573101264166],[41.966199099205348,34.366035624798904],[41.96567104441759,34.365758728853599],[41.965903336894691,34.365454120198827]]]},"properties":{"OBJECTID":23,"Name":"صحي","اسم_المؤسس":null,"Shape_Length":195.00057378004522,"Shape_Area":2300.0113947448508}}]}