{"type":"FeatureCollection","features":[{"type":"Feature","id":2,"geometry":{"type":"Polygon","coordinates":[[[41.985009755038348,34.367464820679629],[41.98461273672487,34.367999006915433],[41.984295088712621,34.367832268709947],[41.984253529180513,34.367807855562603],[41.984217314132685,34.367778160529767],[41.984187408676,34.36774397492249],[41.984164609315094,34.367706209544366],[41.984151325076674,34.367670688993421],[41.984149523572086,34.367665871752138],[41.984148162859867,34.367657700494931],[41.984145165505296,34.367639708858299],[41.984142554813602,34.367624036079299],[41.984143888260085,34.367581817535523],[41.984153487760445,34.367540341939126],[41.984160061594274,34.36751668045364],[41.984885984402233,34.366615131351637],[41.985434100092149,34.366901901342949],[41.985009755038348,34.367464820679629]]]},"properties":{"OBJECTID":2,"SHAPE_Length":398.07728365176723,"SHAPE_Area":8692.9670354572518,"الاستعمال":null,"اسم_المؤسسة":null}},{"type":"Feature","id":8,"geometry":{"type":"Polygon","coordinates":[[[41.98919991467865,34.357537193203243],[41.989365654823921,34.357606622808795],[41.989559602841062,34.357687867681136],[41.989753553419682,34.357769113072557],[41.989947502151907,34.357850357288015],[41.989723074025484,34.358210563254787],[41.989498646233272,34.358570768838717],[41.989304695079028,34.35848952400999],[41.989110745336305,34.358408277925641],[41.988916795983144,34.35832703241347],[41.988738911464146,34.35825251589791],[41.98919991467865,34.357537193203243]]]},"properties":{"OBJECTID":8,"SHAPE_Length":335.45538011793292,"SHAPE_Area":6994.2804218824404,"الاستعمال":null,"اسم_المؤسسة":null}},{"type":"Feature","id":10,"geometry":{"type":"Polygon","coordinates":[[[41.967742579387618,34.355667703269802],[41.96784151257296,34.355433548976741],[41.967846204493007,34.355418571989048],[41.967853916640792,34.355404482605572],[41.967864422327274,34.355391694659282],[41.967877412115151,34.355380587033672],[41.967892500785133,34.355371485465781],[41.967909245701811,34.355364659396471],[41.967927151862042,34.355360311031312],[41.967945690069953,34.355358566787032],[41.968532726154592,34.355345823270653],[41.968550472969447,34.355346631969418],[41.968567822608904,34.355349829993507],[41.968584312318079,34.355355332125015],[41.968599499922114,34.355362989548922],[41.968612978261092,34.355372598516759],[41.968624386081224,34.35538390098359],[41.968633420393388,34.355396596026104],[41.968639837622646,34.355410341617414],[41.968643467243517,34.355424771422683],[41.968644209735395,34.355439498454153],[41.968633838007193,34.355654065443744],[41.967742579387618,34.355667703269802]]]},"properties":{"OBJECTID":10,"SHAPE_Length":217.57255588388739,"SHAPE_Area":2588.9320464225411,"الاستعمال":null,"اسم_المؤسسة":null}},{"type":"Feature","id":11,"geometry":{"type":"Polygon","coordinates":[[[41.94883747672877,34.350202011026717],[41.949518409046306,34.350904070640297],[41.948671928762934,34.351468831124613],[41.94799310738783,34.350765360178649],[41.94883747672877,34.350202011026717]]]},"properties":{"OBJECTID":11,"SHAPE_Length":399.75124833434757,"SHAPE_Area":9987.5468976111351,"الاستعمال":null,"اسم_المؤسسة":null}}]}