{"type":"FeatureCollection","features":[{"type":"Feature","id":4,"geometry":{"type":"Polygon","coordinates":[[[41.947230786694682,34.352426743239505],[41.946666021833877,34.352802127425498],[41.945718502008127,34.353439853494528],[41.945402458542482,34.35365340180374],[41.945091377854233,34.353871905646997],[41.944785374567878,34.35409528658468],[41.944484557787732,34.354323463606327],[41.944189038731153,34.354556353848089],[41.943898924212796,34.354793872749575],[41.943614318785009,34.355035933100787],[41.943262001314558,34.355337435606671],[41.943070552911287,34.355481320175542],[41.9420403319169,34.354620788140352],[41.942310048779142,34.354418084290515],[41.942612771846463,34.354152865733496],[41.942921390137435,34.353892363201922],[41.943235795931813,34.353636666679876],[41.943555881450948,34.353385864350187],[41.943881535663039,34.353140044474152],[41.944212646265861,34.352899289935564],[41.94454909779855,34.352663686398749],[41.944890773498329,34.352433313250046],[41.945237556670044,34.352208251677446],[41.94558932612177,34.351988578470753],[41.945945960634603,34.351774369519681],[41.946327747167373,34.351544427268998],[41.947230786694682,34.352426743239505]]]},"properties":{"OBJECTID":4,"Name":"تجاري مقترح","اسم_المؤسس":" ","Shape_Length":1297.8039712264422,"Shape_Area":69154.992347782652}},{"type":"Feature","id":9,"geometry":{"type":"Polygon","coordinates":[[[41.988397675236151,34.360190508133002],[41.988255072433958,34.360329087519531],[41.987154072152627,34.359311689898497],[41.987142223831938,34.35930686028312],[41.98716126524441,34.359311624182816],[41.987375132368342,34.359373044804542],[41.987466543134573,34.359415377140927],[41.987554806715522,34.359463931184692],[41.987639500278931,34.359518474334614],[41.987720218094942,34.359578745298307],[41.987796573479777,34.359644455343918],[41.987941749546998,34.359786490046645],[41.988090385869874,34.359924899550627],[41.988242391949726,34.360059599583892],[41.988397675236151,34.360190508133002]]]},"properties":{"OBJECTID":9,"Name":"تجاري مقترح","اسم_المؤسس":null,"Shape_Length":327.30811417755507,"Shape_Area":2486.5588912703984}},{"type":"Feature","id":11,"geometry":{"type":"Polygon","coordinates":[[[41.988479339908203,34.360256865108276],[41.988674434458026,34.360408598073803],[41.988873653104392,34.360554874206997],[41.989076843264549,34.360695581474097],[41.989283849313956,34.360830612106582],[41.989494512705463,34.360959862683679],[41.989708672090721,34.36108323421162],[41.989597592204269,34.361194799655379],[41.989473654950153,34.361121974523705],[41.989302265526831,34.36101658810037],[41.989100169752895,34.360884237761788],[41.988862110289176,34.360716538194197],[41.988385477731853,34.360341301449687],[41.988479339908203,34.360256865108276]]]},"properties":{"OBJECTID":11,"Name":"تجاري مقترح","اسم_المؤسس":null,"Shape_Length":321.20362543288923,"Shape_Area":2103.2810379618759}},{"type":"Feature","id":16,"geometry":{"type":"Polygon","coordinates":[[[41.963684680172165,34.342715532922107],[41.951803058869999,34.34948001078498],[41.951171602188055,34.3487627310232],[41.951152595044434,34.348693777053263],[41.951199471003825,34.348634687717343],[41.951291853707431,34.348580849017154],[41.962625183399616,34.342286149548791],[41.963684680172165,34.342715532922107]]]},"properties":{"OBJECTID":16,"Name":"تجاري مقترح","اسم_المؤسس":null,"Shape_Length":2815.4683421257878,"Shape_Area":132275.25423068495}},{"type":"Feature","id":19,"geometry":{"type":"Polygon","coordinates":[[[41.947855220472491,34.350622464759034],[41.950416193669234,34.349081878990695],[41.950480045662502,34.349043417398647],[41.950496279367883,34.349035331456939],[41.950513958922599,34.349029705722103],[41.950532548029841,34.349026711776347],[41.950551481489846,34.349026440773038],[41.950570183564949,34.349028900289639],[41.950588087619998,34.349034016558043],[41.950604646980857,34.349041634202756],[41.950619361153358,34.34905152011536],[41.95063178169459,34.349063375932388],[41.951209473169399,34.349723121149815],[41.951218377507807,34.34973517801609],[41.951224897914372,34.349748241575348],[41.951228874186157,34.349761989385307],[41.95123020865946,34.349776084875138],[41.951228868476456,34.349790179994798],[41.951224885996048,34.34980392692345],[41.951218359173069,34.349816988877073],[41.951209449481418,34.349829042862908],[41.951198375841038,34.34983979244555],[41.951185411518274,34.34984897232885],[41.950362447192241,34.35034468444367],[41.949778937928379,34.350722188552474],[41.949518409046306,34.350904070640297],[41.94883747672877,34.350202011026717],[41.94799310738783,34.350765360178649],[41.947855220472491,34.350622464759034]],[[41.950221048344716,34.349689473899311],[41.949938940138701,34.349857954179768],[41.949339456499914,34.350215972678399],[41.949656855311858,34.350581568758471],[41.950538447572519,34.350055067647695],[41.950297223634188,34.349777216278987],[41.950221407154125,34.349689261528255],[41.950221048344716,34.349689473899311]],[[41.950560602330164,34.349770603018875],[41.950837372572792,34.349610145500513],[41.950669917636453,34.349418905040132],[41.950397792847774,34.349584667558368],[41.950560602330164,34.349770603018875]]]},"properties":{"OBJECTID":19,"Name":"تجاري مقترح","اسم_المؤسس":" ","Shape_Length":1247.4521736062184,"Shape_Area":18882.428105586769}}]}