{"type":"FeatureCollection","features":[{"type":"Feature","id":1,"geometry":{"type":"Polygon","coordinates":[[[41.960025596941016,34.355538854643392],[41.956440960031458,34.360239203055393],[41.950728235771848,34.354953068169074],[41.9489853709633,34.356242817666867],[41.948977782821316,34.356247515747157],[41.948969325646381,34.356251049435052],[41.948960258709526,34.356253311522167],[41.948950855671228,34.356254233213519],[41.948941401418139,34.356253786908113],[41.948932185515588,34.356251985455337],[41.948923485980949,34.356248884349014],[41.948915568071342,34.356244578151049],[41.948908672179932,34.356239196276135],[41.946114328265594,34.353700393465559],[41.946108987464264,34.353694528670324],[41.946104867542779,34.353688021513946],[41.946102077815951,34.353681045137364],[41.946100693289594,34.353673786127501],[41.94610075003304,34.353666436516072],[41.946102247319509,34.353659192826647],[41.94610514513888,34.353652247120522],[41.946109365189059,34.353645784268572],[41.946114796148116,34.353639977317329],[41.946121293390433,34.353634979383173],[41.946919397945564,34.353094939531857],[41.950473204561177,34.350723397433633],[41.951528662760651,34.350087641403277],[41.952199510218648,34.350853746296309],[41.952440578033517,34.351099496637424],[41.95268742124005,34.351341271576075],[41.952939944226266,34.351578978738111],[41.953198048086925,34.351812524927588],[41.953461635156863,34.352041821425836],[41.953730604477691,34.352266778692488],[41.953993777685099,34.352462720361473],[41.954262431484921,34.35265347759929],[41.954536416581298,34.352838946709845],[41.954815581533481,34.353019024951053],[41.955099772787548,34.353193611435508],[41.955388833717031,34.353362610759362],[41.955682603410573,34.353525929426141],[41.95598091999306,34.353683477569369],[41.956283619476579,34.353835167177628],[41.956590533715115,34.353980915749659],[41.956901494590348,34.354120641686265],[41.957216327622589,34.354254268050504],[41.95744573254391,34.35434605917969],[41.959973312582775,34.355384187733762],[41.959996320643988,34.355396280145307],[41.960015796754675,34.355412073632529],[41.960030890700558,34.355430878744713],[41.960040943565538,34.355451874560906],[41.960045516496429,34.355474144526319],[41.960044409861304,34.355496716463527],[41.960037671964962,34.355518605012037],[41.960025596941016,34.355538854643392]]]},"properties":{"OBJECTID":1,"Name":"سكني مقترح","اسم_المؤسس":" ","Shape_Length":3662.2039801467972,"Shape_Area":590994.45356127236}},{"type":"Feature","id":28,"geometry":{"type":"Polygon","coordinates":[[[41.957159356214689,34.370892647629034],[41.95254113234909,34.376962307261941],[41.952255712564877,34.376840926918845],[41.95193004635312,34.376694732952437],[41.951608544738477,34.376542336881116],[41.951291377869033,34.376383814854066],[41.950978719621688,34.376219256452927],[41.95064919908728,34.376036218876749],[41.950367583908523,34.375872379024422],[41.950069435929322,34.375690245917447],[41.949776446760509,34.375502445784697],[41.949488774310183,34.375309078514526],[41.949206572294649,34.375110248604287],[41.948929988962604,34.374906059782631],[41.948638669002179,34.374680369379547],[41.948508915099424,34.374576130485501],[41.943695507102042,34.371243739757851],[41.949855982257922,34.367063142530419],[41.957159356214689,34.370892647629034]]]},"properties":{"OBJECTID":28,"Name":"سكني مقترح","اسم_المؤسس":null,"Shape_Length":3359.1031063754131,"Shape_Area":700790.29492682777}},{"type":"Feature","id":29,"geometry":{"type":"Polygon","coordinates":[[[41.957265594301539,34.371427697939929],[41.965385180984157,34.375726649311758],[41.963535749367651,34.378153387024327],[41.960914926428266,34.37833083758531],[41.960842782789598,34.378337361956568],[41.960473083727159,34.378355397879517],[41.960102979191198,34.378366340394251],[41.95973266805926,34.378370184680549],[41.959362348250004,34.378366929549351],[41.958992217682457,34.37835657381401],[41.958622475710769,34.378339126170864],[41.958253320634377,34.378314596245637],[41.957884946343981,34.378282991970288],[41.957517553786012,34.378244336432168],[41.957151336080386,34.37819864660058],[41.956786492062506,34.37814594742153],[41.956423213152732,34.378086269430987],[41.956061698341969,34.37801964208284],[41.955702137033235,34.377946100473423],[41.955344724280508,34.377865685874461],[41.954989649767661,34.377778441492509],[41.954637102121566,34.377684411463186],[41.954287272455666,34.377583648878129],[41.953940347472255,34.377476205134833],[41.953596510928428,34.377362140717878],[41.953255948655638,34.377241513359557],[41.952934835477429,34.37712032429269],[41.957265594301539,34.371427697939929]]]},"properties":{"OBJECTID":29,"Name":"سكني مقترح","اسم_المؤسس":null,"Shape_Length":2948.9177185236958,"Shape_Area":519712.09443953645}},{"type":"Feature","id":47,"geometry":{"type":"Polygon","coordinates":[[[41.956319931186584,34.360397891461481],[41.953659149472003,34.363886437064608],[41.953632947388478,34.363904176380387],[41.953605091013515,34.363920088202775],[41.953575765216762,34.363934066931847],[41.953545164620095,34.363946019796735],[41.953513492305966,34.363955867471297],[41.953480958469655,34.36396354460058],[41.953447779024195,34.363969000234619],[41.953414174167442,34.363972198166536],[41.953380366920655,34.363973117172861],[41.953346581648354,34.363971751154402],[41.953313042569242,34.363968109176689],[41.953279972268106,34.36396221540987],[41.95324759021856,34.363954108968265],[41.953216111326462,34.363943843650759],[41.953185744503585,34.36393148758382],[41.953156691281173,34.363917122769251],[41.9434028337228,34.355763843506914],[41.943659727118622,34.355525994852862],[41.943921025409047,34.355292993989188],[41.944186637126883,34.355064922477602],[41.944456469295034,34.354841860154288],[41.944730427459035,34.354623885101987],[41.945008415720125,34.354411073622622],[41.945290336768807,34.354203500210637],[41.945576091918902,34.354001237526873],[41.945865581142144,34.353804356373182],[41.945890421941421,34.353794964905049],[41.945908730025508,34.353794898047695],[41.945926024776021,34.353799880019004],[41.945940343072827,34.353809345145983],[41.950518713534422,34.358006175701789],[41.95226158769966,34.356716403982404],[41.952275882447147,34.356708780122908],[41.952300841178186,34.356705038995237],[41.952338286874628,34.356720022337711],[41.956319931186584,34.360397891461481]]]},"properties":{"OBJECTID":47,"Name":"سكني مقترح","اسم_المؤسس":null,"Shape_Length":3504.1306636093168,"Shape_Area":499556.33713843679}},{"type":"Feature","id":56,"geometry":{"type":"Polygon","coordinates":[[[41.943035174150168,34.351407783697866],[41.930917578748108,34.341058142987407],[41.943197313236524,34.330845113485047],[41.94354727602461,34.330618073213913],[41.943901192484489,34.33039529190588],[41.944258987297061,34.330176816948843],[41.944620584320113,34.329962694814164],[41.944985906604444,34.329752971046815],[41.945354876410278,34.329547690255758],[41.945727415223764,34.329346896104425],[41.94610344377368,34.329150631301488],[41.946482882048265,34.328958937591764],[41.94686564931223,34.328771855747412],[41.947251664123932,34.328589425559215],[41.947640844352641,34.328411685828172],[41.948033107196053,34.328238674357287],[41.948428369197792,34.328070427943508],[41.948826546265224,34.327906982369939],[41.949227553687251,34.32774837239824],[41.949631306152376,34.327594631761272],[41.95003771776674,34.327445793155945],[41.950446702072412,34.327301888236235],[41.95085817206575,34.327162947606553],[41.951272040215848,34.327029000815138],[41.951688218483127,34.32690007634794],[41.952106618338043,34.326776201622422],[41.952527150779858,34.326657402981873],[41.952949726355548,34.326543705689758],[41.953374255178787,34.326435133924335],[41.953800646949013,34.32633171077363],[41.954228810970605,34.32623345823044],[41.954658656172128,34.326140397187729],[41.955090091125662,34.326052547434159],[41.955523024066188,34.325969927649936],[41.955957362911079,34.325892555402817],[41.956393015279637,34.325820447144416],[41.956829888512672,34.32575361820669],[41.957267889692176,34.32569208279871],[41.95770692566105,34.325635854003629],[41.958146903042845,34.325584943775951],[41.958587728261584,34.325539362938954],[41.959029307561593,34.325499121182425],[41.959471547027412,34.325464227060571],[41.959914352603725,34.325434687990281],[41.960357630115276,34.325410510249476],[41.960801285286863,34.325391698975835],[41.961245223763363,34.325378258165699],[41.961689351129678,34.325370190673183],[41.962133572930838,34.325367498209658],[41.962577794691974,34.325370181343317],[41.963021921938399,34.325378239499074],[41.963465860215621,34.325391670958737],[41.963909515109385,34.325410472861307],[41.964352792265693,34.325434641203643],[41.96479559741082,34.325464170841279],[41.965237836371315,34.325499055489551],[41.96567941509398,34.325539287724894],[41.966120239665791,34.325584858986474],[41.966560216333846,34.325635759577942],[41.96699925152523,34.325691978669553],[41.96743725186689,34.325753504300444],[41.967874124205409,34.325820323381151],[41.968309775626793,34.325892421696445],[41.968744113476141,34.325969783908278],[41.969177045377357,34.326052393559124],[41.969608479252699,34.326140233075385],[41.970038323342315,34.326233283771195],[41.989303288160535,34.334557854458396],[41.989013842308715,34.334641938554391],[41.988723004708142,34.334722651071708],[41.988430832433494,34.334799976168114],[41.988137382821968,34.334873898666089],[41.987842713461973,34.334944404055825],[41.98754688218181,34.335011478498139],[41.9872499470383,34.335075108827098],[41.986951966305377,34.335135282552706],[41.98665299846266,34.335191987863283],[41.986353102183905,34.335245213627829],[41.9860523363255,34.335294949398211],[41.985750759914886,34.335341185411203],[41.98544843213898,34.335383912590444],[41.985145412332486,34.335423122548164],[41.984841759966265,34.335458807586889],[41.984537534635642,34.335490960700938],[41.984232796048659,34.335519575577798],[41.983927604014362,34.335544646599352],[41.983622018431056,34.335566168843037],[41.983316099274475,34.335584138082758],[41.98300990658602,34.335598550789747],[41.982703500460964,34.335609404133237],[41.982396941036619,34.335616695981059],[41.982090288480507,34.33562042490005],[41.981783602978524,34.335620590156289],[41.981476944723134,34.335617191715301],[41.981170373901492,34.335610230242054],[41.980863950683634,34.335599707100819],[41.98055773521066,34.335585624354891],[41.980251787582837,34.335567984766207],[41.979946167847885,34.335546791794812],[41.979640935989082,34.335522049598126],[41.979326281500136,34.335500587469909],[41.979011189449928,34.335484125407525],[41.978695775271198,34.335472669444769],[41.978380154514653,34.335466223781445],[41.978064442806698,34.335464790781884],[41.977748755807148,34.335468370973992],[41.977433209166918,34.335476963049125],[41.977117918485717,34.335490563862521],[41.976802999269758,34.335509168434498],[41.976488566889493,34.335532769952188],[41.97617473653743,34.3355613597721],[41.97586162318597,34.335594927423237],[41.975549341545346,34.335633460610936],[41.975238006021705,34.33567694522138],[41.974927730675176,34.335725365326709],[41.974618629178195,34.33577870319089],[41.974310814773915,34.335836939276163],[41.97400440023474,34.335900052250238],[41.973699497821094,34.335968018994038],[41.973396219240328,34.336040814610158],[41.973094675605857,34.336118412432043],[41.972794977396482,34.336200784033622],[41.972497234415997,34.336287899239821],[41.972201555752974,34.336379726137523],[41.971908049740847,34.336476231087261],[41.971616823918282,34.336577378735527],[41.971327984989792,34.336683132027702],[41.971041638786701,34.33679345222162],[41.970757890228398,34.336908298901704],[41.970476843283947,34.337027629993806],[41.970198600933962,34.337151401780559],[41.969923265133005,34.337279568917367],[41.962044258806891,34.341597013579488],[41.961449722993187,34.340850414314978],[41.950832270851009,34.346765777489473],[41.949976125411339,34.347234372843232],[41.94912271752132,34.347707935502946],[41.948272076000649,34.348186449476337],[41.947424229575603,34.348669898603923],[41.946579206878084,34.349158266559563],[41.945737036444612,34.349651536851006],[41.944897746715412,34.350149692820438],[41.944061366033409,34.350652717645069],[41.943035174150168,34.351407783697866]]]},"properties":{"OBJECTID":56,"Name":"سكني مقترح","اسم_المؤسس":null,"Shape_Length":12684.151165940388,"Shape_Area":7054767.6782682855}},{"type":"Feature","id":58,"geometry":{"type":"Polygon","coordinates":[[[41.992046853825038,34.352354780836279],[41.991944442943222,34.352513706940179],[41.991580338708978,34.353078743677521],[41.991091487113799,34.353837356139167],[41.990295984508144,34.35507180614912],[41.987675808290327,34.354084127240483],[41.98966954893303,34.351505329317156],[41.989787533567551,34.351353977322653],[41.990377350722405,34.350597342759428],[41.990376302824622,34.350596878021349],[41.990494673748124,34.350445027399942],[41.992269948250744,34.348167550924181],[41.992388313581515,34.348015697848119],[41.994900259357607,34.344792901167374],[41.995018615425238,34.344641045069707],[41.999160815740211,34.339326009842466],[42.000152903662936,34.339765499171826],[41.996570681818589,34.345328677070619],[41.99646832596757,34.345487623305793],[41.994295974505263,34.348860879502155],[41.994193610449479,34.349019825105195],[41.992658103816488,34.351403994593397],[41.992556033091525,34.351562399950417],[41.992557132913362,34.3515628877362],[41.992046853825038,34.352354780836279]]]},"properties":{"OBJECTID":58,"Name":"سكني مقترح","اسم_المؤسس":null,"Shape_Length":4244.2322338241238,"Shape_Area":356281.59037908533}},{"type":"Feature","id":59,"geometry":{"type":"Polygon","coordinates":[[[41.948914165739971,34.360751829365526],[41.952951441717879,34.364129368519428],[41.952973391010545,34.364156078963859],[41.952992707400924,34.364184153188909],[41.953009268360454,34.364213413116644],[41.953022968838233,34.364243673147975],[41.953033721927419,34.364274741339827],[41.953041459416546,34.364306420622647],[41.953046132222298,34.364338510050487],[41.953047710700901,34.364370806075527],[41.953046184836289,34.364403103839265],[41.95304156430366,34.364435198471931],[41.953033878408284,34.36446688639203],[41.953023175899624,34.364497966597646],[41.953009524662228,34.364528241941521],[41.95299301128523,34.364557520381496],[41.952973740513137,34.364585616198788],[41.952951834581491,34.364612351176014],[41.943442068706659,34.371067046606818],[41.939601119731044,34.368408766062828],[41.948914165739971,34.360751829365526]]]},"properties":{"OBJECTID":59,"Name":"سكني مقترح","اسم_المؤسس":null,"Shape_Length":3383.6408485812681,"Shape_Area":607507.80675738072}}]}