{"type":"FeatureCollection","features":[{"type":"Feature","id":3,"geometry":{"type":"Polygon","coordinates":[[[41.967148595760996,34.364326815977584],[41.966800175989277,34.364783736156902],[41.966249175033134,34.364494805747938],[41.966597595754649,34.364037887054096],[41.967148595760996,34.364326815977584]]]},"properties":{"OBJECTID":3,"Name":"ديني","اسم_المؤسس":" ","Shape_Length":240.0000730661896,"Shape_Area":3600.0021919834758,"رقم_القطعة":null}},{"type":"Feature","id":4,"geometry":{"type":"Polygon","coordinates":[[[41.979780589955212,34.36474983451442],[41.979386051982765,34.365267375540206],[41.979057624057489,34.36509188978475],[41.979448635348696,34.364578255799806],[41.979780589955212,34.36474983451442]]]},"properties":{"OBJECTID":4,"Name":"ديني","اسم_المؤسس":" ","Shape_Length":207.33053751771016,"Shape_Area":2435.2358771432287,"رقم_القطعة":"5866"}},{"type":"Feature","id":7,"geometry":{"type":"Polygon","coordinates":[[[41.978450215030421,34.370645577300529],[41.978633907462736,34.370741867898133],[41.978488751166914,34.370932264000707],[41.978343593146562,34.371122659986476],[41.978159899061929,34.371026369010082],[41.977985280305454,34.37093483512546],[41.978130438878004,34.37074443953496],[41.978275596812146,34.370554043801171],[41.978450215030421,34.370645577300529]]]},"properties":{"OBJECTID":7,"Name":"ديني","اسم_المؤسس":" ","Shape_Length":178.02383311587096,"Shape_Area":1950.5977492587735,"رقم_القطعة":null}},{"type":"Feature","id":8,"geometry":{"type":"Polygon","coordinates":[[[41.978399994275136,34.37416808408895],[41.978643867320621,34.373848217744595],[41.979112304473844,34.374093755962988],[41.978868432609417,34.374413622274879],[41.97862962064206,34.374288446805195],[41.978399994275136,34.37416808408895]]]},"properties":{"OBJECTID":8,"Name":"ديني","اسم_المؤسس":"جامع المتبرع عادل جاسم سيف","Shape_Length":185.99991596763994,"Shape_Area":2141.9998036565594,"رقم_القطعة":null}},{"type":"Feature","id":10,"geometry":{"type":"Polygon","coordinates":[[[41.986915004653362,34.372644961349543],[41.986691622310126,34.3726548903091],[41.986650033189072,34.372496343884372],[41.986490978765374,34.37252502942485],[41.986445321322847,34.372350972907284],[41.986603711574148,34.372319757229882],[41.987224339569046,34.372197441177583],[41.98726264574703,34.372229608025236],[41.987239906089407,34.372256778869776],[41.987108618932993,34.372413636015779],[41.986952279516871,34.372600426288137],[41.986915004653362,34.372644961349543]]]},"properties":{"OBJECTID":10,"Name":"ديني","اسم_المؤسس":" ","Shape_Length":208.16435587331455,"Shape_Area":2048.6588606516252,"رقم_القطعة":null}},{"type":"Feature","id":11,"geometry":{"type":"Polygon","coordinates":[[[41.980059910462117,34.375972808159304],[41.979945207621725,34.376122319466816],[41.979944052942095,34.376124278387508],[41.979939697816391,34.376129460259705],[41.979936864686643,34.376131820641703],[41.979932198639403,34.376134702528894],[41.979926998451596,34.376136869108898],[41.979921424851099,34.376138254268611],[41.979915644858842,34.376138816079205],[41.979909836133679,34.376138536690128],[41.9799041729474,34.376137425375234],[41.97989946646365,34.376135793176893],[41.979578428299114,34.37596754952753],[41.979714768542053,34.375789718672706],[41.980059910462117,34.375972808159304]]]},"properties":{"OBJECTID":11,"Name":"ديني","اسم_المؤسس":"جامع","Shape_Length":120.70423323331133,"Shape_Area":875.93732919430477,"رقم_القطعة":null}},{"type":"Feature","id":12,"geometry":{"type":"Polygon","coordinates":[[[41.983143385434587,34.375173626115057],[41.983285781556241,34.375248911060986],[41.98339294497962,34.375305568305727],[41.983273330628769,34.375465151948092],[41.98329930728304,34.375602713957896],[41.983208757211713,34.375723521812382],[41.982867067130186,34.375542276251068],[41.983095154365735,34.375237974932396],[41.983143385434587,34.375173626115057]]]},"properties":{"OBJECTID":12,"Name":"ديني","اسم_المؤسس":"جامع الحمزة","Shape_Length":164.83260323366727,"Shape_Area":1530.2376885460114,"رقم_القطعة":null}},{"type":"Feature","id":13,"geometry":{"type":"Polygon","coordinates":[[[41.990982621236967,34.368520617723753],[41.990996328573495,34.368574731761946],[41.991033615314784,34.368721938703587],[41.990428836810629,34.368827266828177],[41.990386093755468,34.36867268362974],[41.990343631314047,34.368519108511329],[41.990947239194519,34.368380928628781],[41.990982621236967,34.368520617723753]]]},"properties":{"OBJECTID":13,"Name":"ديني","اسم_المؤسس":"مسجد احمد مكي","Shape_Length":188.26693988912609,"Shape_Area":2109.8868981064543,"رقم_القطعة":null}},{"type":"Feature","id":14,"geometry":{"type":"Polygon","coordinates":[[[41.992539286224009,34.367554320176886],[41.991848472859161,34.36765037676124],[41.991806118237164,34.367399341396649],[41.991948308090642,34.367387102051893],[41.991934617452323,34.367245205968146],[41.992001152496272,34.367171136195736],[41.992457355450512,34.36712703783715],[41.992539286224009,34.367554320176886]]]},"properties":{"OBJECTID":14,"Name":"ديني","اسم_المؤسس":"جامع الراشدين","Shape_Length":222.09568667278324,"Shape_Area":2829.2738344495046,"رقم_القطعة":null}},{"type":"Feature","id":15,"geometry":{"type":"Polygon","coordinates":[[[41.983958159462347,34.369045599882902],[41.983687044716746,34.369375307909579],[41.983384075624222,34.369406203469815],[41.983003192071195,34.369199797617782],[41.983365546693655,34.368724456531737],[41.983958159462347,34.369045599882902]]]},"properties":{"OBJECTID":15,"Name":"ديني","اسم_المؤسس":"مسجد","Shape_Length":241.82504075027379,"Shape_Area":3806.996656025085,"رقم_القطعة":null}},{"type":"Feature","id":16,"geometry":{"type":"Polygon","coordinates":[[[41.98281490957951,34.357397274315865],[41.982479594911958,34.357811928217828],[41.981946155398397,34.357531539922519],[41.982227772496216,34.357173233996214],[41.982490294084144,34.357269040642663],[41.982749854597905,34.35737024614965],[41.98281490957951,34.357397274315865]]]},"properties":{"OBJECTID":16,"Name":"ديني","اسم_المؤسس":" ","Shape_Length":220.51055095445105,"Shape_Area":3022.2113798303658,"رقم_القطعة":null}},{"type":"Feature","id":17,"geometry":{"type":"Polygon","coordinates":[[[41.992019088090416,34.359334828166006],[41.99172259268088,34.35981956451819],[41.991088975827218,34.359550583606534],[41.991385474178166,34.359065848631616],[41.992019088090416,34.359334828166006]]]},"properties":{"OBJECTID":17,"Name":"ديني","اسم_المؤسس":" ","Shape_Length":251.68481129850744,"Shape_Area":3952.3144901545602,"رقم_القطعة":null}},{"type":"Feature","id":18,"geometry":{"type":"Polygon","coordinates":[[[41.950397792847774,34.349584667558368],[41.950669916550552,34.349418905066329],[41.950837372572792,34.349610145500513],[41.950560602330164,34.349770603018875],[41.950397792847774,34.349584667558368]]]},"properties":{"OBJECTID":18,"Name":"ديني","اسم_المؤسس":"مسجد مفرق المدينه","Shape_Length":113.89908699187534,"Shape_Area":803.94509188395455,"رقم_القطعة":null}},{"type":"Feature","id":19,"geometry":{"type":"Polygon","coordinates":[[[41.984389538359324,34.364250281549154],[41.984577460856599,34.364003774690474],[41.984609646565033,34.363997713363624],[41.984665327453023,34.363981668098113],[41.984745713883036,34.363958503690085],[41.985755312521917,34.363662313451769],[41.985085628882381,34.364598843848285],[41.984448776377569,34.364279944760341],[41.984420607634313,34.364265839442808],[41.984389538359324,34.364250281549154]]]},"properties":{"OBJECTID":19,"Name":"ديني","اسم_المؤسس":"جامع بيت نون","Shape_Length":342.91227602893252,"Shape_Area":5653.7640706689681,"رقم_القطعة":null}},{"type":"Feature","id":20,"geometry":{"type":"Polygon","coordinates":[[[41.988679134818256,34.370869572399378],[41.988457440927078,34.370914383920621],[41.988376566502055,34.370650666790098],[41.988601299113654,34.370605241234976],[41.988679134818256,34.370869572399378]]]},"properties":{"OBJECTID":20,"Name":"ديني","اسم_المؤسس":" ","Shape_Length":102.68825372871024,"Shape_Area":638.53520111633441,"رقم_القطعة":null}},{"type":"Feature","id":21,"geometry":{"type":"Polygon","coordinates":[[[41.995886285722683,34.364499428200432],[41.995897688763776,34.364506827778676],[41.995909044667613,34.364514277185485],[41.995920352348158,34.364521776447475],[41.995931611837506,34.364529326465252],[41.995942821985466,34.364536925464257],[41.995953983910162,34.364544574318494],[41.995965096493478,34.364552272153951],[41.995976159703339,34.364560018070073],[41.995987172517886,34.364567813894652],[41.995998134872956,34.364575657826535],[41.996009046768549,34.364583549865714],[41.996019908204687,34.364591490012195],[41.996030719181363,34.364599478265994],[41.996041477526511,34.364607514680358],[41.996052184261998,34.364615597427459],[41.996062839452001,34.36462372830853],[41.996073441946329,34.364631905549004],[41.996083991744968,34.364640129148853],[41.996094488880011,34.364648400008733],[41.996105350572947,34.364657048631621],[41.996121520855439,34.364668710335792],[41.996131300710687,34.364675062584134],[41.996131506633617,34.364675198155631],[41.995912945324939,34.364819353708434],[41.995651717952285,34.364655469001399],[41.995878616693524,34.364494506103362],[41.995886285722683,34.364499428200432]]]},"properties":{"OBJECTID":21,"Name":"ديني","اسم_المؤسس":"جامع بهجت شافي","Shape_Length":114.07170850715696,"Shape_Area":798.82621467346746,"رقم_القطعة":null}},{"type":"Feature","id":22,"geometry":{"type":"Polygon","coordinates":[[[41.996692160858437,34.364308313677341],[41.996410502668056,34.364525828844336],[41.99639166810632,34.364537012750574],[41.996371278129381,34.364545017081596],[41.996349865157896,34.364549632829288],[41.996327988324808,34.364550739467774],[41.996306218875382,34.364548308100659],[41.996285125250864,34.364542402215505],[41.996265258245472,34.364533176026079],[41.996255863440794,34.364527074855353],[41.996244585551821,34.364518093915287],[41.996233249633761,34.364509162169369],[41.996221856836804,34.364500281392189],[41.996210406010739,34.364491449809137],[41.996198900509938,34.364482670042179],[41.996187337044191,34.364473941270539],[41.996175718839524,34.364465262513747],[41.996164044906145,34.364456636500208],[41.996152315179884,34.364448061428718],[41.996140530778845,34.364439538173244],[41.996128691735116,34.364431067634357],[41.996116799102637,34.364422648884869],[41.996104851859542,34.364414283752545],[41.996092852113712,34.364405970382968],[41.996080797757237,34.364397710630541],[41.996068690962183,34.364389504442016],[41.996056531728556,34.364381351817407],[41.996044321142357,34.364373252730076],[41.996032058117557,34.364365207206596],[41.996031769935854,34.364365020468242],[41.996400315335727,34.364070623431317],[41.996692160858437,34.364308313677341]]]},"properties":{"OBJECTID":22,"Name":"ديني","اسم_المؤسس":"قاعة مناسبات دينيه","Shape_Length":163.10988119419332,"Shape_Area":1687.8009795005723,"رقم_القطعة":null}},{"type":"Feature","id":23,"geometry":{"type":"Polygon","coordinates":[[[41.988690944834865,34.366712101924151],[41.988754251687752,34.367028461400295],[41.988725654734722,34.367033519421881],[41.988546539493186,34.36706520259262],[41.988305331241726,34.367107868329128],[41.988252540657392,34.366864492244048],[41.988360911656393,34.366722182726804],[41.988516166671275,34.366700819751827],[41.98867464081696,34.366679013747408],[41.988684064826174,34.366677717089168],[41.988690944834865,34.366712101924151]]]},"properties":{"OBJECTID":23,"Name":"ديني","اسم_المؤسس":"جامع الفاروق","Shape_Length":157.97980300226584,"Shape_Area":1629.6627668105316,"رقم_القطعة":"8436"}},{"type":"Feature","id":24,"geometry":{"type":"Polygon","coordinates":[[[41.996663439473409,34.367595680080584],[41.99650293127295,34.367807648895152],[41.996199148486198,34.367649272130741],[41.996505379532991,34.367244859059362],[41.996808056735787,34.367404694491057],[41.996676627294875,34.367578263906957],[41.996663439473409,34.367595680080584]]]},"properties":{"OBJECTID":24,"Name":"ديني","اسم_المؤسس":" ","Shape_Length":171.85979839419747,"Shape_Area":1747.1764596092503,"رقم_القطعة":null}},{"type":"Feature","id":25,"geometry":{"type":"Polygon","coordinates":[[[41.983232429799372,34.360517419264632],[41.983379073704228,34.360595240585283],[41.983209486221227,34.3608240772543],[41.983058867048051,34.360745120496695],[41.982897264782864,34.360660406513986],[41.983067928598295,34.360430120709019],[41.983232429799372,34.360517419264632]]]},"properties":{"OBJECTID":25,"Name":"ديني","اسم_المؤسس":"مسجد","Shape_Length":127.80815941996468,"Shape_Area":1016.6192664313642,"رقم_القطعة":null}},{"type":"Feature","id":26,"geometry":{"type":"Polygon","coordinates":[[[41.976618891029588,34.368798513788434],[41.976442714322637,34.368831441040065],[41.975720820283598,34.368966360087327],[41.976088934658705,34.368428659022975],[41.976507499018517,34.368388709708107],[41.976618891029588,34.368798513788434]]]},"properties":{"OBJECTID":26,"Name":"ديني","اسم_المؤسس":" ","Shape_Length":238.74758149882021,"Shape_Area":3049.4284302868555,"رقم_القطعة":null}},{"type":"Feature","id":32,"geometry":{"type":"Polygon","coordinates":[[[41.97379460377676,34.374278273034214],[41.97362152077536,34.374503637319457],[41.973277565677755,34.37432502515712],[41.973455007721334,34.374098282574323],[41.97379460377676,34.374278273034214]]]},"properties":{"OBJECTID":32,"Name":"ديني","اسم_المؤسس":null,"Shape_Length":134.09123332986513,"Shape_Area":1110.0635559832733,"رقم_القطعة":"10021"}},{"type":"Feature","id":37,"geometry":{"type":"Polygon","coordinates":[[[41.986629109916763,34.376124007139744],[41.986097141238311,34.376215685424917],[41.986009530590295,34.37586268823997],[41.98654149712268,34.375771008642445],[41.986629109916763,34.376124007139744]]]},"properties":{"OBJECTID":37,"Name":"ديني","اسم_المؤسس":"قاعة مناسبات دينية","Shape_Length":179.99961435032452,"Shape_Area":1999.9830936605445,"رقم_القطعة":null}},{"type":"Feature","id":39,"geometry":{"type":"Polygon","coordinates":[[[41.982989039722462,34.379748204225749],[41.98349668334734,34.380006591355354],[41.98350593287276,34.380232183668205],[41.98343493337044,34.380220704231277],[41.983365307890203,34.380202676494193],[41.98329765901898,34.380178256481415],[41.983232572236737,34.380147655540583],[41.982838204457778,34.379940533267735],[41.982989039722462,34.379748204225749]]]},"properties":{"OBJECTID":39,"Name":"ديني","اسم_المؤسس":null,"Shape_Length":175.34541024670352,"Shape_Area":1598.188810093847,"رقم_القطعة":"12260"}},{"type":"Feature","id":43,"geometry":{"type":"Polygon","coordinates":[[[41.980775281493258,34.366299483864033],[41.981111576817995,34.366471134934976],[41.980725976991685,34.366969036396],[41.980396517446742,34.366796335246022],[41.980775281493258,34.366299483864033]]]},"properties":{"OBJECTID":43,"Name":"ديني","اسم_المؤسس":null,"Shape_Length":203.12941230190626,"Shape_Area":2363.3454085934272,"رقم_القطعة":null}},{"type":"Feature","id":44,"geometry":{"type":"Polygon","coordinates":[[[41.975149411860734,34.371813552048152],[41.974579749326992,34.372560686028407],[41.973693378834895,34.372096031549773],[41.975149411860734,34.371813552048152]]]},"properties":{"OBJECTID":44,"Name":"ديني","اسم_المؤسس":null,"Shape_Length":332.22482583087913,"Shape_Area":4733.8050350515541,"رقم_القطعة":null}},{"type":"Feature","id":46,"geometry":{"type":"Polygon","coordinates":[[[41.995134469054513,34.373207902919404],[41.994809929311508,34.373435091723998],[41.99479713643148,34.37344730245119],[41.994424399738243,34.373149707530793],[41.99472179477366,34.372886874854856],[41.995134469054513,34.373207902919404]]]},"properties":{"OBJECTID":46,"Name":"ديني","اسم_المؤسس":null,"Shape_Length":180.57743055743825,"Shape_Area":2004.5148991570584,"رقم_القطعة":null}},{"type":"Feature","id":47,"geometry":{"type":"Polygon","coordinates":[[[41.96018862035276,34.361857205122782],[41.959840170461618,34.362314107047254],[41.95928920790687,34.362025143067775],[41.959637658746523,34.361568242628898],[41.96018862035276,34.361857205122782]]]},"properties":{"OBJECTID":47,"Name":"ديني","اسم_المؤسس":null,"Shape_Length":240.00007306852351,"Shape_Area":3600.0021920534923,"رقم_القطعة":null}},{"type":"Feature","id":48,"geometry":{"type":"Polygon","coordinates":[[[41.955448866176937,34.367783510716137],[41.955976898307327,34.36806044927885],[41.955599359833911,34.368555415232478],[41.955071325591305,34.368278475154156],[41.955448866176937,34.367783510716137]]]},"properties":{"OBJECTID":48,"Name":"ديني","اسم_المؤسس":null,"Shape_Length":244.99995655432843,"Shape_Area":3737.4987536196259,"رقم_القطعة":null}},{"type":"Feature","id":50,"geometry":{"type":"Polygon","coordinates":[[[41.9732181790759,34.377352082866715],[41.97373298054471,34.377623438755442],[41.973499789995074,34.377927590804575],[41.973247555594583,34.37789112734265],[41.972930352727218,34.377724653988892],[41.9732181790759,34.377352082866715]]]},"properties":{"OBJECTID":50,"Name":"ديني","اسم_المؤسس":null,"Shape_Length":203.34888556772927,"Shape_Area":2659.7610291534465,"رقم_القطعة":null}},{"type":"Feature","id":51,"geometry":{"type":"Polygon","coordinates":[[[42.003043183370892,34.363049981754756],[42.002966810184446,34.363189441059085],[42.002964018655334,34.363193545109759],[42.002960409432447,34.363197184293128],[42.002956093806617,34.363200248611484],[42.002951202238378,34.363202647426903],[42.002945884132991,34.363204303157019],[42.002940298612927,34.363205166825288],[42.00293461649688,34.36320521260398],[42.002929013944538,34.363204442477247],[42.002923654662219,34.363202874960017],[42.002804942051718,34.363158167821474],[42.00265655193509,34.363102281911807],[42.002537843904982,34.363057573490906],[42.002532893860916,34.363055259476198],[42.002528503309861,34.363052267403475],[42.002524810357819,34.363048690330366],[42.002521919830158,34.363044632948352],[42.002519922055342,34.363040220135176],[42.002518880661604,34.363035590043623],[42.002518822256228,34.363030879031143],[42.002519754123284,34.363026230239313],[42.002521642214084,34.363021786021648],[42.002598019287653,34.362882326881447],[42.00267439602527,34.362742865002289],[42.002677187587899,34.362738761858637],[42.002680793547484,34.362735122763787],[42.002685110279685,34.362732059329602],[42.002690001862113,34.362729661426314],[42.002695321062227,34.362728006582472],[42.002700906522172,34.362727142026287],[42.002706588510399,34.36272709355837],[42.002712193297796,34.362727866345587],[42.002717550373887,34.362729433927335],[42.00283625899884,34.362774139466616],[42.002984647568205,34.362830026112064],[42.003103360902152,34.362874733971367],[42.003108309863116,34.362877047989414],[42.003112698283743,34.362880040994703],[42.003116393519988,34.362883620697644],[42.003119284036991,34.362887677163876],[42.003121281709653,34.36289208636348],[42.003122323230286,34.362896719150143],[42.003122378346468,34.362901428439443],[42.003121449836307,34.362906078955326],[42.003119561715756,34.362910521379327],[42.003043183370892,34.363049981754756]]]},"properties":{"OBJECTID":51,"Name":"ديني","اسم_المؤسس":null,"Shape_Length":164.8263162889867,"Shape_Area":1792.142733285757,"رقم_القطعة":null}},{"type":"Feature","id":52,"geometry":{"type":"Polygon","coordinates":[[[42.00792311135104,34.359576753630968],[42.008051484856061,34.359466634373923],[42.00805577534021,34.359463546165479],[42.008060647142209,34.359461121500473],[42.008065952976033,34.359459436112168],[42.008071532611702,34.35945853810933],[42.008077211025416,34.359458457035508],[42.00808282212968,34.359459198778488],[42.008088192129506,34.359460736064392],[42.008093158466927,34.359463021512568],[42.008097573143203,34.359465989356544],[42.008191305318057,34.359541139897132],[42.008308471841758,34.359635077481173],[42.008402200016967,34.35971022704453],[42.008405927154634,34.359713785069559],[42.008408851999903,34.359717825239876],[42.00841088313377,34.359722222709109],[42.008411963759151,34.359726848173608],[42.008412060615854,34.359731561835609],[42.008411168324386,34.359736213296131],[42.008409317921902,34.359740667485433],[42.0084065588104,34.359744786177785],[42.008402981216761,34.359748448170926],[42.008274605562107,34.359858566043528],[42.008146227496397,34.359968686552492],[42.00814193810961,34.359971775638968],[42.008137069539643,34.359974200228351],[42.008131762589805,34.359975885647962],[42.008126185060789,34.359976782701231],[42.008120504311535,34.359976860230226],[42.008114893268782,34.359976121192652],[42.008109521127373,34.359974585764391],[42.008104554693844,34.359972298517484],[42.008100143247276,34.359969330595248],[42.008006411856393,34.359894183585823],[42.007889246286247,34.359800243888898],[42.007795512938806,34.359725092246457],[42.007791788061361,34.359721535949262],[42.007788864298242,34.359717494835287],[42.007786833067449,34.359713093751637],[42.00778575139033,34.359708468306465],[42.007785653643914,34.359703759171801],[42.007786548045466,34.359699104958807],[42.007788401835427,34.359694653398869],[42.007791156504176,34.3596905312234],[42.007794733134233,34.359686871975377],[42.00792311135104,34.359576753630968]]]},"properties":{"OBJECTID":52,"Name":"ديني","اسم_المؤسس":null,"Shape_Length":164.82629823113558,"Shape_Area":1792.1434261699715,"رقم_القطعة":null}},{"type":"Feature","id":55,"geometry":{"type":"Polygon","coordinates":[[[41.981562051097455,34.353852199647356],[41.98124869947339,34.354228110973921],[41.980712525464561,34.353920685370746],[41.980709279404479,34.35391882467691],[41.981024932226305,34.353544232326065],[41.981562051097455,34.353852199647356]]]},"properties":{"OBJECTID":55,"Name":"ديني","اسم_المؤسس":null,"Shape_Length":221.9117944241487,"Shape_Area":3055.156492042468,"رقم_القطعة":null}},{"type":"Feature","id":56,"geometry":{"type":"Polygon","coordinates":[[[41.976962253562,34.351714054113238],[41.976974518606589,34.351788081309167],[41.976980828242645,34.351862851928722],[41.976981142105693,34.351937887643857],[41.976975458187873,34.352012708430635],[41.976963812850755,34.35208683564008],[41.976946280592742,34.352159795060203],[41.976942191284543,34.352167877891915],[41.976936874630972,34.352175211908872],[41.976930464567893,34.352181612354279],[41.976923122576096,34.352186917989627],[41.976915033613288,34.352190995156619],[41.976906401454691,34.352193741144227],[41.976897443559594,34.352195086776199],[41.976888385593149,34.352194998153685],[41.976879455741503,34.352193477509239],[41.976870878963339,34.352190563150586],[41.976772810380673,34.352153538171578],[41.976754408327544,34.352145040532825],[41.976737896390901,34.352134196031727],[41.976723705579431,34.352121287741156],[41.976712206313273,34.352106652604753],[41.976703698754939,34.352090672641644],[41.976698404974378,34.352073764974612],[41.976696463152415,34.352056370941945],[41.976697923974029,34.352038944577188],[41.976707390126435,34.351968485592913],[41.976710130994533,34.351897446419578],[41.976706121867451,34.351826467525491],[41.976695398890307,34.351756188835495],[41.976962253562,34.351714054113238]]]},"properties":{"OBJECTID":56,"Name":"ديني","اسم_المؤسس":null,"Shape_Length":140.63124097317592,"Shape_Area":1179.7972601015774,"رقم_القطعة":null}},{"type":"Feature","id":57,"geometry":{"type":"Polygon","coordinates":[[[41.971198084685803,34.374880413834937],[41.970961504286613,34.375182756022276],[41.970412159176831,34.37489157949323],[41.970648741915738,34.374589236469468],[41.971198084685803,34.374880413834937]]]},"properties":{"OBJECTID":57,"Name":"ديني","اسم_المؤسس":null,"Shape_Length":200.00018231262442,"Shape_Area":2399.9493996670994,"رقم_القطعة":null}},{"type":"Feature","id":59,"geometry":{"type":"Polygon","coordinates":[[[41.992700001289982,34.371250320448461],[41.992777846091442,34.371572763571095],[41.9926657582903,34.371712907178718],[41.992044577380099,34.371368560432714],[41.992700001289982,34.371250320448461]]]},"properties":{"OBJECTID":59,"Name":"ديني","اسم_المؤسس":null,"Shape_Length":185.65684649230928,"Shape_Area":1768.0480825056047,"رقم_القطعة":"14249"}},{"type":"Feature","id":60,"geometry":{"type":"Polygon","coordinates":[[[41.981807924515472,34.350341459167716],[41.982051693280859,34.350043108897857],[41.982449185649166,34.350266519819158],[41.982205417735315,34.350564869932008],[41.981807924515472,34.350341459167716]]]},"properties":{"OBJECTID":60,"Name":"ديني","اسم_المؤسس":null,"Shape_Length":168.40075721501557,"Shape_Area":1768.0153692051233,"رقم_القطعة":null}},{"type":"Feature","id":61,"geometry":{"type":"Polygon","coordinates":[[[41.974524112203191,34.364639622067763],[41.974352333426744,34.3646717162095],[41.974182047863422,34.364585042129391],[41.974409400358944,34.364277885510475],[41.974687200792538,34.364419285470881],[41.974524112203191,34.364639622067763]]]},"properties":{"OBJECTID":61,"Name":"ديني","اسم_المؤسس":null,"Shape_Length":133.28899123749315,"Shape_Area":1134.3596089877774,"رقم_القطعة":null}},{"type":"Feature","id":62,"geometry":{"type":"Polygon","coordinates":[[[41.995426807009714,34.352385508170734],[41.995175672791206,34.352775229934899],[41.99469661845103,34.352562885313851],[41.994947652450513,34.352173322876055],[41.995426807009714,34.352385508170734]]]},"properties":{"OBJECTID":62,"Name":"ديني","اسم_المؤسس":null,"Shape_Length":198.06885710361223,"Shape_Area":2451.7213226866588,"رقم_القطعة":null}},{"type":"Feature","id":63,"geometry":{"type":"Polygon","coordinates":[[[42.002163532011004,34.341922782770602],[42.001912457623789,34.342312515667153],[42.001433449923908,34.342100194900368],[42.001684424116192,34.341710621334066],[42.002163532011004,34.341922782770602]]]},"properties":{"OBJECTID":63,"Name":"ديني","اسم_المؤسس":null,"Shape_Length":198.06885710430296,"Shape_Area":2451.7213227043621,"رقم_القطعة":null}},{"type":"Feature","id":64,"geometry":{"type":"Polygon","coordinates":[[[41.997391183855967,34.347115126807232],[41.997007375656722,34.347711192213765],[41.995857541062684,34.347201840401141],[41.996241353437007,34.346605777409444],[41.997391183855967,34.347115126807232]]]},"properties":{"OBJECTID":64,"Name":"ديني","اسم_المؤسس":null,"Shape_Length":390.00016105893133,"Shape_Area":9000.0058840352212,"رقم_القطعة":null}},{"type":"Feature","id":65,"geometry":{"type":"Polygon","coordinates":[[[41.958522093094381,34.351251577463429],[41.958288046119108,34.351648558642751],[41.957800075264622,34.351450659293938],[41.958034028717911,34.35105383990107],[41.958522093094381,34.351251577463429]]]},"properties":{"OBJECTID":65,"Name":"ديني","اسم_المؤسس":null,"Shape_Length":198.06903883790037,"Shape_Area":2451.7258376942464,"رقم_القطعة":null}},{"type":"Feature","id":68,"geometry":{"type":"Polygon","coordinates":[[[41.959797943327061,34.372627525571211],[41.959340056842443,34.372385020007627],[41.959638478577283,34.372010286020604],[41.96009474024094,34.37225487781452],[41.959797943327061,34.372627525571211]]]},"properties":{"OBJECTID":68,"Name":"ديني","اسم_المؤسس":null,"Shape_Length":199.40251380440208,"Shape_Area":2484.8607001740302,"رقم_القطعة":null}},{"type":"Feature","id":69,"geometry":{"type":"Polygon","coordinates":[[[41.964473990410617,34.344058260671261],[41.964885550238073,34.343823932687826],[41.965329824904423,34.34400397143235],[41.965139082851806,34.344327793953703],[41.964473990410617,34.344058260671261]]]},"properties":{"OBJECTID":69,"Name":"ديني","اسم_المؤسس":null,"Shape_Length":199.61827930397084,"Shape_Area":2273.2503924494199,"رقم_القطعة":null}},{"type":"Feature","id":71,"geometry":{"type":"Polygon","coordinates":[[[41.970588947334733,34.346899760770796],[41.970510593350099,34.347033804776778],[41.970009514722946,34.346832302765627],[41.969962751345818,34.346811086436027],[41.969918720390623,34.346786170462522],[41.969877845903021,34.346757794802535],[41.969840521528624,34.346726232732429],[41.969807106721916,34.346691788215558],[41.969777923284489,34.346654792974824],[41.969753252266003,34.346615603297884],[41.969733331257558,34.346574596605755],[41.96969741236876,34.346488728016126],[41.97033969771541,34.346303898014213],[41.970588947334733,34.346899760770796]]]},"properties":{"OBJECTID":71,"Name":"ديني","اسم_المؤسس":null,"Shape_Length":249.73689262756966,"Shape_Area":3695.3502107023487,"رقم_القطعة":null}},{"type":"Feature","id":74,"geometry":{"type":"Polygon","coordinates":[[[41.988168471252635,34.382448885712023],[41.987967381241091,34.382639590762771],[41.987377289770052,34.382328953355703],[41.987601224952023,34.382036553434283],[41.988168471252635,34.382448885712023]]]},"properties":{"OBJECTID":74,"Name":"ديني","اسم_المؤسس":null,"Shape_Length":200.29353420830211,"Shape_Area":2212.0943096972251,"رقم_القطعة":null}},{"type":"Feature","id":75,"geometry":{"type":"Polygon","coordinates":[[[41.974723973181177,34.358986746140808],[41.974973905960113,34.358658905983347],[41.975414696210983,34.358890019405656],[41.975164764601026,34.3592178604002],[41.974723973181177,34.358986746140808]]]},"properties":{"OBJECTID":75,"Name":"ديني","اسم_المؤسس":null,"Shape_Length":182.09630107607921,"Shape_Area":2066.3112355845424,"رقم_القطعة":"9382"}},{"type":"Feature","id":76,"geometry":{"type":"Polygon","coordinates":[[[41.969321896441151,34.357166189103836],[41.969286205889688,34.357904987516427],[41.968915029855047,34.357710345561372],[41.968899969608955,34.357700828222754],[41.96888712915392,34.357689287447172],[41.968876900178792,34.357676073384788],[41.968869593585637,34.357661587723591],[41.968865430293505,34.357646269490182],[41.968864536513159,34.357630584347618],[41.96888658316476,34.357174267839284],[41.968887183701938,34.35717037274884],[41.968888591534032,34.357166623919255],[41.968890762851423,34.357163135088527],[41.968893631807269,34.357160011515631],[41.968897110453902,34.3571573481792],[41.968901094077388,34.357155226943902],[41.968905461006734,34.35715371115672],[41.968910080279372,34.357152847263656],[41.968914809373665,34.357152662160551],[41.969321896441151,34.357166189103836]]]},"properties":{"OBJECTID":76,"Name":"ديني","اسم_المؤسس":null,"Shape_Length":225.04791801673056,"Shape_Area":2813.4012727451423,"رقم_القطعة":null}}]}