{"type":"FeatureCollection","features":[{"type":"Feature","id":1,"geometry":{"type":"Polygon","coordinates":[[[41.975285265837556,34.367794336680511],[41.975191282096468,34.367917606507284],[41.975188727692327,34.367920436833479],[41.975185672244002,34.367922900764135],[41.975182188621346,34.367924937935783],[41.975178364195969,34.367926498448838],[41.975174292184285,34.36792754397969],[41.975170072733583,34.367928047754219],[41.975165810877314,34.367927998203115],[41.97516161100895,34.367927396392204],[41.975157575859605,34.367926257850037],[41.97515380528445,34.367924608991899],[41.973996607676249,34.3673179371728],[41.973993194521945,34.367315819874108],[41.973990223163021,34.367313285302558],[41.973987766520956,34.367310397486584],[41.973985884643341,34.367307225274658],[41.973984624926764,34.367303848639665],[41.973984016399768,34.367300350705307],[41.973984076207458,34.367296816687137],[41.973984801977082,34.367293333176669],[41.973986176130552,34.367289987135209],[41.973988164607199,34.367286860516558],[41.974380100862433,34.36677280463649],[41.974387250353772,34.366764879658724],[41.974395806864642,34.366757980498406],[41.974405560029204,34.366752275424105],[41.974416269201768,34.366747906399098],[41.974427670772741,34.366744980790834],[41.974439483535207,34.366743569437745],[41.974451417437393,34.366743708239099],[41.974463178821843,34.366745392619265],[41.974474476046929,34.366748582799261],[41.974485033446662,34.366753198950377],[41.974855750922636,34.366947552194908],[41.975019036376779,34.366917043882317],[41.975023728931554,34.366916517788276],[41.975028459821239,34.366916675820846],[41.975033086449457,34.366917512435045],[41.975037466604959,34.366919002245908],[41.975041469354323,34.366921100664875],[41.975044971751828,34.366923743078395],[41.975047866633282,34.366926850066697],[41.975050068014525,34.366930326371062],[41.975051506938392,34.366934066403211],[41.975285265837556,34.367794336680511]]]},"properties":{"OBJECTID":1,"Name":"ترفيهي","اسم_المؤسس":"قاعة العاب رياضية مغلقة","Shape_Length":386.08097691265658,"Shape_Area":8532.2789905671179}},{"type":"Feature","id":59,"geometry":{"type":"Polygon","coordinates":[[[41.987447640167645,34.369495234225731],[41.987712249350281,34.369698018191997],[41.987789076658714,34.36975689478286],[41.987978371639151,34.370462961310352],[41.988107235856191,34.370943614426395],[41.987921429924953,34.371209794647619],[41.987883613770393,34.371263967343687],[41.987778867710801,34.371414021953733],[41.987768898649634,34.371425967369767],[41.987756742868633,34.371436427541319],[41.987742719099444,34.371445133277206],[41.987727188851608,34.371451856706386],[41.987710559000917,34.371456422932923],[41.987693259108447,34.371458714195647],[41.987675740366235,34.371458670795512],[41.987658458283001,34.371456293321323],[41.987641860768413,34.371451643842313],[41.987626380433959,34.371444843392013],[41.987390012150733,34.371319797624672],[41.987332811419947,34.371295358493171],[41.987026319420785,34.371138842198931],[41.986907323873012,34.371078074663238],[41.986849610378087,34.370812078925113],[41.986597086298083,34.37074366386414],[41.98644181847942,34.37013988203929],[41.986612327389217,34.369999286071234],[41.986517411614564,34.369612319919128],[41.986739939811436,34.36957086010262],[41.987382613770826,34.369451117821292],[41.987447640167645,34.369495234225731]]]},"properties":{"OBJECTID":59,"Name":"ترفيهي","اسم_المؤسس":"ملعب","Shape_Length":610.14048023887699,"Shape_Area":23078.375410286186}},{"type":"Feature","id":60,"geometry":{"type":"Polygon","coordinates":[[[41.987391818910368,34.36927773053025],[41.986583569792494,34.369426766488168],[41.985792560455401,34.369572617979834],[41.985625618225882,34.368967628953904],[41.985543305260215,34.368649519643675],[41.985568623515213,34.368618718457462],[41.985645630880917,34.368638092094145],[41.985723880881338,34.368651598004206],[41.985802927079881,34.368659159132918],[41.985882318497453,34.368660732342079],[41.985961602185398,34.368656308656114],[41.986040325809675,34.368645913313308],[41.986886428274666,34.368492077881307],[41.986923316126038,34.368621251096641],[41.986946847754481,34.368707801993786],[41.986973637983901,34.368806336594261],[41.987000427198403,34.368904871210717],[41.98702882303288,34.369009308538018],[41.987056398002451,34.369110740841315],[41.987334508427821,34.369058749741797],[41.987335753801595,34.369063512009305],[41.987391818910368,34.36927773053025]]]},"properties":{"OBJECTID":60,"Name":"ترفيهي","اسم_المؤسس":"مركز شباب","Shape_Length":505.21612899400992,"Shape_Area":12759.424978720608}},{"type":"Feature","id":61,"geometry":{"type":"Polygon","coordinates":[[[41.986098178498615,34.37025503635352],[41.985837907751495,34.370302015513396],[41.985766506564978,34.370031604814628],[41.986026777655354,34.3699846267209],[41.986098178498615,34.37025503635352]]]},"properties":{"OBJECTID":61,"Name":"ترفيهي","اسم_المؤسس":"مسبح","Shape_Length":110.47411935575838,"Shape_Area":753.14380175862243}},{"type":"Feature","id":62,"geometry":{"type":"Polygon","coordinates":[[[41.983861210642452,34.367983001690831],[41.984079592994007,34.368094562648906],[41.983945923741835,34.368293041326957],[41.984268699496589,34.368466918677086],[41.984035870516308,34.36876879198492],[41.983489046523282,34.368466574281619],[41.983861210642452,34.367983001690831]]]},"properties":{"OBJECTID":62,"Name":"ترفيهي","اسم_المؤسس":" ","Shape_Length":248.17959637105514,"Shape_Area":2990.2736581356594}},{"type":"Feature","id":64,"geometry":{"type":"Polygon","coordinates":[[[41.982905993477544,34.366122848597342],[41.984111518201757,34.364437228708994],[41.98414090831109,34.364398449404881],[41.985088258295669,34.364868939206026],[41.984435706350951,34.365755186843266],[41.983803421583602,34.366594376312783],[41.982905993477544,34.366122848597342]]]},"properties":{"OBJECTID":64,"Name":"ترفيهي","اسم_المؤسس":"المنتزه الرئيسي في عنه","Shape_Length":647.07612604234896,"Shape_Area":22393.186329975753}},{"type":"Feature","id":69,"geometry":{"type":"Polygon","coordinates":[[[41.988524282756678,34.360457490904274],[41.988710997655488,34.360604559248955],[41.988903019542974,34.360746852725008],[41.989100169752895,34.360884237761788],[41.989302265526831,34.36101658810037],[41.98950912100436,34.361143782065298],[41.989597592204269,34.361194799655379],[41.988984689573819,34.36183382732218],[41.988910274180803,34.361911415074879],[41.987674487305853,34.361015445288906],[41.987753167841795,34.360940843142664],[41.988385477731853,34.360341301449687],[41.988524282756678,34.360457490904274]]]},"properties":{"OBJECTID":69,"Name":"ترفيهي","اسم_المؤسس":"ملعب النصر","Shape_Length":498.69118572738751,"Shape_Area":14603.594447818768}},{"type":"Feature","id":71,"geometry":{"type":"Polygon","coordinates":[[[41.989853092651558,34.370392232628987],[41.990236620276661,34.370317781736631],[41.99042466779261,34.371076360384365],[41.990335496702379,34.371211956481936],[41.989787705958364,34.371929045549869],[41.989436169433723,34.371749234434802],[41.989859344454359,34.371199235802614],[41.989896187261145,34.371140411725314],[41.989925485614528,34.37107874163577],[41.989946926049072,34.371014886710498],[41.989960277554516,34.370949534051661],[41.989965394480912,34.37088338670052],[41.989962224970398,34.370817156220063],[41.989950800828758,34.370751553027368],[41.989899561654745,34.370563121151825],[41.989853092651558,34.370392232628987]]]},"properties":{"OBJECTID":71,"Name":"ترفيهي","اسم_المؤسس":"متنزه اليرموك","Shape_Length":436.35550637724356,"Shape_Area":6837.7974562976242}},{"type":"Feature","id":72,"geometry":{"type":"Polygon","coordinates":[[[41.983682928230039,34.359668998618069],[41.983418175687191,34.3600225499559],[41.983156094856241,34.359889095421892],[41.983428683500165,34.359535719442228],[41.983682928230039,34.359668998618069]]]},"properties":{"OBJECTID":72,"Name":"ترفيهي","اسم_المؤسس":"لعب خماسي كرة قدم","Shape_Length":148.74085119201257,"Shape_Area":1298.2177021202633}},{"type":"Feature","id":73,"geometry":{"type":"MultiPolygon","coordinates":[[[[41.99462136754024,34.369494566318991],[41.994623554690165,34.36949160578304],[41.994623686232494,34.369495299152923],[41.99462136754024,34.369494566318991]]],[[[41.99462136754024,34.369494566318991],[41.99430509997535,34.369920547626215],[41.993965901093979,34.369978396742511],[41.993853798398206,34.369535574470341],[41.994395763745445,34.369423282692296],[41.99462136754024,34.369494566318991]]]]},"properties":{"OBJECTID":73,"Name":"ترفيهي","اسم_المؤسس":null,"Shape_Length":212.26459785832213,"Shape_Area":2730.6624396583179}},{"type":"Feature","id":74,"geometry":{"type":"Polygon","coordinates":[[[41.989082224570787,34.376122558056096],[41.989076581688906,34.376127523836843],[41.989064918457842,34.376137693577675],[41.989052853352526,34.376148118319094],[41.989047714814902,34.376152714819845],[41.987833039081835,34.377276765567366],[41.987323793644059,34.377760754611934],[41.986133328271883,34.377137735331296],[41.986593487624553,34.376512579237634],[41.98648729319487,34.376455453259375],[41.986703193045116,34.376266987788817],[41.986721891420203,34.376236331336827],[41.986735076606259,34.376202930765757],[41.986742360798353,34.376167768458878],[41.986743529752587,34.376131878615951],[41.986738549087477,34.376096316835138],[41.986613581386486,34.375548695113011],[41.986830838516624,34.375330237737202],[41.987954888014293,34.375926453083864],[41.987984989497356,34.37588894895385],[41.988068079471169,34.375785425704152],[41.988177797717981,34.37564872594379],[41.989082224570787,34.376122558056096]]]},"properties":{"OBJECTID":74,"Name":"ترفيهي","اسم_المؤسس":null,"Shape_Length":865.93419359757445,"Shape_Area":37022.597400293162}},{"type":"Feature","id":75,"geometry":{"type":"Polygon","coordinates":[[[41.986460428505595,34.375613422000704],[41.986348117291627,34.375634767897836],[41.985994956594951,34.3757044644586],[41.985937802382679,34.3754930321305],[41.986307844564706,34.37542138389621],[41.986398166180678,34.375403895822096],[41.986460428505595,34.375613422000704]]]},"properties":{"OBJECTID":75,"Name":"ترفيهي","اسم_المؤسس":"ملعب خماسي","Shape_Length":135.51469777659503,"Shape_Area":1048.6272689298758}},{"type":"Feature","id":76,"geometry":{"type":"Polygon","coordinates":[[[41.977603340056397,34.376296826595578],[41.976952137667134,34.37712794143404],[41.975807604131802,34.376521384147139],[41.976459953000102,34.375690878244242],[41.977473307409383,34.376227915895925],[41.977603340056397,34.376296826595578]]]},"properties":{"OBJECTID":76,"Name":"ترفيهي","اسم_المؤسس":null,"Shape_Length":469.87590211957462,"Shape_Area":13742.734836511889}},{"type":"Feature","id":89,"geometry":{"type":"Polygon","coordinates":[[[41.996098165356393,34.372505492170042],[41.995524423933141,34.372919566090452],[41.994811026038029,34.372239946938087],[41.995384766847067,34.371825876387462],[41.996098165356393,34.372505492170042]]]},"properties":{"OBJECTID":89,"Name":"ترفيهي","اسم_المؤسس":null,"Shape_Length":339.99991826498888,"Shape_Area":6999.9959139631264}},{"type":"Feature","id":91,"geometry":{"type":"Polygon","coordinates":[[[41.993855650409813,34.36953910673752],[41.993625169485369,34.36859927426034],[41.994831217958406,34.369215266501705],[41.994623686232494,34.369495299152923],[41.994397615776386,34.369426814950245],[41.993855650409813,34.36953910673752]]]},"properties":{"OBJECTID":91,"Name":"ترفيهي","اسم_المؤسس":null,"Shape_Length":346.84969383858385,"Shape_Area":5796.6820752585718}},{"type":"Feature","id":102,"geometry":{"type":"Polygon","coordinates":[[[41.995524423933141,34.372919566090452],[41.995223686028318,34.373129052813866],[41.994232779494915,34.372358198823079],[41.995117027774683,34.3715630639499],[41.995384766847067,34.371825876387462],[41.994811026038029,34.372239946938087],[41.995524423933141,34.372919566090452]]]},"properties":{"OBJECTID":102,"Name":"ترفيهي","اسم_المؤسس":null,"Shape_Length":489.41603045935489,"Shape_Area":7832.3297605413418}},{"type":"Feature","id":103,"geometry":{"type":"Polygon","coordinates":[[[41.954984061815843,34.366756139180325],[41.954266945679151,34.367702486430012],[41.953604531277463,34.367357327405735],[41.954321652514821,34.366410983764027],[41.954984061815843,34.366756139180325]]]},"properties":{"OBJECTID":103,"Name":"ترفيهي","اسم_المؤسس":null,"Shape_Length":392.09034362338559,"Shape_Area":8931.2509631373468}},{"type":"Feature","id":106,"geometry":{"type":"Polygon","coordinates":[[[42.003542298087389,34.358495127712622],[42.003204787454592,34.359112371741581],[42.002035699558434,34.358672707847234],[42.003542298087389,34.358495127712622]]]},"properties":{"OBJECTID":106,"Name":"ترفيهي","اسم_المؤسس":null,"Shape_Length":333.44471372763485,"Shape_Area":4443.9250379573004}},{"type":"Feature","id":108,"geometry":{"type":"Polygon","coordinates":[[[42.008729572898162,34.360436750781375],[42.008725281275446,34.360439838140515],[42.008720411612032,34.360442262780246],[42.008715104743636,34.360443950927795],[42.008709527095561,34.360444845307164],[42.00870384529577,34.360444924692814],[42.008698236390316,34.360444185630563],[42.008692866317148,34.360442648375596],[42.008687895561444,34.360440363062892],[42.00868348298409,34.360437395191013],[42.008472583711644,34.360268310527118],[42.008378852644924,34.360193161113216],[42.00837512982941,34.360189602981826],[42.008372208193229,34.360185561831017],[42.008370171554006,34.360181162694296],[42.008369092041313,34.360176538103772],[42.008368997420959,34.360171826189713],[42.008369887545634,34.360167174782831],[42.00837174226956,34.360162719586356],[42.008374499190843,34.36015860004705],[42.008378074758781,34.36015494170978],[42.008506453853798,34.360044820934405],[42.009027502346612,34.359597861385261],[42.009031793787891,34.35959477041564],[42.009036663361918,34.359592344865689],[42.009041971417361,34.359590661183368],[42.009047548843647,34.359589762288927],[42.009053229627035,34.359589686519449],[42.009058840648677,34.359590425514895],[42.009064209521249,34.359591960982016],[42.009069176943939,34.359594245461359],[42.009073589519517,34.359597214221864],[42.009167321547054,34.359672363084677],[42.009378219516314,34.359841448396651],[42.009381943441376,34.359845006469499],[42.009384869358364,34.359849044785776],[42.009386900642426,34.359853444937599],[42.009387982409081,34.359858070363757],[42.009388078138556,34.359862781346926],[42.009387187051225,34.359867434586185],[42.009385332387623,34.35987188979508],[42.009382577633467,34.359876007499629],[42.009378997907476,34.359879669572777],[42.009250624509171,34.359989788385249],[42.008729572898162,34.360436750781375]]]},"properties":{"OBJECTID":108,"Name":"ترفيهي","اسم_المؤسس":null,"Shape_Length":268.82617741189375,"Shape_Area":4132.141969862103}},{"type":"Feature","id":109,"geometry":{"type":"Polygon","coordinates":[[[42.007746969419514,34.363198204394223],[42.006394929400017,34.364370375929404],[42.007243780478888,34.3627974922927],[42.007746969419514,34.363198204394223]]]},"properties":{"OBJECTID":109,"Name":"ترفيهي","اسم_المؤسس":null,"Shape_Length":435.49883531193183,"Shape_Area":5779.8807659873373}},{"type":"Feature","id":110,"geometry":{"type":"Polygon","coordinates":[[[42.005411041154737,34.361558803260884],[42.004844607775688,34.361351700199144],[42.005031262058154,34.361038571550139],[42.005495256553168,34.361405014306378],[42.005411041154737,34.361558803260884]]]},"properties":{"OBJECTID":110,"Name":"ترفيهي","اسم_المؤسس":null,"Shape_Length":173.4671832182747,"Shape_Area":1625.509983998076}},{"type":"Feature","id":111,"geometry":{"type":"Polygon","coordinates":[[[41.970595201204652,34.337858550500748],[41.970828381573185,34.33776777417868],[41.971062981127552,34.337679550386582],[41.971298959265781,34.337593894390366],[41.971536275147784,34.337510821011534],[41.971774887702338,34.337430344624607],[41.972014755634241,34.33735247915466],[41.972255837431469,34.337277238074861],[41.972498091372266,34.33720463440423],[41.972741475532459,34.337134680705297],[41.97298594779263,34.337067389082009],[41.973231465845409,34.337002771177609],[41.973477987202813,34.336940838172609],[41.973725469203551,34.336881600782917],[41.97397386902044,34.33682506925787],[41.97422314366775,34.3367712533786],[41.974473250008693,34.336720162456288],[41.97472414476281,34.336671805330525],[41.974975784513518,34.336626190367824],[41.97522812571556,34.336583325460161],[41.975481124702547,34.336543218023621],[41.975734737694502,34.33650587499713],[41.975988920805428,34.336471302841197],[41.976243630050881,34.33643950753688],[41.97649882135557,34.336410494584733],[41.976754450560996,34.336384269003773],[41.977010473433019,34.336360835330751],[41.977266845669568,34.336340197619258],[41.977523522908264,34.336322359439073],[41.977780460734074,34.336307323875559],[41.978037614687004,34.336295093529095],[41.978294940269762,34.336285670514656],[41.978552392955457,34.336279056461422],[41.980055919485935,34.336278598959531],[41.976059664428227,34.343117127708581],[41.9753488933423,34.344333279731352],[41.972868899159401,34.343336036404501],[41.968551765752522,34.341597713170117],[41.965830443628242,34.340497011899643],[41.970595201204652,34.337858550500748]]]},"properties":{"OBJECTID":111,"Name":"ترفيهي","اسم_المؤسس":null,"Shape_Length":3392.4076743990613,"Shape_Area":605373.43905355129}},{"type":"Feature","id":112,"geometry":{"type":"Polygon","coordinates":[[[41.970504721324801,34.372534521608642],[41.96978352379972,34.373446034133174],[41.970035180005105,34.373568864731922],[41.969296471627644,34.374537555389367],[41.967428361120206,34.373560224238538],[41.968838424281195,34.37171313804199],[41.968874799865951,34.371683813180425],[41.968888944612729,34.371678043367631],[41.970504721324801,34.372534521608642]]]},"properties":{"OBJECTID":112,"Name":"ترفيهي","اسم_المؤسس":null,"Shape_Length":903.56561228817111,"Shape_Area":47239.434453037386}},{"type":"Feature","id":114,"geometry":{"type":"Polygon","coordinates":[[[41.986629109916763,34.376124007139744],[41.986627600029102,34.376141927920855],[41.986623215657239,34.376159369579021],[41.986616071919009,34.37617587415901],[41.986606356383312,34.376191008309874],[41.98659432414518,34.376204374663224],[41.986376769636927,34.376399237857164],[41.985452415360307,34.375901663267484],[41.98548320893476,34.375862340046602],[41.986087629559641,34.376177361671402],[41.986097141238311,34.376215685424917],[41.986629109916763,34.376124007139744]]]},"properties":{"OBJECTID":114,"Name":"ترفيهي","اسم_المؤسس":null,"Shape_Length":265.81822730375916,"Shape_Area":1127.4947095666839}},{"type":"Feature","id":115,"geometry":{"type":"Polygon","coordinates":[[[41.985431125753998,34.375832385747501],[41.98548320893476,34.375862340046602],[41.985452415360307,34.375901663267484],[41.984936976244263,34.375625696715993],[41.985030025677638,34.375582329045919],[41.985103669304749,34.375558054167762],[41.985254648431386,34.375526619879054],[41.985394161536973,34.37550088180231],[41.98551394623388,34.37547878282799],[41.985734164060155,34.375438154231482],[41.985969484029248,34.375394738926261],[41.986226385043508,34.375347180652831],[41.986342970791846,34.375326760769347],[41.986474087644559,34.375295830816377],[41.986542822625083,34.375274322355835],[41.986606362211973,34.375248959317041],[41.986687810733976,34.375210764705606],[41.98674155089904,34.375247975644236],[41.98644154423642,34.375549873750693],[41.986398166180678,34.375403895822096],[41.985937802382679,34.3754930321305],[41.985994956594951,34.3757044644586],[41.985890107090263,34.375728132686653],[41.985836665741012,34.37553696392159],[41.985831704056565,34.375527471604222],[41.985825299874371,34.375518886218281],[41.985817615267543,34.375511425037445],[41.985808844713418,34.375505276884731],[41.985799210171812,34.375500597353827],[41.985788955467811,34.375497504871426],[41.985778340121193,34.375496077700191],[41.985767632778668,34.375496351958098],[41.985757104415093,34.375498320704395],[41.985177752444841,34.37560781319219],[41.985165165815452,34.375615275427165],[41.98515519224641,34.375625084229874],[41.9851484498272,34.375636631722905],[41.985145356404928,34.375649202277366],[41.985146103688962,34.37566201686213],[41.985150645369799,34.375674281322574],[41.985158699988538,34.375685235596379],[41.985169768379336,34.375694200816881],[41.985431125753998,34.375832385747501]]]},"properties":{"OBJECTID":115,"Name":"ترفيهي","اسم_المؤسس":null,"Shape_Length":505.85921423602781,"Shape_Area":2151.7751875939257}},{"type":"Feature","id":119,"geometry":{"type":"Polygon","coordinates":[[[42.009753152690763,34.368839895063353],[42.009819027110794,34.368956140391944],[42.009766479274965,34.36907696437143],[42.009626291945736,34.369131588000776],[42.00948058199026,34.369088015480536],[42.009414707874953,34.36897176905179],[42.009467255120306,34.368850946125932],[42.009607444284754,34.368796322642716],[42.009753152690763,34.368839895063353]]]},"properties":{"OBJECTID":119,"Name":"ترفيهي","اسم_المؤسس":null,"Shape_Length":114.04388537363029,"Shape_Area":981.22751252928686}},{"type":"Feature","id":120,"geometry":{"type":"Polygon","coordinates":[[[42.009745507689928,34.36926310959727],[42.00974508875538,34.369262945941337],[42.009250563719746,34.369069172872869],[42.009251800964172,34.369067052118162],[42.00948707704584,34.368663460016442],[42.009979046013157,34.368853297468128],[42.009745507689928,34.36926310959727]],[[42.009753152690763,34.368839895063353],[42.009607444284754,34.368796322642716],[42.009467255120306,34.368850946125932],[42.009414707874953,34.36897176905179],[42.00948058199026,34.369088015480536],[42.009626291945736,34.369131588000776],[42.009766479274965,34.36907696437143],[42.009819027110794,34.368956140391944],[42.009753152690763,34.368839895063353]]]},"properties":{"OBJECTID":120,"Name":"ترفيهي","اسم_المؤسس":null,"Shape_Length":314.68736556658718,"Shape_Area":1534.781502880528}},{"type":"Feature","id":121,"geometry":{"type":"Polygon","coordinates":[[[41.954624576646452,34.352198763726875],[41.954439324338594,34.352066798331805],[41.9542571283108,34.351931938051997],[41.954078054309242,34.351794231561435],[41.953902166952346,34.35165372856121],[41.953729529707452,34.351510479761522],[41.953560204867919,34.351364536863414],[41.953394253530639,34.351215952540045],[41.953231735574015,34.35106478041773],[41.953072709636288,34.350911075056523],[41.952917233094489,34.350754891930507],[41.952765362043628,34.350596287407775],[41.952617151276549,34.350435318730085],[41.952472654264113,34.350272043992156],[41.952331923135944,34.350106522120711],[41.952195008661612,34.349938812853161],[41.952061960232328,34.349768976716071],[41.958072959990602,34.346347363054583],[41.954624576646452,34.352198763726875]]]},"properties":{"OBJECTID":121,"Name":"ترفيهي","اسم_المؤسس":null,"Shape_Length":1753.6202611562499,"Shape_Area":122659.00447752679}},{"type":"Feature","id":122,"geometry":{"type":"Polygon","coordinates":[[[41.97161225639482,34.34570168449023],[41.971083002765134,34.345853994458913],[41.971040022557062,34.345802298093176],[41.970992457184245,34.345754786538528],[41.970940712193872,34.345711864883299],[41.970885228768971,34.345673899081881],[41.970826479966853,34.345641212834529],[41.970764966685756,34.34561408482751],[41.970507922627796,34.345510717037939],[41.971038690828316,34.344602679042673],[41.971527417723692,34.344799214864985],[41.97117673456281,34.345399170421452],[41.971548198407646,34.345548549112543],[41.97161225639482,34.34570168449023]]]},"properties":{"OBJECTID":122,"Name":"ترفيهي","اسم_المؤسس":null,"Shape_Length":409.98209910291627,"Shape_Area":7326.3313519781605}},{"type":"Feature","id":123,"geometry":{"type":"Polygon","coordinates":[[[41.969559800530476,34.34777294218587],[41.969123783569735,34.348518826097411],[41.968517742237694,34.348275110544243],[41.968849497381164,34.347707591245218],[41.968953762520989,34.347529227680802],[41.969559800530476,34.34777294218587]]]},"properties":{"OBJECTID":123,"Name":"ترفيهي","اسم_المؤسس":null,"Shape_Length":308.00005066236076,"Shape_Area":5704.0017583969156}},{"type":"Feature","id":124,"geometry":{"type":"Polygon","coordinates":[[[41.986935889337111,34.380953474652486],[41.986942629259133,34.380960755916028],[41.986945495318807,34.380969621361231],[41.986944051183421,34.380978721304757],[41.986938516708207,34.380986670362624],[41.986929734466109,34.380992258362397],[41.986919041474138,34.380994634581235],[41.986908065644478,34.380993437261026],[41.986898477948998,34.380988848682982],[41.985603136236165,34.380303274874159],[41.985839898048539,34.380156749494937],[41.986935889337111,34.380953474652486]]]},"properties":{"OBJECTID":124,"Name":"ترفيهي","اسم_المؤسس":null,"Shape_Length":310.93080031816442,"Shape_Area":2158.9995997312649}},{"type":"Feature","id":126,"geometry":{"type":"Polygon","coordinates":[[[41.989311357247651,34.378786486206117],[41.98859494582387,34.379463966937287],[41.987941251917505,34.37898877645307],[41.988657666230864,34.378311299419856],[41.989311357247651,34.378786486206117]]]},"properties":{"OBJECTID":126,"Name":"ترفيهي","اسم_المؤسس":null,"Shape_Length":360.0001707819207,"Shape_Area":8000.00797439283}},{"type":"Feature","id":129,"geometry":{"type":"Polygon","coordinates":[[[41.994491911369551,34.371015457036172],[41.994651410638205,34.371140248508304],[41.994242483878473,34.371506130978595],[41.994094525037703,34.371638002384159],[41.993976044610235,34.371545700560041],[41.993738468598877,34.371360620345484],[41.993619361625854,34.371265812307129],[41.993711974457646,34.371225859310911],[41.993806234022564,34.371189963448451],[41.993901962685378,34.371158192366693],[41.994457929401698,34.370988868973988],[41.994491911369551,34.371015457036172]]]},"properties":{"OBJECTID":129,"Name":"ترفيهي","اسم_المؤسس":null,"Shape_Length":243.14765358886746,"Shape_Area":3264.5005237757441}}]}