{"type":"FeatureCollection","features":[{"type":"Feature","id":1,"geometry":{"type":"Polygon","coordinates":[[[42.004261234605394,34.366648150846615],[42.001113368175574,34.369209738486447],[41.998365748780586,34.367735745193698],[41.999441661337542,34.36639698211296],[41.996959639813213,34.365125494829101],[41.997663935293254,34.364172531678889],[42.004261234605394,34.366648150846615]]]},"properties":{"OBJECTID":1,"Name":"سكن عمودي","اسم_المؤسس":"","Shape_Length":1944.6813782902468,"Shape_Area":163109.05162041352}},{"type":"Feature","id":5,"geometry":{"type":"Polygon","coordinates":[[[41.988943771498136,34.37138219002258],[41.988928021795125,34.371404753670944],[41.988757075764994,34.371649647939542],[41.988144962492143,34.371321843112902],[41.988340079436085,34.371071312101854],[41.988943771498136,34.37138219002258]]]},"properties":{"OBJECTID":5,"Name":"سكن عمودي","اسم_المؤسس":" ","Shape_Length":199.85832107947311,"Shape_Area":2230.8592523292505}}]}